,Date/Time,Temp(F),Temp (C),Dew Point Temp (C),Rel Hum (%),Wind Spd (km/h),Visibility (km),Stn Press (kPa),Weather
0,2012-01-01 00:00:00,54.36,-1.8,-3.9,86,4,8.0,101.24,Fog
1,2012-01-01 01:00:00,54.36,-1.8,-3.7,87,4,8.0,101.24,Fog
2,2012-01-01 02:00:00,54.36,-1.8,-3.4,89,7,4.0,101.26,"Freezing Drizzle,Fog"
3,2012-01-01 03:00:00,54.9,-1.5,-3.2,88,6,4.0,101.27,"Freezing Drizzle,Fog"
4,2012-01-01 04:00:00,54.9,-1.5,-3.3,88,7,4.8,101.23,Fog
5,2012-01-01 05:00:00,55.080000000000005,-1.4,-3.3,87,9,6.4,101.27,Fog
6,2012-01-01 06:00:00,54.9,-1.5,-3.1,89,7,6.4,101.29,Fog
7,2012-01-01 07:00:00,55.080000000000005,-1.4,-3.6,85,7,8.0,101.26,Fog
8,2012-01-01 08:00:00,55.080000000000005,-1.4,-3.6,85,9,8.0,101.23,Fog
9,2012-01-01 09:00:00,55.26,-1.3,-3.1,88,15,4.0,101.2,Fog
10,2012-01-01 10:00:00,55.800000000000004,-1.0,-2.3,91,9,1.2,101.15,Fog
11,2012-01-01 11:00:00,56.7,-0.5,-2.1,89,7,4.0,100.98,Fog
12,2012-01-01 12:00:00,57.24,-0.2,-2.0,88,9,4.8,100.79,Fog
13,2012-01-01 13:00:00,57.96000000000001,0.2,-1.7,87,13,4.8,100.58,Fog
14,2012-01-01 14:00:00,59.04,0.8,-1.1,87,20,4.8,100.31,Fog
15,2012-01-01 15:00:00,60.839999999999996,1.8,-0.4,85,22,6.4,100.07,Fog
16,2012-01-01 16:00:00,62.28,2.6,-0.2,82,13,12.9,99.93,Mostly Cloudy
17,2012-01-01 17:00:00,63.0,3.0,0.0,81,13,16.1,99.81,Cloudy
18,2012-01-01 18:00:00,64.44,3.8,1.0,82,15,12.9,99.74,Rain
19,2012-01-01 19:00:00,63.18000000000001,3.1,1.3,88,15,12.9,99.68,Rain
20,2012-01-01 20:00:00,63.36000000000001,3.2,1.3,87,19,25.0,99.5,Cloudy
21,2012-01-01 21:00:00,64.8,4.0,1.7,85,20,25.0,99.39,Cloudy
22,2012-01-01 22:00:00,65.52,4.4,1.9,84,24,19.3,99.32,Rain Showers
23,2012-01-01 23:00:00,67.14,5.3,2.0,79,30,25.0,99.31,Cloudy
24,2012-01-02 00:00:00,66.96000000000001,5.2,1.5,77,35,25.0,99.26,Rain Showers
25,2012-01-02 01:00:00,65.88000000000001,4.6,0.0,72,39,25.0,99.26,Cloudy
26,2012-01-02 02:00:00,64.62,3.9,-0.9,71,32,25.0,99.26,Mostly Cloudy
27,2012-01-02 03:00:00,64.26,3.7,-1.5,69,33,25.0,99.3,Mostly Cloudy
28,2012-01-02 04:00:00,62.82,2.9,-2.3,69,32,25.0,99.26,Mostly Cloudy
29,2012-01-02 05:00:00,62.28,2.6,-2.3,70,32,25.0,99.21,Mostly Cloudy
30,2012-01-02 06:00:00,61.739999999999995,2.3,-2.6,70,26,25.0,99.18,Mostly Cloudy
31,2012-01-02 07:00:00,61.2,2.0,-2.9,70,33,25.0,99.14,Mostly Cloudy
32,2012-01-02 08:00:00,61.019999999999996,1.9,-3.3,68,39,24.1,99.14,Mostly Cloudy
33,2012-01-02 09:00:00,60.839999999999996,1.8,-3.7,67,44,24.1,99.14,Mostly Cloudy
34,2012-01-02 10:00:00,60.300000000000004,1.5,-4.1,66,43,24.1,99.18,Mostly Cloudy
35,2012-01-02 11:00:00,61.56000000000001,2.2,-3.5,66,30,24.1,99.19,Mostly Cloudy
36,2012-01-02 12:00:00,60.660000000000004,1.7,-6.2,56,48,24.1,99.21,Mainly Clear
37,2012-01-02 13:00:00,59.580000000000005,1.1,-6.5,57,37,24.1,99.27,Mostly Cloudy
38,2012-01-02 14:00:00,59.580000000000005,1.1,-6.8,56,33,24.1,99.33,Mostly Cloudy
39,2012-01-02 15:00:00,57.6,0.0,-7.0,59,33,24.1,99.41,Mostly Cloudy
40,2012-01-02 16:00:00,56.34,-0.7,-8.7,55,24,24.1,99.5,Mostly Cloudy
41,2012-01-02 17:00:00,53.82,-2.1,-9.5,57,22,25.0,99.66,Snow Showers
42,2012-01-02 18:00:00,50.22,-4.1,-11.4,57,28,25.0,99.86,Mostly Cloudy
43,2012-01-02 19:00:00,48.96,-4.8,-12.1,57,24,25.0,100.0,Mostly Cloudy
44,2012-01-02 20:00:00,47.519999999999996,-5.6,-13.4,54,24,25.0,100.07,Snow Showers
45,2012-01-02 21:00:00,47.16,-5.8,-12.8,58,26,25.0,100.15,Snow Showers
46,2012-01-02 22:00:00,45.0,-7.0,-14.7,54,20,25.0,100.26,Cloudy
47,2012-01-02 23:00:00,44.28,-7.4,-14.1,59,17,19.3,100.27,Snow Showers
48,2012-01-03 00:00:00,41.4,-9.0,-16.0,57,28,25.0,100.35,Snow Showers
49,2012-01-03 01:00:00,40.14,-9.7,-17.2,54,20,25.0,100.43,Cloudy
50,2012-01-03 02:00:00,38.7,-10.5,-15.8,65,22,12.9,100.53,Snow Showers
51,2012-01-03 03:00:00,37.26,-11.3,-18.7,54,33,25.0,100.61,Snow Showers
52,2012-01-03 04:00:00,34.92,-12.6,-20.1,53,24,25.0,100.68,Cloudy
53,2012-01-03 05:00:00,34.38,-12.9,-19.1,60,22,25.0,100.76,Snow Showers
54,2012-01-03 06:00:00,33.66,-13.3,-19.3,61,19,25.0,100.85,Snow Showers
55,2012-01-03 07:00:00,32.4,-14.0,-19.5,63,19,25.0,100.95,Snow
56,2012-01-03 08:00:00,30.96,-14.8,-21.3,58,26,24.1,101.07,Mostly Cloudy
57,2012-01-03 09:00:00,30.6,-15.0,-21.9,56,19,24.1,101.2,Mostly Cloudy
58,2012-01-03 10:00:00,30.06,-15.3,-22.2,56,24,24.1,101.29,Cloudy
59,2012-01-03 11:00:00,30.780000000000005,-14.9,-22.2,54,22,24.1,101.33,Mostly Cloudy
60,2012-01-03 12:00:00,30.780000000000005,-14.9,-22.6,52,20,24.1,101.34,Mainly Clear
61,2012-01-03 13:00:00,30.419999999999998,-15.1,-22.4,54,22,24.1,101.34,Mainly Clear
62,2012-01-03 14:00:00,30.780000000000005,-14.9,-22.9,50,22,24.1,101.38,Mainly Clear
63,2012-01-03 15:00:00,30.96,-14.8,-22.2,53,19,24.1,101.44,Mainly Clear
64,2012-01-03 16:00:00,30.06,-15.3,-22.9,52,22,24.1,101.51,Mainly Clear
65,2012-01-03 17:00:00,29.16,-15.8,-23.2,53,22,24.1,101.58,Mainly Clear
66,2012-01-03 18:00:00,28.259999999999998,-16.3,-23.8,52,24,25.0,101.64,Mainly Clear
67,2012-01-03 19:00:00,27.180000000000003,-16.9,-24.8,50,24,25.0,101.74,Clear
68,2012-01-03 20:00:00,26.46,-17.3,-25.4,49,24,25.0,101.82,Mainly Clear
69,2012-01-03 21:00:00,27.0,-17.0,-24.6,52,15,25.0,101.86,Mostly Cloudy
70,2012-01-03 22:00:00,26.819999999999997,-17.1,-24.6,52,20,25.0,101.86,Mostly Cloudy
71,2012-01-03 23:00:00,26.46,-17.3,-24.2,55,17,25.0,101.87,Mostly Cloudy
72,2012-01-04 00:00:00,26.1,-17.5,-24.2,56,13,25.0,101.88,Mostly Cloudy
73,2012-01-04 01:00:00,25.380000000000003,-17.9,-24.1,58,11,25.0,101.86,Mainly Clear
74,2012-01-04 02:00:00,25.02,-18.1,-23.8,61,15,25.0,101.89,Mainly Clear
75,2012-01-04 03:00:00,24.3,-18.5,-24.6,59,13,25.0,101.88,Mainly Clear
76,2012-01-04 04:00:00,24.3,-18.5,-24.6,59,13,25.0,101.82,Mainly Clear
77,2012-01-04 05:00:00,24.119999999999997,-18.6,-24.0,62,9,25.0,101.77,Mainly Clear
78,2012-01-04 06:00:00,24.3,-18.5,-24.1,61,11,25.0,101.74,Cloudy
79,2012-01-04 07:00:00,24.840000000000003,-18.2,-24.1,60,11,25.0,101.75,Cloudy
80,2012-01-04 08:00:00,25.56,-17.8,-24.2,57,17,24.1,101.73,Mostly Cloudy
81,2012-01-04 09:00:00,27.36,-16.8,-22.5,61,9,24.1,101.68,Mostly Cloudy
82,2012-01-04 10:00:00,30.240000000000002,-15.2,-20.6,63,7,24.1,101.54,Mostly Cloudy
83,2012-01-04 11:00:00,32.04,-14.2,-21.1,56,13,24.1,101.41,Mostly Cloudy
84,2012-01-04 12:00:00,32.940000000000005,-13.7,-21.7,51,11,24.1,101.25,Snow
85,2012-01-04 13:00:00,35.28,-12.4,-20.1,53,11,24.1,101.07,Cloudy
86,2012-01-04 14:00:00,37.26,-11.3,-19.0,53,7,19.3,100.97,Snow
87,2012-01-04 15:00:00,39.24,-10.2,-16.3,61,11,9.7,100.89,Snow
88,2012-01-04 16:00:00,40.68000000000001,-9.4,-15.5,61,13,19.3,100.79,Snow
89,2012-01-04 17:00:00,41.580000000000005,-8.9,-13.2,71,9,4.8,100.76,Snow
90,2012-01-04 18:00:00,41.580000000000005,-8.9,-12.6,75,11,9.7,100.69,Snow
91,2012-01-04 19:00:00,42.480000000000004,-8.4,-12.7,71,9,16.1,100.65,Snow
92,2012-01-04 20:00:00,43.56,-7.8,-12.1,71,9,16.1,100.61,Snow
93,2012-01-04 21:00:00,43.92,-7.6,-11.6,73,7,11.3,100.54,Snow
94,2012-01-04 22:00:00,40.5,-9.5,-12.7,77,6,9.7,100.5,Snow
95,2012-01-04 23:00:00,40.32,-9.6,-12.6,79,6,9.7,100.42,Snow
96,2012-01-05 00:00:00,41.76,-8.8,-11.7,79,4,9.7,100.32,Snow
97,2012-01-05 01:00:00,44.1,-7.5,-10.2,81,0,9.7,100.29,Snow
98,2012-01-05 02:00:00,47.88,-5.4,-8.3,80,9,8.0,100.28,Snow
99,2012-01-05 03:00:00,48.6,-5.0,-7.7,81,11,9.7,100.24,Snow
100,2012-01-05 04:00:00,50.22,-4.1,-6.5,83,9,4.8,100.21,Snow
101,2012-01-05 05:00:00,45.0,-7.0,-9.5,82,4,4.0,100.19,Snow
102,2012-01-05 06:00:00,42.84,-8.2,-10.7,82,6,6.4,100.26,Snow
103,2012-01-05 07:00:00,44.82,-7.1,-9.7,82,9,9.7,100.31,Snow
104,2012-01-05 08:00:00,46.62,-6.1,-9.1,79,11,9.7,100.39,Snow
105,2012-01-05 09:00:00,45.72,-6.6,-10.1,76,9,24.1,100.42,Mainly Clear
106,2012-01-05 10:00:00,46.800000000000004,-6.0,-10.0,73,17,48.3,100.45,Mainly Clear
107,2012-01-05 11:00:00,47.519999999999996,-5.6,-10.2,70,22,48.3,100.41,Mainly Clear
108,2012-01-05 12:00:00,49.14,-4.7,-9.6,69,20,48.3,100.38,Mainly Clear
109,2012-01-05 13:00:00,49.68000000000001,-4.4,-9.7,66,26,48.3,100.4,Mainly Clear
110,2012-01-05 14:00:00,48.42,-5.1,-10.7,65,22,48.3,100.46,Mainly Clear
111,2012-01-05 15:00:00,49.86,-4.3,-12.0,55,26,48.3,100.52,Mainly Clear
112,2012-01-05 16:00:00,48.6,-5.0,-12.7,55,19,24.1,100.6,Mainly Clear
113,2012-01-05 17:00:00,45.54,-6.7,-14.1,56,11,25.0,100.65,Mainly Clear
114,2012-01-05 18:00:00,44.82,-7.1,-14.4,56,11,25.0,100.71,Clear
115,2012-01-05 19:00:00,41.04,-9.2,-15.4,61,7,25.0,100.8,Clear
116,2012-01-05 20:00:00,39.96,-9.8,-15.7,62,9,25.0,100.83,Clear
117,2012-01-05 21:00:00,41.4,-9.0,-14.8,63,13,25.0,100.83,Clear
118,2012-01-05 22:00:00,39.78,-9.9,-15.7,63,7,25.0,100.85,Cloudy
119,2012-01-05 23:00:00,40.68000000000001,-9.4,-15.5,61,9,25.0,100.83,Cloudy
120,2012-01-06 00:00:00,40.32,-9.6,-16.8,56,13,25.0,100.81,Cloudy
121,2012-01-06 01:00:00,39.6,-10.0,-17.3,55,17,25.0,100.81,Cloudy
122,2012-01-06 02:00:00,38.7,-10.5,-16.5,61,9,25.0,100.84,Cloudy
123,2012-01-06 03:00:00,38.519999999999996,-10.6,-16.0,64,0,9.7,100.76,Snow
124,2012-01-06 04:00:00,37.26,-11.3,-16.1,68,15,3.2,100.7,Snow
125,2012-01-06 05:00:00,36.36,-11.8,-16.0,71,19,2.8,100.61,Snow
126,2012-01-06 06:00:00,36.0,-12.0,-16.2,71,22,4.8,100.58,Snow
127,2012-01-06 07:00:00,31.680000000000003,-14.4,-16.3,85,22,2.4,100.52,Snow
128,2012-01-06 08:00:00,35.46,-12.3,-16.2,73,24,11.3,100.51,Snow
129,2012-01-06 09:00:00,35.1,-12.5,-16.7,71,26,19.3,100.53,Snow
130,2012-01-06 10:00:00,35.46,-12.3,-16.3,72,28,16.1,100.47,Snow
131,2012-01-06 11:00:00,36.0,-12.0,-16.0,72,17,24.1,100.36,Snow
132,2012-01-06 12:00:00,36.54,-11.7,-15.4,74,28,19.3,100.23,Snow
133,2012-01-06 13:00:00,36.18000000000001,-11.9,-15.6,74,20,24.1,100.13,Snow
134,2012-01-06 14:00:00,37.440000000000005,-11.2,-14.8,75,19,19.3,100.07,Snow
135,2012-01-06 15:00:00,36.9,-11.5,-14.4,79,19,12.9,100.06,Snow
136,2012-01-06 16:00:00,36.72,-11.6,-14.7,78,19,19.3,100.1,Snow
137,2012-01-06 17:00:00,37.440000000000005,-11.2,-14.3,78,17,25.0,100.15,Snow
138,2012-01-06 18:00:00,38.7,-10.5,-13.6,78,17,19.3,100.12,Cloudy
139,2012-01-06 19:00:00,38.7,-10.5,-13.4,79,15,25.0,100.13,Cloudy
140,2012-01-06 20:00:00,39.24,-10.2,-13.0,80,11,25.0,100.15,Cloudy
141,2012-01-06 21:00:00,40.5,-9.5,-12.5,79,9,25.0,100.13,Cloudy
142,2012-01-06 22:00:00,40.86,-9.3,-12.2,79,11,19.3,100.16,Cloudy
143,2012-01-06 23:00:00,41.4,-9.0,-12.0,79,7,16.1,100.15,Cloudy
144,2012-01-07 00:00:00,41.940000000000005,-8.7,-11.7,79,6,16.1,100.13,Cloudy
145,2012-01-07 01:00:00,42.300000000000004,-8.5,-11.4,80,0,19.3,100.11,Cloudy
146,2012-01-07 02:00:00,43.019999999999996,-8.1,-11.1,79,4,19.3,100.15,Cloudy
147,2012-01-07 03:00:00,43.56,-7.8,-10.8,79,4,19.3,100.12,Cloudy
148,2012-01-07 04:00:00,44.1,-7.5,-10.5,79,6,19.3,100.1,Cloudy
149,2012-01-07 05:00:00,45.18000000000001,-6.9,-9.7,80,4,19.3,100.12,Cloudy
150,2012-01-07 06:00:00,45.54,-6.7,-9.5,80,7,16.1,100.12,Cloudy
151,2012-01-07 07:00:00,45.0,-7.0,-9.7,81,7,16.1,100.16,Cloudy
152,2012-01-07 08:00:00,46.080000000000005,-6.4,-9.0,82,9,8.0,100.1,"Freezing Drizzle,Fog"
153,2012-01-07 09:00:00,46.62,-6.1,-8.7,82,7,9.7,100.15,"Freezing Rain,Fog"
154,2012-01-07 10:00:00,47.34,-5.7,-8.0,84,7,8.0,100.13,Freezing Rain
155,2012-01-07 11:00:00,47.88,-5.4,-7.7,84,9,9.7,100.08,Freezing Drizzle
156,2012-01-07 12:00:00,47.7,-5.5,-7.8,84,13,9.7,100.05,Freezing Drizzle
157,2012-01-07 13:00:00,48.96,-4.8,-7.2,83,15,9.7,100.07,Freezing Rain
158,2012-01-07 14:00:00,49.68000000000001,-4.4,-6.9,83,6,8.0,100.09,Snow
159,2012-01-07 15:00:00,50.940000000000005,-3.7,-6.1,83,11,8.0,100.09,Snow
160,2012-01-07 16:00:00,51.12,-3.6,-5.9,84,0,8.0,100.15,Snow
161,2012-01-07 17:00:00,52.019999999999996,-3.1,-5.4,84,13,8.0,100.27,Snow
162,2012-01-07 18:00:00,51.84,-3.2,-5.3,85,6,9.7,100.33,Snow
163,2012-01-07 19:00:00,52.2,-3.0,-5.0,86,6,8.0,100.41,Snow
164,2012-01-07 20:00:00,54.36,-1.8,-3.7,87,4,9.7,100.48,Snow
165,2012-01-07 21:00:00,55.26,-1.3,-3.1,88,0,6.4,100.5,Snow
166,2012-01-07 22:00:00,54.9,-1.5,-3.0,89,4,4.0,100.54,Fog
167,2012-01-07 23:00:00,58.32,0.4,-1.5,87,22,9.7,100.62,Snow
168,2012-01-08 00:00:00,58.68000000000001,0.6,-3.2,76,32,25.0,100.72,Cloudy
169,2012-01-08 01:00:00,56.519999999999996,-0.6,-4.6,74,32,25.0,100.8,Mostly Cloudy
170,2012-01-08 02:00:00,54.54,-1.7,-6.2,71,30,25.0,100.98,Mostly Cloudy
171,2012-01-08 03:00:00,51.300000000000004,-3.5,-8.3,69,32,25.0,101.13,Mainly Clear
172,2012-01-08 04:00:00,49.68000000000001,-4.4,-9.2,69,22,25.0,101.21,Mainly Clear
173,2012-01-08 05:00:00,46.980000000000004,-5.9,-10.5,70,13,25.0,101.33,Mainly Clear
174,2012-01-08 06:00:00,47.16,-5.8,-10.8,68,13,25.0,101.47,Cloudy
175,2012-01-08 07:00:00,47.519999999999996,-5.6,-10.3,69,11,25.0,101.59,Cloudy
176,2012-01-08 08:00:00,46.980000000000004,-5.9,-10.7,69,11,24.1,101.7,Snow
177,2012-01-08 09:00:00,46.080000000000005,-6.4,-11.9,65,17,24.1,101.81,Snow
178,2012-01-08 10:00:00,45.9,-6.5,-11.6,67,17,9.7,101.89,Snow
179,2012-01-08 11:00:00,44.82,-7.1,-12.6,65,22,24.1,101.92,Snow
180,2012-01-08 12:00:00,45.54,-6.7,-11.9,66,15,24.1,101.9,Snow
181,2012-01-08 13:00:00,45.9,-6.5,-12.4,63,15,24.1,101.94,Cloudy
182,2012-01-08 14:00:00,45.9,-6.5,-12.0,65,19,24.1,101.97,Mostly Cloudy
183,2012-01-08 15:00:00,45.72,-6.6,-12.9,61,20,48.3,102.04,Mostly Cloudy
184,2012-01-08 16:00:00,45.72,-6.6,-13.3,59,20,24.1,102.09,Mostly Cloudy
185,2012-01-08 17:00:00,44.64,-7.2,-13.8,59,17,25.0,102.17,Mainly Clear
186,2012-01-08 18:00:00,43.019999999999996,-8.1,-14.1,62,17,25.0,102.23,Mainly Clear
187,2012-01-08 19:00:00,43.2,-8.0,-13.9,62,15,25.0,102.26,Mostly Cloudy
188,2012-01-08 20:00:00,42.66,-8.3,-13.7,65,15,25.0,102.28,Mostly Cloudy
189,2012-01-08 21:00:00,42.66,-8.3,-13.9,64,11,25.0,102.26,Mostly Cloudy
190,2012-01-08 22:00:00,41.940000000000005,-8.7,-14.0,65,7,25.0,102.22,Mostly Cloudy
191,2012-01-08 23:00:00,41.4,-9.0,-13.9,68,7,25.0,102.22,Mostly Cloudy
192,2012-01-09 00:00:00,41.04,-9.2,-14.3,66,6,25.0,102.17,Mostly Cloudy
193,2012-01-09 01:00:00,39.96,-9.8,-14.5,68,0,25.0,102.13,Mostly Cloudy
194,2012-01-09 02:00:00,41.4,-9.0,-14.1,66,4,25.0,102.15,Mostly Cloudy
195,2012-01-09 03:00:00,41.76,-8.8,-13.2,70,0,25.0,102.11,Cloudy
196,2012-01-09 04:00:00,42.300000000000004,-8.5,-13.2,69,9,25.0,102.02,Cloudy
197,2012-01-09 05:00:00,42.480000000000004,-8.4,-12.7,71,11,25.0,101.93,Cloudy
198,2012-01-09 06:00:00,43.74,-7.7,-11.9,72,11,25.0,101.86,Cloudy
199,2012-01-09 07:00:00,45.36,-6.8,-11.0,72,15,25.0,101.8,Mostly Cloudy
200,2012-01-09 08:00:00,46.980000000000004,-5.9,-10.5,70,13,16.1,101.74,Snow
201,2012-01-09 09:00:00,47.88,-5.4,-9.2,75,11,12.9,101.68,Snow
202,2012-01-09 10:00:00,48.96,-4.8,-8.3,76,9,16.1,101.64,Snow
203,2012-01-09 11:00:00,50.940000000000005,-3.7,-7.2,77,7,24.1,101.54,Snow
204,2012-01-09 12:00:00,53.1,-2.5,-6.6,73,9,24.1,101.4,Cloudy
205,2012-01-09 13:00:00,54.54,-1.7,-5.8,74,7,24.1,101.27,Cloudy
206,2012-01-09 14:00:00,55.080000000000005,-1.4,-5.1,76,7,24.1,101.2,Cloudy
207,2012-01-09 15:00:00,55.800000000000004,-1.0,-5.1,74,9,24.1,101.13,Mostly Cloudy
208,2012-01-09 16:00:00,55.26,-1.3,-5.7,72,11,24.1,101.05,Mostly Cloudy
209,2012-01-09 17:00:00,55.080000000000005,-1.4,-5.8,72,15,24.1,100.96,Mostly Cloudy
210,2012-01-09 18:00:00,55.800000000000004,-1.0,-5.6,71,20,25.0,100.9,Mostly Cloudy
211,2012-01-09 19:00:00,55.62,-1.1,-5.8,70,19,25.0,100.83,Mostly Cloudy
212,2012-01-09 20:00:00,54.9,-1.5,-6.2,70,15,25.0,100.77,Mostly Cloudy
213,2012-01-09 21:00:00,54.54,-1.7,-6.3,71,11,25.0,100.64,Mostly Cloudy
214,2012-01-09 22:00:00,57.06,-0.3,-6.3,64,19,25.0,100.54,Mostly Cloudy
215,2012-01-09 23:00:00,57.24,-0.2,-6.1,64,17,25.0,100.45,Cloudy
216,2012-01-10 00:00:00,62.1,2.5,-5.2,57,30,25.0,100.38,Cloudy
217,2012-01-10 01:00:00,61.739999999999995,2.3,-3.4,66,35,25.0,100.28,Snow
218,2012-01-10 02:00:00,60.12,1.4,-2.5,75,19,6.4,100.23,Snow
219,2012-01-10 03:00:00,60.480000000000004,1.6,-2.0,77,28,25.0,100.16,Snow
220,2012-01-10 04:00:00,59.760000000000005,1.2,-1.7,81,26,25.0,100.07,Cloudy
221,2012-01-10 05:00:00,59.04,0.8,-1.2,86,30,9.7,100.02,"Rain,Snow"
222,2012-01-10 06:00:00,58.86000000000001,0.7,-1.2,87,30,8.0,100.04,Snow
223,2012-01-10 07:00:00,60.300000000000004,1.5,-0.7,85,20,8.0,100.08,Snow
224,2012-01-10 08:00:00,59.760000000000005,1.2,-1.1,85,24,16.1,100.11,Cloudy
225,2012-01-10 09:00:00,60.480000000000004,1.6,-0.8,84,17,19.3,100.23,Cloudy
226,2012-01-10 10:00:00,61.2,2.0,-0.9,81,24,24.1,100.27,Mostly Cloudy
227,2012-01-10 11:00:00,62.28,2.6,-1.1,77,22,24.1,100.29,Mainly Clear
228,2012-01-10 12:00:00,60.12,1.4,-3.1,72,30,24.1,100.32,Mostly Cloudy
229,2012-01-10 13:00:00,58.86000000000001,0.7,-5.4,64,26,24.1,100.36,Mostly Cloudy
230,2012-01-10 14:00:00,57.24,-0.2,-6.2,64,26,24.1,100.45,Mainly Clear
231,2012-01-10 15:00:00,55.080000000000005,-1.4,-7.9,61,30,24.1,100.65,Mainly Clear
232,2012-01-10 16:00:00,52.019999999999996,-3.1,-10.9,55,30,24.1,100.81,Mostly Cloudy
233,2012-01-10 17:00:00,50.4,-4.0,-12.0,54,17,24.1,100.91,Mostly Cloudy
234,2012-01-10 18:00:00,48.78,-4.9,-12.7,54,15,25.0,101.04,Mostly Cloudy
235,2012-01-10 19:00:00,47.34,-5.7,-13.8,53,15,25.0,101.15,Mostly Cloudy
236,2012-01-10 20:00:00,46.080000000000005,-6.4,-14.3,53,13,25.0,101.24,Mostly Cloudy
237,2012-01-10 21:00:00,45.72,-6.6,-13.6,57,9,25.0,101.32,Mostly Cloudy
238,2012-01-10 22:00:00,44.46,-7.3,-14.7,55,13,25.0,101.34,Mostly Cloudy
239,2012-01-10 23:00:00,42.12,-8.6,-15.6,57,19,25.0,101.44,Mostly Cloudy
240,2012-01-11 00:00:00,40.5,-9.5,-16.8,55,17,25.0,101.43,Mostly Cloudy
241,2012-01-11 01:00:00,38.34,-10.7,-17.8,56,17,25.0,101.49,Clear
242,2012-01-11 02:00:00,36.0,-12.0,-18.9,56,19,25.0,101.57,Clear
243,2012-01-11 03:00:00,34.74,-12.7,-19.4,57,19,25.0,101.64,Clear
244,2012-01-11 04:00:00,33.480000000000004,-13.4,-20.1,57,17,25.0,101.66,Clear
245,2012-01-11 05:00:00,32.580000000000005,-13.9,-21.0,55,19,25.0,101.66,Mainly Clear
246,2012-01-11 06:00:00,31.680000000000003,-14.4,-21.1,57,20,25.0,101.72,Mainly Clear
247,2012-01-11 07:00:00,31.680000000000003,-14.4,-21.0,57,13,25.0,101.77,Mostly Cloudy
248,2012-01-11 08:00:00,31.14,-14.7,-21.4,57,15,24.1,101.8,Mostly Cloudy
249,2012-01-11 09:00:00,31.86,-14.3,-20.8,58,15,24.1,101.81,Mostly Cloudy
250,2012-01-11 10:00:00,32.580000000000005,-13.9,-20.9,55,11,19.3,101.89,Cloudy
251,2012-01-11 11:00:00,33.480000000000004,-13.4,-20.8,54,15,24.1,101.78,Mostly Cloudy
252,2012-01-11 12:00:00,34.74,-12.7,-20.4,53,17,24.1,101.68,Cloudy
253,2012-01-11 13:00:00,35.64,-12.2,-20.0,52,19,24.1,101.63,Mostly Cloudy
254,2012-01-11 14:00:00,37.080000000000005,-11.4,-19.4,52,20,24.1,101.56,Mostly Cloudy
255,2012-01-11 15:00:00,36.72,-11.6,-19.9,50,20,24.1,101.61,Mostly Cloudy
256,2012-01-11 16:00:00,36.36,-11.8,-20.9,47,20,24.1,101.6,Mostly Cloudy
257,2012-01-11 17:00:00,36.18000000000001,-11.9,-20.1,51,26,24.1,101.56,Mostly Cloudy
258,2012-01-11 18:00:00,36.0,-12.0,-19.9,52,24,25.0,101.51,Mostly Cloudy
259,2012-01-11 19:00:00,36.36,-11.8,-19.2,54,30,25.0,101.43,Mostly Cloudy
260,2012-01-11 20:00:00,37.440000000000005,-11.2,-18.1,57,24,25.0,101.4,Cloudy
261,2012-01-11 21:00:00,37.440000000000005,-11.2,-16.5,65,19,25.0,101.32,Cloudy
262,2012-01-11 22:00:00,38.16,-10.8,-16.0,65,22,25.0,101.29,Cloudy
263,2012-01-11 23:00:00,38.34,-10.7,-15.7,67,20,25.0,101.19,Mostly Cloudy
264,2012-01-12 00:00:00,39.6,-10.0,-15.2,66,19,25.0,101.17,Mostly Cloudy
265,2012-01-12 01:00:00,39.96,-9.8,-15.2,65,24,25.0,101.13,Mostly Cloudy
266,2012-01-12 02:00:00,40.68000000000001,-9.4,-15.0,64,26,25.0,101.08,Cloudy
267,2012-01-12 03:00:00,41.4,-9.0,-14.7,63,33,25.0,101.02,Cloudy
268,2012-01-12 04:00:00,42.300000000000004,-8.5,-14.1,64,22,25.0,100.93,Cloudy
269,2012-01-12 05:00:00,43.2,-8.0,-13.7,64,30,25.0,100.81,Cloudy
270,2012-01-12 06:00:00,43.92,-7.6,-13.1,65,28,25.0,100.76,Cloudy
271,2012-01-12 07:00:00,44.46,-7.3,-12.7,65,28,16.1,100.69,Snow Showers
272,2012-01-12 08:00:00,44.82,-7.1,-11.3,72,33,6.4,100.61,Snow
273,2012-01-12 09:00:00,45.36,-6.8,-10.5,75,33,3.2,100.54,Snow
274,2012-01-12 10:00:00,46.440000000000005,-6.2,-9.6,77,35,4.8,100.46,Snow
275,2012-01-12 11:00:00,46.800000000000004,-6.0,-9.5,76,32,2.0,100.35,Snow
276,2012-01-12 12:00:00,47.16,-5.8,-8.9,79,32,4.8,100.22,Snow
277,2012-01-12 13:00:00,47.16,-5.8,-8.6,81,33,1.2,100.09,Snow
278,2012-01-12 14:00:00,47.34,-5.7,-8.5,81,28,1.2,99.97,Snow
279,2012-01-12 15:00:00,48.24,-5.2,-7.6,83,26,0.8,99.9,Moderate Snow
280,2012-01-12 16:00:00,48.78,-4.9,-7.3,83,33,0.6,99.88,Moderate Snow
281,2012-01-12 17:00:00,48.42,-5.1,-7.6,83,33,1.0,99.83,Snow
282,2012-01-12 18:00:00,47.88,-5.4,-8.1,81,35,1.2,99.76,Snow
283,2012-01-12 19:00:00,48.6,-5.0,-7.6,82,30,4.0,99.72,Snow
284,2012-01-12 20:00:00,48.6,-5.0,-7.8,81,28,6.4,99.64,Snow
285,2012-01-12 21:00:00,49.14,-4.7,-7.6,80,24,6.4,99.56,Snow
286,2012-01-12 22:00:00,50.22,-4.1,-6.8,81,26,25.0,99.47,Snow
287,2012-01-12 23:00:00,49.32,-4.6,-7.0,83,28,3.2,99.4,Snow
288,2012-01-13 00:00:00,48.42,-5.1,-7.5,83,28,2.4,99.3,Snow
289,2012-01-13 01:00:00,48.6,-5.0,-7.7,81,24,4.8,99.24,Snow
290,2012-01-13 02:00:00,48.96,-4.8,-7.5,81,22,25.0,99.22,Snow
291,2012-01-13 03:00:00,49.5,-4.5,-6.9,83,19,4.8,99.19,"Freezing Drizzle,Snow"
292,2012-01-13 04:00:00,48.6,-5.0,-7.4,83,24,11.3,99.13,Cloudy
293,2012-01-13 05:00:00,48.42,-5.1,-7.7,82,20,12.9,99.06,Cloudy
294,2012-01-13 06:00:00,47.88,-5.4,-7.8,83,22,16.1,98.94,Cloudy
295,2012-01-13 07:00:00,48.42,-5.1,-7.7,82,22,16.1,98.84,Cloudy
296,2012-01-13 08:00:00,48.42,-5.1,-7.5,83,26,8.0,98.69,Freezing Rain
297,2012-01-13 09:00:00,48.6,-5.0,-7.3,84,32,4.8,98.56,"Freezing Rain,Snow Grains"
298,2012-01-13 10:00:00,48.96,-4.8,-7.2,83,26,12.9,98.44,Freezing Drizzle
299,2012-01-13 11:00:00,48.96,-4.8,-7.3,83,28,9.7,98.22,Freezing Rain
300,2012-01-13 12:00:00,48.96,-4.8,-7.5,81,24,2.0,98.07,Snow
301,2012-01-13 13:00:00,48.78,-4.9,-7.3,83,20,1.2,97.99,Snow
302,2012-01-13 14:00:00,48.96,-4.8,-7.0,85,6,2.0,98.07,Snow
303,2012-01-13 15:00:00,49.86,-4.3,-6.5,85,13,8.0,98.1,Snow
304,2012-01-13 16:00:00,50.940000000000005,-3.7,-6.0,84,11,6.4,98.16,Snow
305,2012-01-13 17:00:00,52.38,-2.9,-4.8,87,15,1.6,98.23,Snow
306,2012-01-13 18:00:00,54.54,-1.7,-3.3,89,26,16.1,98.32,Snow
307,2012-01-13 19:00:00,53.1,-2.5,-4.5,86,33,2.0,98.6,Snow
308,2012-01-13 20:00:00,51.84,-3.2,-5.1,87,32,2.0,98.89,Snow
309,2012-01-13 21:00:00,48.96,-4.8,-7.9,79,37,4.8,99.09,"Snow,Blowing Snow"
310,2012-01-13 22:00:00,47.7,-5.5,-10.1,70,32,12.9,99.28,Snow
311,2012-01-13 23:00:00,43.92,-7.6,-11.2,75,35,9.7,99.51,"Snow,Blowing Snow"
312,2012-01-14 00:00:00,41.580000000000005,-8.9,-13.1,72,39,9.7,99.67,"Snow,Blowing Snow"
313,2012-01-14 01:00:00,40.14,-9.7,-14.3,69,24,12.9,99.85,Snow
314,2012-01-14 02:00:00,37.440000000000005,-11.2,-15.5,70,28,9.7,100.01,"Snow,Blowing Snow"
315,2012-01-14 03:00:00,36.0,-12.0,-16.2,71,24,8.0,100.16,"Snow,Blowing Snow"
316,2012-01-14 04:00:00,33.480000000000004,-13.4,-18.9,63,20,16.1,100.26,Snow
317,2012-01-14 05:00:00,31.86,-14.3,-19.8,63,24,25.0,100.39,Cloudy
318,2012-01-14 06:00:00,30.240000000000002,-15.2,-20.6,63,24,25.0,100.6,Cloudy
319,2012-01-14 07:00:00,27.36,-16.8,-22.2,63,26,25.0,100.73,Mostly Cloudy
320,2012-01-14 08:00:00,25.380000000000003,-17.9,-23.5,62,20,24.1,100.84,Mostly Cloudy
321,2012-01-14 09:00:00,25.2,-18.0,-23.6,61,19,24.1,100.97,Cloudy
322,2012-01-14 10:00:00,25.2,-18.0,-23.9,60,22,24.1,101.08,Mostly Cloudy
323,2012-01-14 11:00:00,25.56,-17.8,-23.9,59,20,24.1,101.14,Mostly Cloudy
324,2012-01-14 12:00:00,26.1,-17.5,-23.8,58,20,48.3,101.16,Mostly Cloudy
325,2012-01-14 13:00:00,26.819999999999997,-17.1,-24.1,55,17,48.3,101.18,Mainly Clear
326,2012-01-14 14:00:00,27.540000000000003,-16.7,-23.4,56,17,48.3,101.2,Mostly Cloudy
327,2012-01-14 15:00:00,27.540000000000003,-16.7,-23.4,56,22,48.3,101.24,Mostly Cloudy
328,2012-01-14 16:00:00,27.540000000000003,-16.7,-24.3,52,19,24.1,101.3,Mostly Cloudy
329,2012-01-14 17:00:00,26.280000000000005,-17.4,-24.4,54,13,25.0,101.36,Mostly Cloudy
330,2012-01-14 18:00:00,25.740000000000002,-17.7,-24.3,56,20,25.0,101.46,Mainly Clear
331,2012-01-14 19:00:00,24.66,-18.3,-24.4,59,17,25.0,101.56,Mainly Clear
332,2012-01-14 20:00:00,22.319999999999997,-19.6,-25.8,58,13,25.0,101.62,Mainly Clear
333,2012-01-14 21:00:00,21.6,-20.0,-25.9,59,11,25.0,101.65,Mostly Cloudy
334,2012-01-14 22:00:00,21.780000000000005,-19.9,-26.0,58,13,25.0,101.74,Mostly Cloudy
335,2012-01-14 23:00:00,21.06,-20.3,-26.2,59,9,25.0,101.79,Mostly Cloudy
336,2012-01-15 00:00:00,19.44,-21.2,-26.8,61,11,25.0,101.81,Cloudy
337,2012-01-15 01:00:00,19.619999999999997,-21.1,-26.6,61,9,25.0,101.86,Cloudy
338,2012-01-15 02:00:00,19.080000000000002,-21.4,-26.6,63,9,25.0,101.99,Cloudy
339,2012-01-15 03:00:00,20.340000000000003,-20.7,-26.1,62,4,25.0,102.04,Cloudy
340,2012-01-15 04:00:00,19.8,-21.0,-26.6,61,0,25.0,102.12,Cloudy
341,2012-01-15 05:00:00,19.259999999999998,-21.3,-26.5,63,6,25.0,102.19,Mostly Cloudy
342,2012-01-15 06:00:00,15.840000000000002,-23.2,-28.5,62,7,25.0,102.28,Mostly Cloudy
343,2012-01-15 07:00:00,16.56,-22.8,-28.0,62,9,25.0,102.37,Mainly Clear
344,2012-01-15 08:00:00,15.659999999999998,-23.3,-28.5,62,7,24.1,102.45,Clear
345,2012-01-15 09:00:00,17.64,-22.2,-27.8,60,9,48.3,102.57,Mainly Clear
346,2012-01-15 10:00:00,20.52,-20.6,-26.8,58,9,48.3,102.66,Mainly Clear
347,2012-01-15 11:00:00,22.86,-19.3,-26.1,55,9,48.3,102.68,Mainly Clear
348,2012-01-15 12:00:00,25.2,-18.0,-25.5,52,13,48.3,102.67,Mainly Clear
349,2012-01-15 13:00:00,27.36,-16.8,-24.2,53,20,48.3,102.65,Mainly Clear
350,2012-01-15 14:00:00,28.8,-16.0,-23.4,53,26,48.3,102.66,Mainly Clear
351,2012-01-15 15:00:00,29.880000000000003,-15.4,-22.8,53,24,48.3,102.71,Clear
352,2012-01-15 16:00:00,30.419999999999998,-15.1,-22.8,52,24,48.3,102.79,Clear
353,2012-01-15 17:00:00,28.44,-16.2,-23.2,55,15,25.0,102.85,Clear
354,2012-01-15 18:00:00,28.259999999999998,-16.3,-22.9,57,17,25.0,102.89,Clear
355,2012-01-15 19:00:00,28.259999999999998,-16.3,-22.7,58,20,25.0,102.94,Clear
356,2012-01-15 20:00:00,27.540000000000003,-16.7,-22.4,61,17,25.0,102.98,Clear
357,2012-01-15 21:00:00,27.180000000000003,-16.9,-22.2,63,15,25.0,103.02,Clear
358,2012-01-15 22:00:00,27.180000000000003,-16.9,-21.7,66,17,25.0,103.07,Clear
359,2012-01-15 23:00:00,27.180000000000003,-16.9,-21.4,68,15,25.0,103.09,Clear
360,2012-01-16 00:00:00,26.819999999999997,-17.1,-21.9,66,15,25.0,103.09,Clear
361,2012-01-16 01:00:00,25.56,-17.8,-22.7,65,6,25.0,103.05,Clear
362,2012-01-16 02:00:00,24.3,-18.5,-23.0,68,6,25.0,103.08,Clear
363,2012-01-16 03:00:00,23.040000000000003,-19.2,-23.8,67,6,25.0,103.07,Clear
364,2012-01-16 04:00:00,23.94,-18.7,-23.5,66,0,25.0,103.05,Clear
365,2012-01-16 05:00:00,23.22,-19.1,-23.3,69,0,25.0,103.02,Clear
366,2012-01-16 06:00:00,23.94,-18.7,-23.2,68,0,25.0,103.01,Clear
367,2012-01-16 07:00:00,25.380000000000003,-17.9,-21.5,73,4,48.3,102.96,Mainly Clear
368,2012-01-16 08:00:00,25.380000000000003,-17.9,-22.6,67,9,48.3,102.9,Mostly Cloudy
369,2012-01-16 09:00:00,31.680000000000003,-14.4,-20.7,59,22,48.3,102.75,Cloudy
370,2012-01-16 10:00:00,33.12,-13.6,-18.7,65,19,48.3,102.62,Mostly Cloudy
371,2012-01-16 11:00:00,34.74,-12.7,-17.7,66,20,48.3,102.44,Mostly Cloudy
372,2012-01-16 12:00:00,38.34,-10.7,-16.9,60,19,48.3,102.17,Mostly Cloudy
373,2012-01-16 13:00:00,39.42,-10.1,-16.1,61,13,48.3,101.92,Cloudy
374,2012-01-16 14:00:00,41.4,-9.0,-13.8,68,13,48.3,101.71,Mostly Cloudy
375,2012-01-16 15:00:00,43.2,-8.0,-13.8,63,17,48.3,101.49,Cloudy
376,2012-01-16 16:00:00,44.82,-7.1,-14.1,57,9,48.3,101.41,Cloudy
377,2012-01-16 17:00:00,43.92,-7.6,-14.8,56,4,25.0,101.34,Mostly Cloudy
378,2012-01-16 18:00:00,35.1,-12.5,-17.5,66,15,25.0,101.31,Mainly Clear
379,2012-01-16 19:00:00,30.96,-14.8,-19.1,70,15,25.0,101.23,Mainly Clear
380,2012-01-16 20:00:00,32.4,-14.0,-18.3,70,13,25.0,101.19,Cloudy
381,2012-01-16 21:00:00,34.38,-12.9,-17.1,71,11,25.0,101.12,Cloudy
382,2012-01-16 22:00:00,35.64,-12.2,-16.5,70,9,25.0,101.05,Cloudy
383,2012-01-16 23:00:00,36.9,-11.5,-15.7,71,7,25.0,100.98,Cloudy
384,2012-01-17 00:00:00,38.16,-10.8,-15.0,71,9,25.0,100.94,Cloudy
385,2012-01-17 01:00:00,38.88,-10.4,-14.6,71,9,25.0,100.88,Cloudy
386,2012-01-17 02:00:00,40.14,-9.7,-13.7,73,9,25.0,100.84,Cloudy
387,2012-01-17 03:00:00,41.04,-9.2,-13.2,73,6,25.0,100.84,Cloudy
388,2012-01-17 04:00:00,41.4,-9.0,-12.2,78,6,6.4,100.8,Freezing Drizzle
389,2012-01-17 05:00:00,42.66,-8.3,-10.4,85,6,3.6,100.75,"Freezing Drizzle,Snow"
390,2012-01-17 06:00:00,43.74,-7.7,-9.9,84,6,2.4,100.72,"Freezing Drizzle,Snow"
391,2012-01-17 07:00:00,44.1,-7.5,-9.6,85,9,2.0,100.69,Snow
392,2012-01-17 08:00:00,44.28,-7.4,-9.6,84,9,2.4,100.65,Snow
393,2012-01-17 09:00:00,45.0,-7.0,-9.5,82,15,4.0,100.59,Snow
394,2012-01-17 10:00:00,45.9,-6.5,-9.0,82,15,1.2,100.6,Snow
395,2012-01-17 11:00:00,46.62,-6.1,-8.5,83,15,2.4,100.53,Snow
396,2012-01-17 12:00:00,48.06,-5.3,-7.9,82,19,2.8,100.38,Snow
397,2012-01-17 13:00:00,48.42,-5.1,-7.7,82,22,2.4,100.23,Snow
398,2012-01-17 14:00:00,49.86,-4.3,-6.5,85,22,1.6,100.05,Snow
399,2012-01-17 15:00:00,50.940000000000005,-3.7,-6.0,84,24,1.2,99.9,Snow
400,2012-01-17 16:00:00,51.300000000000004,-3.5,-6.0,83,28,1.2,99.69,Snow
401,2012-01-17 17:00:00,51.12,-3.6,-5.9,84,22,1.6,99.57,Snow
402,2012-01-17 18:00:00,51.300000000000004,-3.5,-5.8,84,22,2.4,99.38,Snow
403,2012-01-17 19:00:00,51.66,-3.3,-5.6,84,24,4.8,99.22,"Freezing Drizzle,Snow"
404,2012-01-17 20:00:00,51.12,-3.6,-5.7,85,24,3.2,98.98,Freezing Rain
405,2012-01-17 21:00:00,52.38,-2.9,-4.9,86,26,2.8,98.71,Freezing Rain
406,2012-01-17 22:00:00,54.72,-1.6,-3.2,89,17,3.2,98.47,Freezing Rain
407,2012-01-17 23:00:00,56.519999999999996,-0.6,-2.1,90,7,2.8,98.32,"Freezing Rain,Fog"
408,2012-01-18 00:00:00,61.38,2.1,0.7,90,11,8.0,98.31,Fog
409,2012-01-18 01:00:00,64.26,3.7,-2.1,66,83,25.0,98.36,Mostly Cloudy
410,2012-01-18 02:00:00,58.5,0.5,-4.0,72,70,25.0,98.62,Mostly Cloudy
411,2012-01-18 03:00:00,51.300000000000004,-3.5,-8.2,70,57,25.0,99.0,Mostly Cloudy
412,2012-01-18 04:00:00,46.62,-6.1,-10.9,69,48,25.0,99.36,Snow
413,2012-01-18 05:00:00,43.74,-7.7,-12.4,69,46,19.3,99.7,Snow
414,2012-01-18 06:00:00,42.300000000000004,-8.5,-13.9,65,39,19.3,100.0,Mostly Cloudy
415,2012-01-18 07:00:00,39.96,-9.8,-15.4,64,39,19.3,100.22,Mainly Clear
416,2012-01-18 08:00:00,37.980000000000004,-10.9,-16.6,63,35,24.1,100.43,Mainly Clear
417,2012-01-18 09:00:00,37.440000000000005,-11.2,-17.2,61,43,24.1,100.65,Mainly Clear
418,2012-01-18 10:00:00,37.440000000000005,-11.2,-17.2,61,35,24.1,100.78,Mainly Clear
419,2012-01-18 11:00:00,37.62,-11.1,-17.7,58,39,24.1,100.92,Mainly Clear
420,2012-01-18 12:00:00,37.800000000000004,-11.0,-17.8,57,37,24.1,101.0,Mainly Clear
421,2012-01-18 13:00:00,38.519999999999996,-10.6,-17.8,55,32,24.1,101.09,Mainly Clear
422,2012-01-18 14:00:00,39.06,-10.3,-17.6,55,28,48.3,101.19,Mainly Clear
423,2012-01-18 15:00:00,38.88,-10.4,-18.0,54,30,48.3,101.32,Mainly Clear
424,2012-01-18 16:00:00,38.519999999999996,-10.6,-18.4,53,26,48.3,101.45,Mainly Clear
425,2012-01-18 17:00:00,37.26,-11.3,-18.8,54,26,48.3,101.54,Clear
426,2012-01-18 18:00:00,36.0,-12.0,-18.2,60,22,25.0,101.67,Clear
427,2012-01-18 19:00:00,34.74,-12.7,-18.7,61,22,25.0,101.78,Clear
428,2012-01-18 20:00:00,33.480000000000004,-13.4,-19.2,62,17,25.0,101.83,Clear
429,2012-01-18 21:00:00,32.940000000000005,-13.7,-19.3,63,17,25.0,101.89,Clear
430,2012-01-18 22:00:00,32.04,-14.2,-19.8,62,13,25.0,101.92,Clear
431,2012-01-18 23:00:00,30.780000000000005,-14.9,-19.9,66,6,25.0,101.93,Clear
432,2012-01-19 00:00:00,27.72,-16.6,-20.9,69,7,25.0,101.94,Clear
433,2012-01-19 01:00:00,30.240000000000002,-15.2,-18.4,76,4,25.0,101.89,Clear
434,2012-01-19 02:00:00,31.86,-14.3,-17.4,77,6,25.0,101.86,Clear
435,2012-01-19 03:00:00,25.2,-18.0,-21.6,73,6,25.0,101.83,Clear
436,2012-01-19 04:00:00,29.880000000000003,-15.4,-18.3,78,7,25.0,101.81,Clear
437,2012-01-19 05:00:00,27.72,-16.6,-19.9,76,6,25.0,101.85,Clear
438,2012-01-19 06:00:00,30.06,-15.3,-19.7,69,6,25.0,101.83,Clear
439,2012-01-19 07:00:00,31.319999999999997,-14.6,-19.2,68,6,24.1,101.84,Clear
440,2012-01-19 08:00:00,32.940000000000005,-13.7,-18.4,68,19,48.3,101.84,Clear
441,2012-01-19 09:00:00,34.74,-12.7,-17.2,69,17,48.3,101.73,Clear
442,2012-01-19 10:00:00,36.54,-11.7,-17.2,64,20,48.3,101.68,Mainly Clear
443,2012-01-19 11:00:00,37.800000000000004,-11.0,-16.9,62,26,48.3,101.56,Mostly Cloudy
444,2012-01-19 12:00:00,41.76,-8.8,-15.4,59,15,48.3,101.42,Mostly Cloudy
445,2012-01-19 13:00:00,44.46,-7.3,-14.7,55,20,48.3,101.22,Mostly Cloudy
446,2012-01-19 14:00:00,45.0,-7.0,-14.9,53,20,48.3,101.03,Mostly Cloudy
447,2012-01-19 15:00:00,45.54,-6.7,-15.0,52,26,48.3,100.88,Cloudy
448,2012-01-19 16:00:00,45.54,-6.7,-14.9,52,24,24.1,100.76,Cloudy
449,2012-01-19 17:00:00,45.18000000000001,-6.9,-14.7,54,17,24.1,100.7,Cloudy
450,2012-01-19 18:00:00,48.6,-5.0,-12.9,54,19,25.0,100.66,Cloudy
451,2012-01-19 19:00:00,51.12,-3.6,-12.7,49,30,25.0,100.61,Snow
452,2012-01-19 20:00:00,50.940000000000005,-3.7,-11.9,53,30,16.1,100.63,Snow
453,2012-01-19 21:00:00,48.6,-5.0,-8.4,77,24,2.0,100.6,Snow
454,2012-01-19 22:00:00,50.04,-4.2,-9.3,68,32,25.0,100.51,Snow
455,2012-01-19 23:00:00,50.22,-4.1,-8.9,69,26,25.0,100.47,Snow
456,2012-01-20 00:00:00,50.22,-4.1,-8.6,71,26,25.0,100.5,Mostly Cloudy
457,2012-01-20 01:00:00,50.22,-4.1,-8.3,73,20,25.0,100.54,Snow
458,2012-01-20 02:00:00,50.580000000000005,-3.9,-8.1,73,22,9.7,100.64,Snow
459,2012-01-20 03:00:00,48.96,-4.8,-9.9,67,19,25.0,100.75,Mostly Cloudy
460,2012-01-20 04:00:00,46.800000000000004,-6.0,-10.2,72,19,16.1,100.87,Snow
461,2012-01-20 05:00:00,46.26,-6.3,-12.2,63,33,25.0,100.98,Snow
462,2012-01-20 06:00:00,43.92,-7.6,-14.3,59,28,25.0,101.13,Cloudy
463,2012-01-20 07:00:00,42.12,-8.6,-15.6,57,28,25.0,101.27,Mostly Cloudy
464,2012-01-20 08:00:00,38.88,-10.4,-16.2,62,33,24.1,101.47,Mainly Clear
465,2012-01-20 09:00:00,35.64,-12.2,-18.1,61,32,24.1,101.59,Clear
466,2012-01-20 10:00:00,32.940000000000005,-13.7,-20.3,57,33,24.1,101.72,Mainly Clear
467,2012-01-20 11:00:00,32.04,-14.2,-21.2,55,32,24.1,101.84,Clear
468,2012-01-20 12:00:00,30.240000000000002,-15.2,-22.1,56,30,24.1,101.88,Clear
469,2012-01-20 13:00:00,29.16,-15.8,-23.7,51,30,24.1,101.96,Clear
470,2012-01-20 14:00:00,29.7,-15.5,-24.1,48,30,48.3,101.98,Mainly Clear
471,2012-01-20 15:00:00,30.6,-15.0,-23.9,47,30,48.3,102.09,Mainly Clear
472,2012-01-20 16:00:00,30.96,-14.8,-24.1,45,24,48.3,102.15,Mainly Clear
473,2012-01-20 17:00:00,29.880000000000003,-15.4,-24.3,46,17,48.3,102.21,Mainly Clear
474,2012-01-20 18:00:00,28.980000000000004,-15.9,-24.3,48,13,25.0,102.27,Mainly Clear
475,2012-01-20 19:00:00,28.259999999999998,-16.3,-24.2,51,13,25.0,102.33,Mainly Clear
476,2012-01-20 20:00:00,27.180000000000003,-16.9,-24.8,50,9,25.0,102.34,Mainly Clear
477,2012-01-20 21:00:00,24.3,-18.5,-25.6,54,9,25.0,102.37,Mainly Clear
478,2012-01-20 22:00:00,25.02,-18.1,-25.1,54,9,25.0,102.36,Mainly Clear
479,2012-01-20 23:00:00,26.280000000000005,-17.4,-24.5,54,6,25.0,102.37,Mostly Cloudy
480,2012-01-21 00:00:00,28.080000000000002,-16.4,-23.7,53,6,25.0,102.29,Cloudy
481,2012-01-21 01:00:00,28.619999999999997,-16.1,-23.6,52,0,25.0,102.26,Cloudy
482,2012-01-21 02:00:00,30.06,-15.3,-22.8,53,0,25.0,102.27,Cloudy
483,2012-01-21 03:00:00,28.980000000000004,-15.9,-21.9,60,7,25.0,102.23,Cloudy
484,2012-01-21 04:00:00,30.06,-15.3,-21.8,58,7,25.0,102.18,Cloudy
485,2012-01-21 05:00:00,30.96,-14.8,-22.9,50,11,25.0,102.08,Cloudy
486,2012-01-21 06:00:00,31.86,-14.3,-22.0,52,9,25.0,101.98,Cloudy
487,2012-01-21 07:00:00,32.580000000000005,-13.9,-22.1,50,9,25.0,102.04,Cloudy
488,2012-01-21 08:00:00,32.4,-14.0,-21.8,52,9,25.0,102.06,Cloudy
489,2012-01-21 09:00:00,28.980000000000004,-15.9,-21.0,65,13,24.1,102.11,Snow
490,2012-01-21 10:00:00,28.259999999999998,-16.3,-21.4,65,17,24.1,102.12,Snow
491,2012-01-21 11:00:00,28.980000000000004,-15.9,-21.2,64,19,24.1,102.09,Snow
492,2012-01-21 12:00:00,31.319999999999997,-14.6,-20.3,62,15,24.1,102.03,Mostly Cloudy
493,2012-01-21 13:00:00,33.480000000000004,-13.4,-19.8,59,15,24.1,102.01,Mainly Clear
494,2012-01-21 14:00:00,35.1,-12.5,-19.7,55,13,24.1,102.01,Clear
495,2012-01-21 15:00:00,36.36,-11.8,-18.9,56,11,24.1,102.06,Clear
496,2012-01-21 16:00:00,36.72,-11.6,-18.8,55,7,48.3,102.11,Clear
497,2012-01-21 17:00:00,35.82,-12.1,-19.8,53,11,48.3,102.16,Clear
498,2012-01-21 18:00:00,34.2,-13.0,-20.2,55,6,25.0,102.24,Clear
499,2012-01-21 19:00:00,33.480000000000004,-13.4,-19.9,58,4,25.0,102.27,Clear
500,2012-01-21 20:00:00,24.3,-18.5,-24.4,60,4,25.0,102.36,Clear
501,2012-01-21 21:00:00,28.8,-16.0,-20.8,66,9,25.0,102.47,Clear
502,2012-01-21 22:00:00,25.919999999999998,-17.6,-23.3,61,0,25.0,102.52,Clear
503,2012-01-21 23:00:00,26.280000000000005,-17.4,-21.7,69,0,25.0,102.54,Mainly Clear
504,2012-01-22 00:00:00,24.66,-18.3,-22.5,70,0,25.0,102.57,Clear
505,2012-01-22 01:00:00,26.1,-17.5,-21.3,72,4,25.0,102.64,Clear
506,2012-01-22 02:00:00,24.3,-18.5,-22.6,70,0,25.0,102.71,Clear
507,2012-01-22 03:00:00,24.480000000000004,-18.4,-23.0,67,0,16.1,102.75,Cloudy
508,2012-01-22 04:00:00,26.64,-17.2,-21.5,69,0,25.0,102.79,Mainly Clear
509,2012-01-22 05:00:00,22.5,-19.5,-23.4,71,6,16.1,102.84,Mainly Clear
510,2012-01-22 06:00:00,23.400000000000002,-19.0,-22.9,71,6,0.8,102.85,Freezing Fog
511,2012-01-22 07:00:00,24.119999999999997,-18.6,-22.8,69,6,12.9,102.91,Mainly Clear
512,2012-01-22 08:00:00,24.3,-18.5,-22.0,74,4,24.1,102.98,Mainly Clear
513,2012-01-22 09:00:00,28.44,-16.2,-19.2,78,7,48.3,103.01,Mostly Cloudy
514,2012-01-22 10:00:00,31.5,-14.5,-17.2,80,9,8.0,103.02,Fog
515,2012-01-22 11:00:00,34.2,-13.0,-15.5,81,6,8.0,103.04,Fog
516,2012-01-22 12:00:00,36.9,-11.5,-15.4,73,9,8.0,102.97,Haze
517,2012-01-22 13:00:00,37.440000000000005,-11.2,-16.0,68,11,8.0,102.86,Haze
518,2012-01-22 14:00:00,40.68000000000001,-9.4,-14.8,65,9,16.1,102.74,Cloudy
519,2012-01-22 15:00:00,41.940000000000005,-8.7,-14.5,63,9,16.1,102.65,Cloudy
520,2012-01-22 16:00:00,43.2,-8.0,-14.7,59,6,19.3,102.6,Cloudy
521,2012-01-22 17:00:00,40.5,-9.5,-15.8,60,19,19.3,102.57,Cloudy
522,2012-01-22 18:00:00,38.88,-10.4,-16.1,63,19,19.3,102.52,Mostly Cloudy
523,2012-01-22 19:00:00,38.88,-10.4,-16.2,62,19,19.3,102.47,Mostly Cloudy
524,2012-01-22 20:00:00,35.46,-12.3,-16.8,69,15,19.3,102.44,Mainly Clear
525,2012-01-22 21:00:00,34.38,-12.9,-17.2,70,15,16.1,102.38,Clear
526,2012-01-22 22:00:00,33.84,-13.2,-17.0,73,13,16.1,102.33,Mostly Cloudy
527,2012-01-22 23:00:00,33.66,-13.3,-17.1,73,9,16.1,102.28,Mainly Clear
528,2012-01-23 00:00:00,34.38,-12.9,-17.0,71,11,25.0,102.22,Mostly Cloudy
529,2012-01-23 01:00:00,34.38,-12.9,-17.2,70,11,25.0,102.14,Mainly Clear
530,2012-01-23 02:00:00,33.84,-13.2,-17.1,72,13,25.0,102.1,Mostly Cloudy
531,2012-01-23 03:00:00,35.82,-12.1,-16.0,73,13,25.0,101.99,Cloudy
532,2012-01-23 04:00:00,37.440000000000005,-11.2,-15.2,72,11,25.0,101.88,Cloudy
533,2012-01-23 05:00:00,39.78,-9.9,-13.9,73,11,25.0,101.79,Cloudy
534,2012-01-23 06:00:00,41.76,-8.8,-12.8,73,7,25.0,101.76,Cloudy
535,2012-01-23 07:00:00,43.019999999999996,-8.1,-12.1,73,13,25.0,101.67,Mostly Cloudy
536,2012-01-23 08:00:00,44.64,-7.2,-11.1,74,11,24.1,101.69,Mostly Cloudy
537,2012-01-23 09:00:00,48.78,-4.9,-9.2,72,11,48.3,101.59,Mostly Cloudy
538,2012-01-23 10:00:00,51.12,-3.6,-7.9,72,9,48.3,101.58,Mostly Cloudy
539,2012-01-23 11:00:00,59.760000000000005,1.2,-3.2,72,11,48.3,101.49,Cloudy
540,2012-01-23 12:00:00,61.739999999999995,2.3,-2.4,71,6,48.3,101.33,Cloudy
541,2012-01-23 13:00:00,62.1,2.5,-1.5,75,22,48.3,101.14,Cloudy
542,2012-01-23 14:00:00,62.46000000000001,2.7,-1.1,76,26,48.3,101.01,Rain
543,2012-01-23 15:00:00,62.46000000000001,2.7,-0.9,77,30,24.1,100.86,Rain
544,2012-01-23 16:00:00,63.18000000000001,3.1,-0.3,78,28,24.1,100.71,Cloudy
545,2012-01-23 17:00:00,63.18000000000001,3.1,-0.4,78,28,16.1,100.61,Rain
546,2012-01-23 18:00:00,63.0,3.0,1.2,88,19,4.0,100.54,"Rain,Fog"
547,2012-01-23 19:00:00,63.36000000000001,3.2,1.4,88,22,8.0,100.43,"Rain,Fog"
548,2012-01-23 20:00:00,62.82,2.9,1.2,89,26,9.7,100.32,"Drizzle,Fog"
549,2012-01-23 21:00:00,63.54,3.3,1.7,89,24,11.3,100.22,Drizzle
550,2012-01-23 22:00:00,64.08,3.6,2.2,91,28,25.0,100.1,Cloudy
551,2012-01-23 23:00:00,64.8,4.0,2.5,90,22,25.0,100.08,Cloudy
552,2012-01-24 00:00:00,63.9,3.5,2.3,92,17,12.9,100.04,Rain
553,2012-01-24 01:00:00,63.18000000000001,3.1,1.9,92,19,16.1,100.04,Cloudy
554,2012-01-24 02:00:00,63.18000000000001,3.1,2.1,93,9,9.7,100.09,Rain
555,2012-01-24 03:00:00,66.60000000000001,5.0,3.6,91,19,9.7,100.19,Rain
556,2012-01-24 04:00:00,65.16000000000001,4.2,1.2,81,30,25.0,100.25,Cloudy
557,2012-01-24 05:00:00,64.26,3.7,-0.2,76,41,25.0,100.37,Cloudy
558,2012-01-24 06:00:00,63.72,3.4,-0.6,75,28,25.0,100.45,Cloudy
559,2012-01-24 07:00:00,62.82,2.9,-1.1,75,26,16.1,100.49,Cloudy
560,2012-01-24 08:00:00,63.0,3.0,-1.7,71,28,19.3,100.52,Mostly Cloudy
561,2012-01-24 09:00:00,62.82,2.9,-1.8,71,30,24.1,100.6,Cloudy
562,2012-01-24 10:00:00,63.0,3.0,-2.0,70,35,24.1,100.65,Cloudy
563,2012-01-24 11:00:00,63.18000000000001,3.1,-1.9,70,33,24.1,100.7,Cloudy
564,2012-01-24 12:00:00,63.36000000000001,3.2,-2.3,67,30,24.1,100.72,Cloudy
565,2012-01-24 13:00:00,62.63999999999999,2.8,-2.4,69,39,24.1,100.73,Cloudy
566,2012-01-24 14:00:00,61.92,2.4,-2.4,71,35,24.1,100.75,Rain
567,2012-01-24 15:00:00,61.019999999999996,1.9,-2.2,74,26,19.3,100.8,Snow
568,2012-01-24 16:00:00,60.660000000000004,1.7,-2.4,74,30,24.1,100.82,Cloudy
569,2012-01-24 17:00:00,60.480000000000004,1.6,-2.8,73,26,24.1,100.88,Snow Showers
570,2012-01-24 18:00:00,60.300000000000004,1.5,-2.9,72,22,25.0,100.95,Snow Showers
571,2012-01-24 19:00:00,60.300000000000004,1.5,-3.2,71,32,25.0,101.01,Snow Showers
572,2012-01-24 20:00:00,59.94,1.3,-3.2,72,19,25.0,101.06,Cloudy
573,2012-01-24 21:00:00,59.580000000000005,1.1,-3.0,74,20,25.0,101.11,Mostly Cloudy
574,2012-01-24 22:00:00,59.580000000000005,1.1,-3.4,72,22,25.0,101.13,Mostly Cloudy
575,2012-01-24 23:00:00,59.4,1.0,-3.4,72,28,25.0,101.16,Snow Showers
576,2012-01-25 00:00:00,58.5,0.5,-4.6,69,28,25.0,101.2,Cloudy
577,2012-01-25 01:00:00,57.42,-0.1,-5.2,68,22,25.0,101.26,Mostly Cloudy
578,2012-01-25 02:00:00,56.88,-0.4,-5.9,66,20,25.0,101.37,Mostly Cloudy
579,2012-01-25 03:00:00,56.7,-0.5,-6.2,65,24,25.0,101.45,Cloudy
580,2012-01-25 04:00:00,56.34,-0.7,-6.0,67,24,25.0,101.52,Cloudy
581,2012-01-25 05:00:00,54.54,-1.7,-7.7,64,33,25.0,101.58,Mostly Cloudy
582,2012-01-25 06:00:00,52.56,-2.8,-9.0,62,35,25.0,101.66,Mostly Cloudy
583,2012-01-25 07:00:00,50.580000000000005,-3.9,-10.0,63,37,25.0,101.79,Mostly Cloudy
584,2012-01-25 08:00:00,49.14,-4.7,-10.9,62,26,24.1,101.94,Mostly Cloudy
585,2012-01-25 09:00:00,48.24,-5.2,-11.3,62,28,24.1,102.05,Cloudy
586,2012-01-25 10:00:00,48.06,-5.3,-11.4,62,22,24.1,102.09,Mostly Cloudy
587,2012-01-25 11:00:00,48.06,-5.3,-11.9,60,19,24.1,102.14,Mostly Cloudy
588,2012-01-25 12:00:00,48.6,-5.0,-11.8,59,20,24.1,102.06,Mostly Cloudy
589,2012-01-25 13:00:00,49.14,-4.7,-11.7,58,20,24.1,102.01,Mainly Clear
590,2012-01-25 14:00:00,49.5,-4.5,-11.0,60,22,24.1,101.98,Mainly Clear
591,2012-01-25 15:00:00,49.68000000000001,-4.4,-11.2,59,22,24.1,101.94,Mainly Clear
592,2012-01-25 16:00:00,49.68000000000001,-4.4,-11.3,59,19,24.1,101.96,Mostly Cloudy
593,2012-01-25 17:00:00,48.96,-4.8,-11.4,60,20,24.1,102.01,Mainly Clear
594,2012-01-25 18:00:00,48.42,-5.1,-11.4,61,11,25.0,102.07,Mainly Clear
595,2012-01-25 19:00:00,47.88,-5.4,-11.5,62,13,25.0,102.14,Mostly Cloudy
596,2012-01-25 20:00:00,48.78,-4.9,-11.6,59,7,25.0,102.07,Mostly Cloudy
597,2012-01-25 21:00:00,47.88,-5.4,-11.1,64,7,25.0,102.01,Mostly Cloudy
598,2012-01-25 22:00:00,47.7,-5.5,-11.3,64,0,25.0,101.99,Mostly Cloudy
599,2012-01-25 23:00:00,47.88,-5.4,-11.4,63,6,25.0,102.01,Mostly Cloudy
600,2012-01-26 00:00:00,46.980000000000004,-5.9,-11.7,64,6,25.0,101.99,Mostly Cloudy
601,2012-01-26 01:00:00,45.0,-7.0,-12.1,67,4,25.0,101.95,Clear
602,2012-01-26 02:00:00,42.84,-8.2,-12.6,71,6,25.0,101.99,Clear
603,2012-01-26 03:00:00,43.019999999999996,-8.1,-12.5,71,0,25.0,101.97,Clear
604,2012-01-26 04:00:00,42.300000000000004,-8.5,-13.5,67,0,25.0,101.95,Clear
605,2012-01-26 05:00:00,41.4,-9.0,-13.9,68,6,25.0,102.02,Clear
606,2012-01-26 06:00:00,37.440000000000005,-11.2,-15.0,73,6,25.0,102.06,Clear
607,2012-01-26 07:00:00,38.519999999999996,-10.6,-14.4,74,6,24.1,102.01,Mainly Clear
608,2012-01-26 08:00:00,41.04,-9.2,-13.3,72,6,24.1,102.08,Clear
609,2012-01-26 09:00:00,43.38,-7.9,-12.4,70,11,24.1,102.01,Mainly Clear
610,2012-01-26 10:00:00,47.34,-5.7,-12.4,59,11,24.1,102.04,Mainly Clear
611,2012-01-26 11:00:00,48.6,-5.0,-12.1,57,7,24.1,102.05,Mainly Clear
612,2012-01-26 12:00:00,49.32,-4.6,-12.5,54,11,24.1,101.88,Mainly Clear
613,2012-01-26 13:00:00,50.4,-4.0,-12.0,54,15,24.1,101.71,Mostly Cloudy
614,2012-01-26 14:00:00,51.480000000000004,-3.4,-12.5,49,11,24.1,101.6,Mostly Cloudy
615,2012-01-26 15:00:00,52.2,-3.0,-14.1,42,13,24.1,101.53,Mostly Cloudy
616,2012-01-26 16:00:00,50.76,-3.8,-12.2,52,19,24.1,101.52,Cloudy
617,2012-01-26 17:00:00,49.86,-4.3,-12.2,54,20,24.1,101.4,Cloudy
618,2012-01-26 18:00:00,49.14,-4.7,-13.7,49,24,25.0,101.28,Cloudy
619,2012-01-26 19:00:00,49.5,-4.5,-13.5,49,17,25.0,101.25,Cloudy
620,2012-01-26 20:00:00,49.32,-4.6,-13.0,52,17,25.0,101.15,Snow Showers
621,2012-01-26 21:00:00,48.24,-5.2,-12.1,58,20,25.0,100.99,Snow
622,2012-01-26 22:00:00,48.06,-5.3,-10.2,68,22,16.1,100.92,Snow
623,2012-01-26 23:00:00,47.16,-5.8,-9.1,77,22,6.4,100.81,Snow
624,2012-01-27 00:00:00,47.34,-5.7,-8.8,79,28,4.8,100.68,Snow
625,2012-01-27 01:00:00,47.7,-5.5,-8.3,81,24,2.4,100.58,Snow
626,2012-01-27 02:00:00,47.7,-5.5,-8.2,81,26,3.2,100.47,Snow
627,2012-01-27 03:00:00,48.06,-5.3,-8.1,81,28,4.0,100.33,Snow
628,2012-01-27 04:00:00,48.78,-4.9,-7.6,81,26,2.4,100.13,Snow
629,2012-01-27 05:00:00,50.4,-4.0,-6.6,82,22,16.1,99.98,Snow
630,2012-01-27 06:00:00,53.82,-2.1,-4.2,86,19,19.3,99.8,Snow
631,2012-01-27 07:00:00,56.16,-0.8,-2.9,86,22,16.1,99.61,Freezing Rain
632,2012-01-27 08:00:00,58.13999999999999,0.3,-1.7,86,20,12.9,99.47,Freezing Rain
633,2012-01-27 09:00:00,58.86000000000001,0.7,-1.4,86,17,12.9,99.34,Rain
634,2012-01-27 10:00:00,58.68000000000001,0.6,-1.2,88,17,8.0,99.18,"Rain,Fog"
635,2012-01-27 11:00:00,58.86000000000001,0.7,-1.0,88,20,2.4,99.08,"Drizzle,Fog"
636,2012-01-27 12:00:00,58.86000000000001,0.7,-0.9,89,20,2.8,98.91,"Drizzle,Fog"
637,2012-01-27 13:00:00,58.86000000000001,0.7,-1.0,88,22,3.2,98.76,"Drizzle,Fog"
638,2012-01-27 14:00:00,58.5,0.5,-1.3,88,20,2.4,98.69,"Drizzle,Fog"
639,2012-01-27 15:00:00,58.13999999999999,0.3,-1.6,87,19,2.4,98.65,"Drizzle,Fog"
640,2012-01-27 16:00:00,57.06,-0.3,-2.3,86,19,8.0,98.74,"Freezing Drizzle,Fog"
641,2012-01-27 17:00:00,56.519999999999996,-0.6,-2.3,88,22,2.8,98.97,Snow
642,2012-01-27 18:00:00,57.06,-0.3,-1.8,90,11,2.4,99.13,Snow
643,2012-01-27 19:00:00,57.78,0.1,-1.6,88,30,12.9,99.31,Snow
644,2012-01-27 20:00:00,56.34,-0.7,-2.7,86,32,16.1,99.54,Cloudy
645,2012-01-27 21:00:00,55.26,-1.3,-3.9,82,19,24.1,99.75,Cloudy
646,2012-01-27 22:00:00,54.9,-1.5,-4.4,81,19,25.0,99.88,Mostly Cloudy
647,2012-01-27 23:00:00,54.72,-1.6,-4.5,81,20,25.0,100.03,Mainly Clear
648,2012-01-28 00:00:00,54.9,-1.5,-4.3,81,19,25.0,100.19,Mainly Clear
649,2012-01-28 01:00:00,57.24,-0.2,-2.9,82,22,25.0,100.34,Snow Showers
650,2012-01-28 02:00:00,57.96000000000001,0.2,-2.6,81,24,25.0,100.49,Mostly Cloudy
651,2012-01-28 03:00:00,58.32,0.4,-3.0,78,17,25.0,100.59,Mostly Cloudy
652,2012-01-28 04:00:00,57.78,0.1,-3.4,77,15,25.0,100.64,Mostly Cloudy
653,2012-01-28 05:00:00,58.13999999999999,0.3,-2.7,80,19,25.0,100.72,Mostly Cloudy
654,2012-01-28 06:00:00,54.54,-1.7,-5.4,76,9,25.0,100.79,Mostly Cloudy
655,2012-01-28 07:00:00,55.440000000000005,-1.2,-4.6,78,11,25.0,100.85,Mainly Clear
656,2012-01-28 08:00:00,53.82,-2.1,-5.1,80,7,48.3,100.91,Mainly Clear
657,2012-01-28 09:00:00,54.72,-1.6,-4.5,81,13,24.1,100.93,Mostly Cloudy
658,2012-01-28 10:00:00,55.62,-1.1,-4.4,78,13,48.3,100.94,Cloudy
659,2012-01-28 11:00:00,56.519999999999996,-0.6,-3.6,80,6,48.3,100.9,Cloudy
660,2012-01-28 12:00:00,57.06,-0.3,-3.4,80,7,48.3,100.74,Mostly Cloudy
661,2012-01-28 13:00:00,59.22,0.9,-3.5,72,4,48.3,100.58,Cloudy
662,2012-01-28 14:00:00,59.760000000000005,1.2,-3.5,71,9,48.3,100.48,Cloudy
663,2012-01-28 15:00:00,59.760000000000005,1.2,-3.7,70,15,48.3,100.28,Cloudy
664,2012-01-28 16:00:00,60.12,1.4,-3.7,69,22,48.3,100.14,Cloudy
665,2012-01-28 17:00:00,59.760000000000005,1.2,-3.5,71,11,48.3,100.16,Cloudy
666,2012-01-28 18:00:00,60.480000000000004,1.6,-3.4,69,9,25.0,100.08,Cloudy
667,2012-01-28 19:00:00,61.56000000000001,2.2,-2.6,71,19,19.3,100.09,Snow
668,2012-01-28 20:00:00,60.660000000000004,1.7,-1.2,81,24,19.3,100.05,Snow
669,2012-01-28 21:00:00,61.38,2.1,-1.7,76,24,25.0,99.95,Mainly Clear
670,2012-01-28 22:00:00,61.739999999999995,2.3,-2.0,73,37,25.0,99.85,Mostly Cloudy
671,2012-01-28 23:00:00,59.760000000000005,1.2,-1.7,81,52,16.1,99.87,"Rain,Snow"
672,2012-01-29 00:00:00,60.300000000000004,1.5,-5.0,62,57,25.0,99.96,Mainly Clear
673,2012-01-29 01:00:00,59.22,0.9,-5.3,63,52,25.0,100.09,Mainly Clear
674,2012-01-29 02:00:00,58.13999999999999,0.3,-5.8,64,52,25.0,100.21,Mainly Clear
675,2012-01-29 03:00:00,57.24,-0.2,-6.0,65,43,25.0,100.34,Mainly Clear
676,2012-01-29 04:00:00,55.980000000000004,-0.9,-7.0,63,43,25.0,100.47,Mainly Clear
677,2012-01-29 05:00:00,54.9,-1.5,-7.8,62,43,25.0,100.59,Mainly Clear
678,2012-01-29 06:00:00,54.0,-2.0,-8.1,63,44,25.0,100.68,Mainly Clear
679,2012-01-29 07:00:00,54.18000000000001,-1.9,-8.2,62,32,24.1,100.74,Mainly Clear
680,2012-01-29 08:00:00,53.64,-2.2,-8.3,63,32,24.1,100.81,Mostly Cloudy
681,2012-01-29 09:00:00,53.82,-2.1,-8.5,62,32,24.1,100.88,Cloudy
682,2012-01-29 10:00:00,54.36,-1.8,-8.3,61,24,24.1,100.87,Mostly Cloudy
683,2012-01-29 11:00:00,56.16,-0.8,-7.7,59,33,24.1,100.84,Mainly Clear
684,2012-01-29 12:00:00,57.78,0.1,-7.6,56,37,24.1,100.77,Mainly Clear
685,2012-01-29 13:00:00,58.5,0.5,-8.8,50,33,24.1,100.7,Mostly Cloudy
686,2012-01-29 14:00:00,58.32,0.4,-7.9,54,19,24.1,100.63,Mostly Cloudy
687,2012-01-29 15:00:00,57.96000000000001,0.2,-7.5,56,17,24.1,100.65,Mostly Cloudy
688,2012-01-29 16:00:00,58.86000000000001,0.7,-8.3,51,20,24.1,100.67,Mostly Cloudy
689,2012-01-29 17:00:00,56.34,-0.7,-8.4,56,11,24.1,100.74,Mainly Clear
690,2012-01-29 18:00:00,55.62,-1.1,-9.3,54,17,25.0,100.77,Mainly Clear
691,2012-01-29 19:00:00,54.72,-1.6,-9.3,56,17,25.0,100.81,Mainly Clear
692,2012-01-29 20:00:00,54.0,-2.0,-9.1,58,17,25.0,100.83,Mainly Clear
693,2012-01-29 21:00:00,54.54,-1.7,-8.4,60,9,25.0,100.85,Mainly Clear
694,2012-01-29 22:00:00,53.46,-2.3,-7.0,70,15,25.0,100.84,Mainly Clear
695,2012-01-29 23:00:00,51.480000000000004,-3.4,-7.6,73,15,25.0,100.85,Clear
696,2012-01-30 00:00:00,50.940000000000005,-3.7,-8.8,68,11,25.0,100.89,Clear
697,2012-01-30 01:00:00,49.68000000000001,-4.4,-10.0,65,15,25.0,100.92,Mainly Clear
698,2012-01-30 02:00:00,48.42,-5.1,-10.0,68,15,25.0,100.99,Clear
699,2012-01-30 03:00:00,46.62,-6.1,-10.3,72,11,25.0,101.07,Clear
700,2012-01-30 04:00:00,43.74,-7.7,-11.8,72,11,25.0,101.19,Clear
701,2012-01-30 05:00:00,43.38,-7.9,-13.8,63,13,25.0,101.33,Clear
702,2012-01-30 06:00:00,41.580000000000005,-8.9,-15.1,61,15,25.0,101.47,Clear
703,2012-01-30 07:00:00,39.96,-9.8,-16.0,61,15,25.0,101.55,Clear
704,2012-01-30 08:00:00,38.7,-10.5,-17.0,59,9,48.3,101.68,Clear
705,2012-01-30 09:00:00,40.5,-9.5,-16.6,56,13,48.3,101.75,Mainly Clear
706,2012-01-30 10:00:00,41.76,-8.8,-16.0,56,17,48.3,101.82,Mostly Cloudy
707,2012-01-30 11:00:00,43.74,-7.7,-14.7,57,19,48.3,101.86,Mostly Cloudy
708,2012-01-30 12:00:00,45.0,-7.0,-14.2,56,22,48.3,101.83,Mainly Clear
709,2012-01-30 13:00:00,44.1,-7.5,-15.2,54,22,48.3,101.8,Mainly Clear
710,2012-01-30 14:00:00,45.54,-6.7,-15.0,52,22,48.3,101.81,Clear
711,2012-01-30 15:00:00,45.18000000000001,-6.9,-15.3,51,22,48.3,101.83,Mainly Clear
712,2012-01-30 16:00:00,44.46,-7.3,-15.8,51,17,48.3,101.86,Mostly Cloudy
713,2012-01-30 17:00:00,44.28,-7.4,-15.7,51,13,48.3,101.9,Mostly Cloudy
714,2012-01-30 18:00:00,44.28,-7.4,-15.6,52,15,25.0,101.94,Mainly Clear
715,2012-01-30 19:00:00,41.76,-8.8,-15.9,56,7,25.0,101.96,Mainly Clear
716,2012-01-30 20:00:00,40.5,-9.5,-16.0,59,4,25.0,101.95,Mainly Clear
717,2012-01-30 21:00:00,42.480000000000004,-8.4,-15.5,57,4,25.0,101.96,Mostly Cloudy
718,2012-01-30 22:00:00,43.56,-7.8,-15.2,55,4,25.0,101.98,Mostly Cloudy
719,2012-01-30 23:00:00,42.12,-8.6,-13.8,66,6,25.0,101.96,Mostly Cloudy
720,2012-01-31 00:00:00,45.0,-7.0,-13.1,62,7,25.0,101.92,Mostly Cloudy
721,2012-01-31 01:00:00,44.82,-7.1,-13.2,62,6,25.0,101.88,Cloudy
722,2012-01-31 02:00:00,45.9,-6.5,-13.1,59,11,25.0,101.81,Snow
723,2012-01-31 03:00:00,45.36,-6.8,-12.4,64,15,19.3,101.76,Snow
724,2012-01-31 04:00:00,44.82,-7.1,-12.4,66,17,8.0,101.71,Snow
725,2012-01-31 05:00:00,44.82,-7.1,-12.2,67,17,9.7,101.7,Snow
726,2012-01-31 06:00:00,45.0,-7.0,-11.8,69,13,6.4,101.65,Snow
727,2012-01-31 07:00:00,40.32,-9.6,-13.5,73,17,12.9,101.6,Snow
728,2012-01-31 08:00:00,39.96,-9.8,-13.9,72,19,16.1,101.61,Snow
729,2012-01-31 09:00:00,39.42,-10.1,-14.4,71,17,24.1,101.59,Snow
730,2012-01-31 10:00:00,40.14,-9.7,-14.2,70,19,19.3,101.54,Cloudy
731,2012-01-31 11:00:00,40.86,-9.3,-14.2,67,20,19.3,101.46,Cloudy
732,2012-01-31 12:00:00,42.12,-8.6,-13.3,69,22,4.0,101.36,Snow
733,2012-01-31 13:00:00,42.66,-8.3,-12.3,73,20,1.6,101.29,Snow
734,2012-01-31 14:00:00,42.480000000000004,-8.4,-12.1,75,20,1.2,101.23,Snow
735,2012-01-31 15:00:00,42.84,-8.2,-12.0,74,17,1.0,101.22,Snow
736,2012-01-31 16:00:00,43.2,-8.0,-11.5,76,20,1.0,101.2,Snow
737,2012-01-31 17:00:00,43.74,-7.7,-11.1,77,19,1.0,101.19,Snow
738,2012-01-31 18:00:00,43.56,-7.8,-11.2,77,20,1.6,101.18,Snow
739,2012-01-31 19:00:00,43.74,-7.7,-10.9,78,19,1.6,101.14,Snow
740,2012-01-31 20:00:00,44.28,-7.4,-10.7,77,20,1.6,101.09,Snow
741,2012-01-31 21:00:00,44.82,-7.1,-10.5,77,20,12.9,101.02,Cloudy
742,2012-01-31 22:00:00,44.82,-7.1,-10.4,77,19,9.7,100.95,Snow
743,2012-01-31 23:00:00,45.36,-6.8,-9.9,79,22,9.7,100.86,"Freezing Drizzle,Snow"
744,2012-02-01 00:00:00,45.54,-6.7,-9.7,79,19,11.3,100.82,Snow
745,2012-02-01 01:00:00,45.54,-6.7,-9.5,80,15,9.7,100.69,Snow
746,2012-02-01 02:00:00,45.36,-6.8,-9.3,82,19,4.8,100.61,Freezing Drizzle
747,2012-02-01 03:00:00,45.9,-6.5,-9.0,82,15,4.8,100.56,Freezing Rain
748,2012-02-01 04:00:00,47.16,-5.8,-8.2,83,17,8.0,100.48,Freezing Rain
749,2012-02-01 05:00:00,47.16,-5.8,-8.5,81,19,8.0,100.42,Freezing Drizzle
750,2012-02-01 06:00:00,47.88,-5.4,-8.0,82,15,8.0,100.34,Freezing Rain
751,2012-02-01 07:00:00,47.7,-5.5,-8.2,81,13,9.7,100.33,Freezing Rain
752,2012-02-01 08:00:00,47.7,-5.5,-8.5,79,11,11.3,100.36,Cloudy
753,2012-02-01 09:00:00,47.34,-5.7,-8.6,80,15,12.9,100.36,Cloudy
754,2012-02-01 10:00:00,47.34,-5.7,-8.5,81,13,8.0,100.35,Haze
755,2012-02-01 11:00:00,47.16,-5.8,-8.3,82,9,4.0,100.36,"Freezing Drizzle,Haze"
756,2012-02-01 12:00:00,47.7,-5.5,-8.0,83,11,2.0,100.31,"Freezing Drizzle,Haze"
757,2012-02-01 13:00:00,48.6,-5.0,-7.7,81,11,2.0,100.28,"Freezing Drizzle,Haze"
758,2012-02-01 14:00:00,48.78,-4.9,-7.4,83,9,2.0,100.34,"Freezing Rain,Haze"
759,2012-02-01 15:00:00,48.78,-4.9,-7.5,82,6,2.8,100.41,"Freezing Rain,Haze"
760,2012-02-01 16:00:00,49.5,-4.5,-7.2,81,0,4.8,100.47,Haze
761,2012-02-01 17:00:00,49.86,-4.3,-7.1,81,0,6.4,100.61,"Snow,Haze"
762,2012-02-01 18:00:00,50.4,-4.0,-6.9,80,0,4.0,100.68,"Snow,Haze"
763,2012-02-01 19:00:00,50.580000000000005,-3.9,-6.7,81,6,4.0,100.78,"Snow,Haze"
764,2012-02-01 20:00:00,51.12,-3.6,-6.4,81,4,4.8,100.85,"Snow,Haze"
765,2012-02-01 21:00:00,49.86,-4.3,-7.2,80,15,4.0,100.99,"Snow,Haze"
766,2012-02-01 22:00:00,48.6,-5.0,-8.2,78,15,12.9,101.12,Snow
767,2012-02-01 23:00:00,48.78,-4.9,-8.1,78,0,12.9,101.22,Snow
768,2012-02-02 00:00:00,48.6,-5.0,-8.2,78,7,12.9,101.32,Snow
769,2012-02-02 01:00:00,47.7,-5.5,-9.2,75,9,25.0,101.36,Mostly Cloudy
770,2012-02-02 02:00:00,46.26,-6.3,-9.6,77,4,16.1,101.45,Snow Showers
771,2012-02-02 03:00:00,47.519999999999996,-5.6,-9.1,76,6,25.0,101.52,Snow Showers
772,2012-02-02 04:00:00,47.7,-5.5,-8.8,78,4,16.1,101.59,Snow Showers
773,2012-02-02 05:00:00,48.24,-5.2,-9.5,72,9,16.1,101.62,Snow Showers
774,2012-02-02 06:00:00,46.800000000000004,-6.0,-11.8,63,13,25.0,101.63,Snow Showers
775,2012-02-02 07:00:00,45.18000000000001,-6.9,-12.8,63,22,24.1,101.67,Snow
776,2012-02-02 08:00:00,43.92,-7.6,-13.2,64,19,12.9,101.74,Snow
777,2012-02-02 09:00:00,43.74,-7.7,-13.6,63,19,19.3,101.82,Snow
778,2012-02-02 10:00:00,42.84,-8.2,-13.7,65,17,24.1,101.87,Mostly Cloudy
779,2012-02-02 11:00:00,42.66,-8.3,-14.2,62,19,24.1,101.89,Mostly Cloudy
780,2012-02-02 12:00:00,43.019999999999996,-8.1,-13.3,66,13,24.1,101.86,Mostly Cloudy
781,2012-02-02 13:00:00,44.28,-7.4,-12.7,66,9,24.1,101.86,Mostly Cloudy
782,2012-02-02 14:00:00,45.54,-6.7,-12.0,66,9,24.1,101.85,Mostly Cloudy
783,2012-02-02 15:00:00,45.54,-6.7,-12.1,65,9,24.1,101.9,Mostly Cloudy
784,2012-02-02 16:00:00,45.72,-6.6,-11.7,67,11,24.1,101.94,Mostly Cloudy
785,2012-02-02 17:00:00,44.82,-7.1,-12.0,68,13,24.1,101.99,Mostly Cloudy
786,2012-02-02 18:00:00,43.74,-7.7,-12.5,68,7,25.0,102.08,Mostly Cloudy
787,2012-02-02 19:00:00,45.0,-7.0,-12.2,66,6,25.0,102.13,Mostly Cloudy
788,2012-02-02 20:00:00,41.580000000000005,-8.9,-12.8,73,4,25.0,102.22,Mostly Cloudy
789,2012-02-02 21:00:00,44.64,-7.2,-11.0,74,4,25.0,102.26,Snow
790,2012-02-02 22:00:00,43.2,-8.0,-11.5,76,7,25.0,102.29,Snow
791,2012-02-02 23:00:00,44.64,-7.2,-11.1,74,7,25.0,102.31,Mostly Cloudy
792,2012-02-03 00:00:00,40.14,-9.7,-12.5,80,4,25.0,102.33,Mostly Cloudy
793,2012-02-03 01:00:00,37.800000000000004,-11.0,-13.5,82,0,25.0,102.35,Mainly Clear
794,2012-02-03 02:00:00,39.24,-10.2,-12.7,82,0,25.0,102.39,Mainly Clear
795,2012-02-03 03:00:00,36.72,-11.6,-14.0,82,0,25.0,102.4,Mainly Clear
796,2012-02-03 04:00:00,34.92,-12.6,-15.1,82,7,16.1,102.42,Mainly Clear
797,2012-02-03 05:00:00,37.440000000000005,-11.2,-13.2,85,9,9.7,102.47,Fog
798,2012-02-03 06:00:00,36.36,-11.8,-14.1,83,7,16.1,102.51,Mainly Clear
799,2012-02-03 07:00:00,37.26,-11.3,-13.7,82,9,16.1,102.59,Mostly Cloudy
800,2012-02-03 08:00:00,38.519999999999996,-10.6,-13.3,80,9,19.3,102.62,Mostly Cloudy
801,2012-02-03 09:00:00,41.76,-8.8,-11.9,78,6,24.1,102.62,Mostly Cloudy
802,2012-02-03 10:00:00,45.36,-6.8,-10.2,77,7,19.3,102.61,Cloudy
803,2012-02-03 11:00:00,46.26,-6.3,-10.0,75,11,6.4,102.57,Snow
804,2012-02-03 12:00:00,46.440000000000005,-6.2,-9.5,77,11,16.1,102.46,Snow
805,2012-02-03 13:00:00,48.96,-4.8,-8.3,76,6,16.1,102.34,Snow
806,2012-02-03 14:00:00,50.76,-3.8,-7.4,76,7,16.1,102.27,Snow
807,2012-02-03 15:00:00,52.38,-2.9,-7.8,69,19,19.3,102.25,Snow
808,2012-02-03 16:00:00,51.66,-3.3,-7.3,74,13,16.1,102.21,Snow
809,2012-02-03 17:00:00,51.480000000000004,-3.4,-7.0,76,11,19.3,102.19,Cloudy
810,2012-02-03 18:00:00,50.940000000000005,-3.7,-7.1,77,7,19.3,102.17,Snow
811,2012-02-03 19:00:00,50.76,-3.8,-7.2,77,9,25.0,102.17,Snow
812,2012-02-03 20:00:00,50.04,-4.2,-7.7,77,11,25.0,102.16,Mostly Cloudy
813,2012-02-03 21:00:00,49.14,-4.7,-8.0,78,7,25.0,102.17,Mostly Cloudy
814,2012-02-03 22:00:00,48.06,-5.3,-8.6,78,0,25.0,102.1,Cloudy
815,2012-02-03 23:00:00,50.940000000000005,-3.7,-6.7,80,6,25.0,102.03,Snow
816,2012-02-04 00:00:00,49.5,-4.5,-6.8,84,9,2.0,102.02,Snow
817,2012-02-04 01:00:00,49.5,-4.5,-6.7,85,11,25.0,101.98,Mostly Cloudy
818,2012-02-04 02:00:00,50.4,-4.0,-7.4,77,20,25.0,102.07,Mostly Cloudy
819,2012-02-04 03:00:00,48.78,-4.9,-10.5,65,15,25.0,102.11,Mostly Cloudy
820,2012-02-04 04:00:00,44.82,-7.1,-12.7,64,13,25.0,102.16,Mainly Clear
821,2012-02-04 05:00:00,43.019999999999996,-8.1,-13.3,66,15,25.0,102.21,Mainly Clear
822,2012-02-04 06:00:00,40.68000000000001,-9.4,-13.9,70,9,25.0,102.27,Clear
823,2012-02-04 07:00:00,37.800000000000004,-11.0,-14.7,74,7,48.3,102.25,Clear
824,2012-02-04 08:00:00,36.72,-11.6,-15.6,72,9,48.3,102.31,Clear
825,2012-02-04 09:00:00,40.32,-9.6,-14.1,70,13,48.3,102.37,Clear
826,2012-02-04 10:00:00,42.480000000000004,-8.4,-13.7,66,6,48.3,102.32,Mainly Clear
827,2012-02-04 11:00:00,43.92,-7.6,-13.6,62,0,48.3,102.29,Clear
828,2012-02-04 12:00:00,45.72,-6.6,-13.2,59,4,48.3,102.21,Mainly Clear
829,2012-02-04 13:00:00,46.26,-6.3,-12.7,60,13,48.3,102.11,Mainly Clear
830,2012-02-04 14:00:00,46.800000000000004,-6.0,-12.7,59,6,48.3,102.05,Mainly Clear
831,2012-02-04 15:00:00,47.88,-5.4,-12.6,57,11,48.3,102.01,Mainly Clear
832,2012-02-04 16:00:00,47.34,-5.7,-12.8,57,9,48.3,101.99,Clear
833,2012-02-04 17:00:00,46.440000000000005,-6.2,-13.5,56,11,48.3,101.97,Clear
834,2012-02-04 18:00:00,45.72,-6.6,-13.7,57,9,25.0,101.96,Clear
835,2012-02-04 19:00:00,43.74,-7.7,-14.0,61,7,25.0,101.97,Clear
836,2012-02-04 20:00:00,41.76,-8.8,-14.4,64,6,25.0,101.97,Clear
837,2012-02-04 21:00:00,39.78,-9.9,-14.5,69,6,25.0,101.97,Clear
838,2012-02-04 22:00:00,39.06,-10.3,-14.9,69,0,25.0,101.93,Clear
839,2012-02-04 23:00:00,39.42,-10.1,-14.3,71,0,25.0,101.89,Clear
840,2012-02-05 00:00:00,36.18000000000001,-11.9,-15.3,76,6,25.0,101.89,Clear
841,2012-02-05 01:00:00,35.82,-12.1,-15.0,79,6,25.0,101.87,Clear
842,2012-02-05 02:00:00,31.680000000000003,-14.4,-17.1,80,6,25.0,101.88,Clear
843,2012-02-05 03:00:00,34.38,-12.9,-15.7,79,6,25.0,101.86,Clear
844,2012-02-05 04:00:00,30.780000000000005,-14.9,-17.9,78,6,25.0,101.86,Clear
845,2012-02-05 05:00:00,32.04,-14.2,-17.0,79,7,25.0,101.91,Clear
846,2012-02-05 06:00:00,31.14,-14.7,-17.5,79,4,19.3,101.93,Clear
847,2012-02-05 07:00:00,29.340000000000003,-15.7,-18.6,78,4,24.1,101.93,Clear
848,2012-02-05 08:00:00,30.6,-15.0,-17.5,81,4,24.1,101.95,Clear
849,2012-02-05 09:00:00,33.300000000000004,-13.5,-16.1,81,0,24.1,101.97,Clear
850,2012-02-05 10:00:00,37.62,-11.1,-13.4,83,9,0.8,101.97,Freezing Fog
851,2012-02-05 11:00:00,38.7,-10.5,-12.4,86,11,12.9,101.95,Cloudy
852,2012-02-05 12:00:00,41.940000000000005,-8.7,-11.7,79,9,24.1,101.82,Mainly Clear
853,2012-02-05 13:00:00,44.64,-7.2,-12.1,68,13,24.1,101.72,Mainly Clear
854,2012-02-05 14:00:00,47.7,-5.5,-11.8,61,20,24.1,101.63,Cloudy
855,2012-02-05 15:00:00,48.06,-5.3,-11.4,62,15,24.1,101.55,Cloudy
856,2012-02-05 16:00:00,49.14,-4.7,-10.7,63,6,19.3,101.48,Cloudy
857,2012-02-05 17:00:00,50.04,-4.2,-10.0,64,9,25.0,101.43,Cloudy
858,2012-02-05 18:00:00,50.580000000000005,-3.9,-9.7,64,15,25.0,101.41,Cloudy
859,2012-02-05 19:00:00,52.019999999999996,-3.1,-8.6,66,15,25.0,101.34,Cloudy
860,2012-02-05 20:00:00,52.56,-2.8,-8.0,67,24,25.0,101.25,Mostly Cloudy
861,2012-02-05 21:00:00,53.1,-2.5,-7.7,67,26,25.0,101.18,Cloudy
862,2012-02-05 22:00:00,53.82,-2.1,-6.7,71,28,25.0,101.06,Cloudy
863,2012-02-05 23:00:00,54.9,-1.5,-5.7,73,30,25.0,100.93,Cloudy
864,2012-02-06 00:00:00,56.34,-0.7,-5.2,72,30,25.0,100.86,Cloudy
865,2012-02-06 01:00:00,56.16,-0.8,-5.2,72,24,25.0,100.8,Cloudy
866,2012-02-06 02:00:00,57.78,0.1,-4.7,70,32,25.0,100.75,Snow
867,2012-02-06 03:00:00,57.78,0.1,-3.3,78,30,25.0,100.77,Cloudy
868,2012-02-06 04:00:00,59.04,0.8,-3.7,72,35,25.0,100.68,Snow
869,2012-02-06 05:00:00,59.4,1.0,-3.8,70,26,25.0,100.7,Cloudy
870,2012-02-06 06:00:00,59.580000000000005,1.1,-3.6,71,32,25.0,100.63,Cloudy
871,2012-02-06 07:00:00,59.760000000000005,1.2,-3.5,71,37,24.1,100.62,Mostly Cloudy
872,2012-02-06 08:00:00,59.580000000000005,1.1,-3.8,70,33,24.1,100.63,Mostly Cloudy
873,2012-02-06 09:00:00,59.580000000000005,1.1,-3.6,71,32,24.1,100.62,Cloudy
874,2012-02-06 10:00:00,60.12,1.4,-3.3,71,32,24.1,100.6,Cloudy
875,2012-02-06 11:00:00,61.019999999999996,1.9,-2.8,71,35,24.1,100.57,Cloudy
876,2012-02-06 12:00:00,62.28,2.6,-2.4,70,22,24.1,100.5,Cloudy
877,2012-02-06 13:00:00,62.28,2.6,-2.9,67,32,24.1,100.47,Cloudy
878,2012-02-06 14:00:00,63.0,3.0,-3.3,63,33,24.1,100.45,Mostly Cloudy
879,2012-02-06 15:00:00,63.54,3.3,-3.3,62,30,24.1,100.46,Cloudy
880,2012-02-06 16:00:00,63.54,3.3,-3.1,63,17,24.1,100.47,Cloudy
881,2012-02-06 17:00:00,62.82,2.9,-2.8,66,13,25.0,100.51,Cloudy
882,2012-02-06 18:00:00,63.36000000000001,3.2,-2.8,65,11,25.0,100.57,Cloudy
883,2012-02-06 19:00:00,63.18000000000001,3.1,-2.6,66,13,25.0,100.62,Cloudy
884,2012-02-06 20:00:00,62.28,2.6,-2.6,69,11,25.0,100.65,Cloudy
885,2012-02-06 21:00:00,63.0,3.0,-2.2,69,15,25.0,100.67,Cloudy
886,2012-02-06 22:00:00,62.46000000000001,2.7,-2.6,68,13,25.0,100.68,Mostly Cloudy
887,2012-02-06 23:00:00,61.56000000000001,2.2,-2.9,69,13,25.0,100.7,Mostly Cloudy
888,2012-02-07 00:00:00,61.019999999999996,1.9,-3.1,69,13,25.0,100.77,Cloudy
889,2012-02-07 01:00:00,60.839999999999996,1.8,-3.4,68,15,25.0,100.82,Mostly Cloudy
890,2012-02-07 02:00:00,60.300000000000004,1.5,-4.4,65,15,25.0,100.89,Mostly Cloudy
891,2012-02-07 03:00:00,59.04,0.8,-5.0,65,19,25.0,100.94,Snow Showers
892,2012-02-07 04:00:00,55.800000000000004,-1.0,-8.3,58,19,25.0,101.03,Mostly Cloudy
893,2012-02-07 05:00:00,54.18000000000001,-1.9,-8.4,61,15,25.0,101.14,Mainly Clear
894,2012-02-07 06:00:00,52.38,-2.9,-8.8,64,20,25.0,101.27,Mostly Cloudy
895,2012-02-07 07:00:00,47.7,-5.5,-12.6,57,17,24.1,101.39,Mainly Clear
896,2012-02-07 08:00:00,46.62,-6.1,-12.8,59,17,24.1,101.53,Mainly Clear
897,2012-02-07 09:00:00,46.440000000000005,-6.2,-13.3,57,19,24.1,101.64,Mainly Clear
898,2012-02-07 10:00:00,46.440000000000005,-6.2,-13.4,57,19,24.1,101.69,Mainly Clear
899,2012-02-07 11:00:00,46.800000000000004,-6.0,-13.7,54,11,24.1,101.74,Mainly Clear
900,2012-02-07 12:00:00,47.519999999999996,-5.6,-13.1,55,13,24.1,101.73,Mainly Clear
901,2012-02-07 13:00:00,48.24,-5.2,-14.3,49,15,24.1,101.73,Clear
902,2012-02-07 14:00:00,48.42,-5.1,-15.1,45,15,24.1,101.79,Clear
903,2012-02-07 15:00:00,48.96,-4.8,-15.4,43,19,24.1,101.85,Clear
904,2012-02-07 16:00:00,48.6,-5.0,-16.4,40,22,24.1,101.88,Clear
905,2012-02-07 17:00:00,46.980000000000004,-5.9,-17.6,39,19,48.3,101.94,Clear
906,2012-02-07 18:00:00,44.46,-7.3,-17.4,44,11,25.0,102.03,Clear
907,2012-02-07 19:00:00,42.84,-8.2,-17.8,46,9,25.0,102.09,Clear
908,2012-02-07 20:00:00,41.04,-9.2,-18.4,47,11,25.0,102.12,Clear
909,2012-02-07 21:00:00,40.32,-9.6,-18.9,47,13,25.0,102.15,Clear
910,2012-02-07 22:00:00,38.16,-10.8,-20.1,46,9,25.0,102.21,Clear
911,2012-02-07 23:00:00,36.36,-11.8,-20.8,47,9,25.0,102.21,Clear
912,2012-02-08 00:00:00,32.76,-13.8,-21.5,52,4,25.0,102.21,Clear
913,2012-02-08 01:00:00,36.18000000000001,-11.9,-20.6,48,9,25.0,102.21,Clear
914,2012-02-08 02:00:00,35.82,-12.1,-20.4,50,6,25.0,102.2,Clear
915,2012-02-08 03:00:00,35.28,-12.4,-20.4,51,11,25.0,102.15,Clear
916,2012-02-08 04:00:00,32.4,-14.0,-21.0,55,4,25.0,102.13,Clear
917,2012-02-08 05:00:00,34.92,-12.6,-21.2,49,0,25.0,102.11,Clear
918,2012-02-08 06:00:00,35.28,-12.4,-21.1,48,9,25.0,102.06,Mainly Clear
919,2012-02-08 07:00:00,36.54,-11.7,-18.0,59,15,24.1,102.07,Mainly Clear
920,2012-02-08 08:00:00,38.16,-10.8,-17.0,60,13,48.3,102.09,Mainly Clear
921,2012-02-08 09:00:00,40.32,-9.6,-15.1,64,15,48.3,102.07,Mainly Clear
922,2012-02-08 10:00:00,42.84,-8.2,-14.6,60,17,48.3,102.04,Mainly Clear
923,2012-02-08 11:00:00,46.26,-6.3,-13.7,56,17,48.3,101.93,Mainly Clear
924,2012-02-08 12:00:00,49.32,-4.6,-12.9,52,20,48.3,101.76,Clear
925,2012-02-08 13:00:00,51.66,-3.3,-12.9,47,32,48.3,101.63,Clear
926,2012-02-08 14:00:00,53.28,-2.4,-12.2,47,24,48.3,101.54,Mainly Clear
927,2012-02-08 15:00:00,54.36,-1.8,-12.8,43,32,48.3,101.45,Mainly Clear
928,2012-02-08 16:00:00,54.72,-1.6,-11.9,45,22,48.3,101.37,Mainly Clear
929,2012-02-08 17:00:00,53.82,-2.1,-12.0,47,17,48.3,101.31,Mainly Clear
930,2012-02-08 18:00:00,53.1,-2.5,-12.6,46,19,24.1,101.27,Mainly Clear
931,2012-02-08 19:00:00,51.84,-3.2,-12.4,49,22,25.0,101.28,Clear
932,2012-02-08 20:00:00,51.66,-3.3,-12.1,51,22,25.0,101.26,Clear
933,2012-02-08 21:00:00,52.019999999999996,-3.1,-10.3,57,26,25.0,101.25,Mainly Clear
934,2012-02-08 22:00:00,51.12,-3.6,-8.6,68,17,25.0,101.22,Mainly Clear
935,2012-02-08 23:00:00,51.12,-3.6,-8.1,71,20,25.0,101.19,Clear
936,2012-02-09 00:00:00,50.4,-4.0,-8.3,72,13,25.0,101.17,Clear
937,2012-02-09 01:00:00,51.480000000000004,-3.4,-7.9,71,13,25.0,101.16,Clear
938,2012-02-09 02:00:00,50.580000000000005,-3.9,-8.0,73,11,25.0,101.17,Clear
939,2012-02-09 03:00:00,51.300000000000004,-3.5,-7.9,72,24,25.0,101.12,Clear
940,2012-02-09 04:00:00,51.480000000000004,-3.4,-8.0,70,26,25.0,101.1,Clear
941,2012-02-09 05:00:00,50.22,-4.1,-8.3,73,20,25.0,101.11,Clear
942,2012-02-09 06:00:00,48.78,-4.9,-8.9,73,20,25.0,101.13,Clear
943,2012-02-09 07:00:00,47.88,-5.4,-9.1,75,17,24.1,101.19,Mainly Clear
944,2012-02-09 08:00:00,48.78,-4.9,-8.8,74,20,24.1,101.23,Clear
945,2012-02-09 09:00:00,51.300000000000004,-3.5,-8.0,71,22,24.1,101.25,Mainly Clear
946,2012-02-09 10:00:00,53.1,-2.5,-7.8,67,28,24.1,101.26,Mainly Clear
947,2012-02-09 11:00:00,55.440000000000005,-1.2,-7.3,63,24,24.1,101.27,Clear
948,2012-02-09 12:00:00,57.42,-0.1,-7.3,58,24,48.3,101.19,Clear
949,2012-02-09 13:00:00,58.86000000000001,0.7,-7.1,56,26,48.3,101.13,Clear
950,2012-02-09 14:00:00,60.300000000000004,1.5,-6.3,56,30,24.1,101.05,Clear
951,2012-02-09 15:00:00,61.92,2.4,-6.2,53,24,48.3,101.03,Clear
952,2012-02-09 16:00:00,62.46000000000001,2.7,-6.5,51,22,48.3,101.01,Clear
953,2012-02-09 17:00:00,61.2,2.0,-6.3,54,20,48.3,101.02,Clear
954,2012-02-09 18:00:00,60.480000000000004,1.6,-6.6,54,22,24.1,101.06,Clear
955,2012-02-09 19:00:00,58.32,0.4,-5.9,63,20,25.0,101.1,Clear
956,2012-02-09 20:00:00,58.5,0.5,-6.6,59,17,25.0,101.11,Clear
957,2012-02-09 21:00:00,57.96000000000001,0.2,-5.5,65,22,25.0,101.13,Clear
958,2012-02-09 22:00:00,59.04,0.8,-4.7,67,28,25.0,101.11,Clear
959,2012-02-09 23:00:00,57.78,0.1,-4.9,69,26,25.0,101.1,Clear
960,2012-02-10 00:00:00,58.32,0.4,-3.5,75,22,25.0,101.12,Clear
961,2012-02-10 01:00:00,57.78,0.1,-4.1,73,19,25.0,101.13,Clear
962,2012-02-10 02:00:00,57.6,0.0,-4.3,73,22,25.0,101.15,Clear
963,2012-02-10 03:00:00,55.800000000000004,-1.0,-4.3,78,17,25.0,101.13,Clear
964,2012-02-10 04:00:00,56.16,-0.8,-4.4,77,20,25.0,101.1,Clear
965,2012-02-10 05:00:00,56.16,-0.8,-4.3,77,22,25.0,101.07,Clear
966,2012-02-10 06:00:00,56.34,-0.7,-4.0,78,22,25.0,101.07,Clear
967,2012-02-10 07:00:00,56.7,-0.5,-3.9,78,20,24.1,101.09,Mostly Cloudy
968,2012-02-10 08:00:00,55.980000000000004,-0.9,-4.2,78,17,24.1,101.12,Mostly Cloudy
969,2012-02-10 09:00:00,57.42,-0.1,-3.5,78,19,24.1,101.12,Cloudy
970,2012-02-10 10:00:00,59.22,0.9,-3.7,71,28,24.1,101.1,Mostly Cloudy
971,2012-02-10 11:00:00,60.12,1.4,-4.1,67,20,24.1,101.08,Cloudy
972,2012-02-10 12:00:00,60.12,1.4,-3.9,68,24,24.1,100.97,Cloudy
973,2012-02-10 13:00:00,59.94,1.3,-4.7,64,24,24.1,100.92,Cloudy
974,2012-02-10 14:00:00,59.580000000000005,1.1,-3.5,71,30,24.1,100.91,Cloudy
975,2012-02-10 15:00:00,59.94,1.3,-4.0,68,28,24.1,100.94,Cloudy
976,2012-02-10 16:00:00,59.4,1.0,-4.1,69,30,24.1,100.9,Cloudy
977,2012-02-10 17:00:00,59.22,0.9,-4.8,66,22,25.0,100.87,Cloudy
978,2012-02-10 18:00:00,58.32,0.4,-4.8,68,17,25.0,100.92,Cloudy
979,2012-02-10 19:00:00,57.6,0.0,-5.2,68,17,25.0,100.91,Mostly Cloudy
980,2012-02-10 20:00:00,57.24,-0.2,-5.2,69,15,25.0,100.88,Snow Showers
981,2012-02-10 21:00:00,56.88,-0.4,-4.7,73,13,25.0,100.84,Cloudy
982,2012-02-10 22:00:00,56.34,-0.7,-3.0,84,11,16.1,100.78,Snow
983,2012-02-10 23:00:00,55.980000000000004,-0.9,-2.4,90,6,9.7,100.76,"Snow,Fog"
984,2012-02-11 00:00:00,55.080000000000005,-1.4,-2.3,94,9,6.4,100.78,"Snow,Fog"
985,2012-02-11 01:00:00,44.28,-7.4,-8.9,89,24,3.6,100.83,Snow
986,2012-02-11 02:00:00,42.12,-8.6,-11.0,83,30,8.0,100.91,Snow
987,2012-02-11 03:00:00,40.5,-9.5,-12.4,79,22,6.4,100.93,Snow
988,2012-02-11 04:00:00,38.16,-10.8,-13.4,81,22,16.1,100.98,Snow
989,2012-02-11 05:00:00,36.9,-11.5,-14.4,79,20,16.1,100.99,Snow
990,2012-02-11 06:00:00,35.64,-12.2,-14.8,81,24,9.7,101.0,Snow
991,2012-02-11 07:00:00,34.2,-13.0,-15.7,80,20,12.9,100.96,Snow
992,2012-02-11 08:00:00,32.940000000000005,-13.7,-17.1,75,20,16.1,101.01,Snow
993,2012-02-11 09:00:00,32.940000000000005,-13.7,-19.1,64,20,24.1,101.04,Cloudy
994,2012-02-11 10:00:00,33.480000000000004,-13.4,-18.8,64,19,24.1,101.05,Snow
995,2012-02-11 11:00:00,34.019999999999996,-13.1,-18.8,62,11,24.1,101.03,Snow
996,2012-02-11 12:00:00,34.56,-12.8,-17.2,70,9,19.3,100.97,Snow
997,2012-02-11 13:00:00,35.82,-12.1,-16.4,70,7,24.1,100.85,Mostly Cloudy
998,2012-02-11 14:00:00,37.26,-11.3,-17.4,61,6,48.3,100.76,Mainly Clear
999,2012-02-11 15:00:00,38.16,-10.8,-18.8,52,11,48.3,100.73,Mainly Clear
1000,2012-02-11 16:00:00,38.88,-10.4,-18.3,52,6,48.3,100.7,Mainly Clear
1001,2012-02-11 17:00:00,38.7,-10.5,-17.0,59,4,25.0,100.68,Mainly Clear
1002,2012-02-11 18:00:00,34.56,-12.8,-17.9,66,4,25.0,100.72,Clear
1003,2012-02-11 19:00:00,32.4,-14.0,-21.2,54,7,25.0,100.74,Clear
1004,2012-02-11 20:00:00,31.680000000000003,-14.4,-19.9,63,9,25.0,100.73,Clear
1005,2012-02-11 21:00:00,32.580000000000005,-13.9,-18.6,68,7,25.0,100.71,Clear
1006,2012-02-11 22:00:00,33.300000000000004,-13.5,-18.2,68,6,25.0,100.7,Clear
1007,2012-02-11 23:00:00,31.5,-14.5,-20.8,59,13,25.0,100.68,Clear
1008,2012-02-12 00:00:00,30.6,-15.0,-22.4,53,11,25.0,100.66,Clear
1009,2012-02-12 01:00:00,30.06,-15.3,-23.1,51,11,25.0,100.62,Mostly Cloudy
1010,2012-02-12 02:00:00,28.980000000000004,-15.9,-23.7,51,6,25.0,100.6,Clear
1011,2012-02-12 03:00:00,27.36,-16.8,-23.9,54,9,25.0,100.57,Mainly Clear
1012,2012-02-12 04:00:00,27.72,-16.6,-23.8,54,11,25.0,100.6,Cloudy
1013,2012-02-12 05:00:00,28.080000000000002,-16.4,-22.8,58,11,25.0,100.59,Snow
1014,2012-02-12 06:00:00,27.540000000000003,-16.7,-23.3,57,15,25.0,100.6,Snow
1015,2012-02-12 07:00:00,27.540000000000003,-16.7,-23.5,56,19,24.1,100.64,Snow
1016,2012-02-12 08:00:00,27.180000000000003,-16.9,-24.1,54,17,24.1,100.68,Cloudy
1017,2012-02-12 09:00:00,27.540000000000003,-16.7,-24.6,50,17,24.1,100.72,Snow
1018,2012-02-12 10:00:00,27.72,-16.6,-25.1,48,17,48.3,100.73,Mostly Cloudy
1019,2012-02-12 11:00:00,28.619999999999997,-16.1,-25.3,45,20,48.3,100.72,Mainly Clear
1020,2012-02-12 12:00:00,30.96,-14.8,-23.8,46,24,48.3,100.61,Mainly Clear
1021,2012-02-12 13:00:00,32.580000000000005,-13.9,-23.2,45,20,48.3,100.55,Mainly Clear
1022,2012-02-12 14:00:00,33.84,-13.2,-23.0,44,26,48.3,100.52,Mainly Clear
1023,2012-02-12 15:00:00,35.1,-12.5,-22.8,42,28,48.3,100.51,Mainly Clear
1024,2012-02-12 16:00:00,36.0,-12.0,-21.9,44,32,48.3,100.54,Mainly Clear
1025,2012-02-12 17:00:00,36.0,-12.0,-22.1,43,26,25.0,100.56,Mainly Clear
1026,2012-02-12 18:00:00,35.46,-12.3,-20.1,52,24,25.0,100.57,Mostly Cloudy
1027,2012-02-12 19:00:00,36.18000000000001,-11.9,-19.3,54,24,25.0,100.58,Mostly Cloudy
1028,2012-02-12 20:00:00,37.26,-11.3,-18.9,53,22,25.0,100.58,Cloudy
1029,2012-02-12 21:00:00,38.16,-10.8,-18.8,52,24,25.0,100.55,Cloudy
1030,2012-02-12 22:00:00,38.519999999999996,-10.6,-17.9,55,26,25.0,100.55,Cloudy
1031,2012-02-12 23:00:00,39.06,-10.3,-17.3,56,20,25.0,100.53,Cloudy
1032,2012-02-13 00:00:00,39.6,-10.0,-16.3,60,19,25.0,100.48,Snow
1033,2012-02-13 01:00:00,40.68000000000001,-9.4,-16.5,56,22,25.0,100.37,Cloudy
1034,2012-02-13 02:00:00,41.76,-8.8,-15.7,57,24,25.0,100.33,Cloudy
1035,2012-02-13 03:00:00,41.76,-8.8,-14.6,63,20,25.0,100.31,Cloudy
1036,2012-02-13 04:00:00,42.480000000000004,-8.4,-14.6,61,20,25.0,100.3,Cloudy
1037,2012-02-13 05:00:00,43.2,-8.0,-15.0,57,22,25.0,100.33,Cloudy
1038,2012-02-13 06:00:00,43.38,-7.9,-14.5,59,22,25.0,100.37,Cloudy
1039,2012-02-13 07:00:00,43.38,-7.9,-14.5,59,22,24.1,100.44,Cloudy
1040,2012-02-13 08:00:00,43.2,-8.0,-13.5,65,24,48.3,100.54,Cloudy
1041,2012-02-13 09:00:00,44.1,-7.5,-14.6,57,20,48.3,100.56,Cloudy
1042,2012-02-13 10:00:00,45.36,-6.8,-19.1,37,26,48.3,100.59,Mostly Cloudy
1043,2012-02-13 11:00:00,45.9,-6.5,-13.0,60,20,48.3,100.59,Cloudy
1044,2012-02-13 12:00:00,48.24,-5.2,-13.1,54,17,48.3,100.56,Mostly Cloudy
1045,2012-02-13 13:00:00,48.78,-4.9,-14.0,49,24,48.3,100.52,Mostly Cloudy
1046,2012-02-13 14:00:00,49.86,-4.3,-13.4,49,22,48.3,100.52,Cloudy
1047,2012-02-13 15:00:00,51.480000000000004,-3.4,-12.4,50,24,48.3,100.54,Cloudy
1048,2012-02-13 16:00:00,51.480000000000004,-3.4,-12.8,48,24,48.3,100.56,Cloudy
1049,2012-02-13 17:00:00,51.12,-3.6,-13.7,45,15,24.1,100.6,Mostly Cloudy
1050,2012-02-13 18:00:00,48.78,-4.9,-13.4,51,0,25.0,100.64,Mostly Cloudy
1051,2012-02-13 19:00:00,47.519999999999996,-5.6,-12.0,61,15,25.0,100.69,Mostly Cloudy
1052,2012-02-13 20:00:00,44.64,-7.2,-12.0,69,7,25.0,100.73,Cloudy
1053,2012-02-13 21:00:00,44.1,-7.5,-12.1,70,11,19.3,100.76,Snow
1054,2012-02-13 22:00:00,41.4,-9.0,-12.9,73,13,25.0,100.78,Cloudy
1055,2012-02-13 23:00:00,38.16,-10.8,-14.8,72,19,25.0,100.8,Cloudy
1056,2012-02-14 00:00:00,36.36,-11.8,-15.6,73,15,25.0,100.83,Mostly Cloudy
1057,2012-02-14 01:00:00,36.18000000000001,-11.9,-16.0,72,13,25.0,100.86,Mainly Clear
1058,2012-02-14 02:00:00,34.38,-12.9,-17.9,66,11,25.0,100.93,Mainly Clear
1059,2012-02-14 03:00:00,33.84,-13.2,-19.1,61,9,25.0,100.96,Mostly Cloudy
1060,2012-02-14 04:00:00,33.480000000000004,-13.4,-19.4,61,11,25.0,101.01,Mostly Cloudy
1061,2012-02-14 05:00:00,33.480000000000004,-13.4,-19.7,59,4,25.0,101.03,Mostly Cloudy
1062,2012-02-14 06:00:00,32.04,-14.2,-19.6,64,6,25.0,101.04,Mainly Clear
1063,2012-02-14 07:00:00,32.940000000000005,-13.7,-19.9,59,7,24.1,101.07,Mainly Clear
1064,2012-02-14 08:00:00,33.12,-13.6,-20.0,58,9,24.1,101.12,Mainly Clear
1065,2012-02-14 09:00:00,36.72,-11.6,-18.0,59,4,24.1,101.12,Mainly Clear
1066,2012-02-14 10:00:00,41.76,-8.8,-14.3,64,4,24.1,101.15,Mainly Clear
1067,2012-02-14 11:00:00,48.6,-5.0,-10.6,65,0,19.3,101.14,Mostly Cloudy
1068,2012-02-14 12:00:00,51.84,-3.2,-8.3,68,4,24.1,101.09,Cloudy
1069,2012-02-14 13:00:00,53.82,-2.1,-6.5,72,4,24.1,101.02,Cloudy
1070,2012-02-14 14:00:00,57.78,0.1,-5.1,68,9,24.1,100.98,Mostly Cloudy
1071,2012-02-14 15:00:00,59.580000000000005,1.1,-5.3,62,9,24.1,100.98,Mostly Cloudy
1072,2012-02-14 16:00:00,61.739999999999995,2.3,-4.9,59,7,24.1,100.97,Mostly Cloudy
1073,2012-02-14 17:00:00,59.580000000000005,1.1,-3.7,70,9,24.1,101.01,Mostly Cloudy
1074,2012-02-14 18:00:00,59.94,1.3,-3.9,68,9,25.0,101.08,Cloudy
1075,2012-02-14 19:00:00,60.839999999999996,1.8,-6.1,56,7,25.0,101.13,Cloudy
1076,2012-02-14 20:00:00,57.24,-0.2,-5.1,69,4,25.0,101.16,Mostly Cloudy
1077,2012-02-14 21:00:00,56.519999999999996,-0.6,-6.0,67,7,25.0,101.18,Mainly Clear
1078,2012-02-14 22:00:00,56.7,-0.5,-5.7,68,0,25.0,101.21,Cloudy
1079,2012-02-14 23:00:00,55.440000000000005,-1.2,-5.6,72,0,25.0,101.22,Cloudy
1080,2012-02-15 00:00:00,54.18000000000001,-1.9,-5.6,76,4,25.0,101.26,Cloudy
1081,2012-02-15 01:00:00,54.36,-1.8,-5.2,78,4,25.0,101.31,Cloudy
1082,2012-02-15 02:00:00,55.440000000000005,-1.2,-5.2,74,0,25.0,101.33,Cloudy
1083,2012-02-15 03:00:00,54.72,-1.6,-5.4,75,4,25.0,101.36,Cloudy
1084,2012-02-15 04:00:00,56.34,-0.7,-3.5,81,0,25.0,101.39,Snow
1085,2012-02-15 05:00:00,55.26,-1.3,-3.0,88,7,4.8,101.45,Snow
1086,2012-02-15 06:00:00,55.800000000000004,-1.0,-2.3,91,0,4.8,101.48,Snow
1087,2012-02-15 07:00:00,57.06,-0.3,-1.6,91,4,6.4,101.51,Snow
1088,2012-02-15 08:00:00,57.78,0.1,-1.5,89,4,4.8,101.57,Snow
1089,2012-02-15 09:00:00,58.68000000000001,0.6,-1.2,88,4,3.2,101.61,Snow
1090,2012-02-15 10:00:00,59.4,1.0,-0.7,88,0,6.4,101.62,Snow
1091,2012-02-15 11:00:00,61.2,2.0,-0.2,85,0,8.0,101.65,Snow
1092,2012-02-15 12:00:00,61.38,2.1,-0.3,84,0,9.7,101.67,Snow
1093,2012-02-15 13:00:00,60.660000000000004,1.7,-0.3,87,6,9.7,101.67,Snow
1094,2012-02-15 14:00:00,60.300000000000004,1.5,0.0,90,7,9.7,101.68,Snow
1095,2012-02-15 15:00:00,61.019999999999996,1.9,0.1,88,6,12.9,101.72,Cloudy
1096,2012-02-15 16:00:00,61.56000000000001,2.2,0.2,87,6,12.9,101.75,Rain
1097,2012-02-15 17:00:00,61.38,2.1,0.3,88,6,11.3,101.8,Rain
1098,2012-02-15 18:00:00,60.300000000000004,1.5,0.2,91,7,9.7,101.85,Rain
1099,2012-02-15 19:00:00,60.300000000000004,1.5,0.2,91,7,9.7,101.89,Rain
1100,2012-02-15 20:00:00,60.300000000000004,1.5,0.2,91,7,6.4,101.91,Rain
1101,2012-02-15 21:00:00,59.94,1.3,0.1,92,13,8.0,101.95,Snow
1102,2012-02-15 22:00:00,59.760000000000005,1.2,0.0,92,7,6.4,101.98,Fog
1103,2012-02-15 23:00:00,60.12,1.4,0.0,90,7,8.0,101.97,Fog
1104,2012-02-16 00:00:00,59.04,0.8,-0.4,92,9,9.7,101.96,Fog
1105,2012-02-16 01:00:00,59.580000000000005,1.1,-0.5,89,7,12.9,102.0,Cloudy
1106,2012-02-16 02:00:00,58.86000000000001,0.7,-0.8,90,4,12.9,101.97,Cloudy
1107,2012-02-16 03:00:00,58.86000000000001,0.7,-0.7,90,6,25.0,101.94,Cloudy
1108,2012-02-16 04:00:00,59.22,0.9,-0.7,89,7,12.9,101.94,Cloudy
1109,2012-02-16 05:00:00,58.86000000000001,0.7,-0.9,89,4,12.9,101.92,Cloudy
1110,2012-02-16 06:00:00,59.94,1.3,-0.9,85,6,12.9,101.93,Cloudy
1111,2012-02-16 07:00:00,60.660000000000004,1.7,-0.9,83,7,12.9,101.96,Cloudy
1112,2012-02-16 08:00:00,59.760000000000005,1.2,-1.2,84,7,16.1,101.95,Cloudy
1113,2012-02-16 09:00:00,60.839999999999996,1.8,-1.3,80,0,16.1,101.91,Mostly Cloudy
1114,2012-02-16 10:00:00,62.46000000000001,2.7,-1.1,76,11,24.1,101.83,Mainly Clear
1115,2012-02-16 11:00:00,63.54,3.3,-2.1,68,11,24.1,101.76,Mostly Cloudy
1116,2012-02-16 12:00:00,64.08,3.6,-3.1,62,19,24.1,101.65,Mostly Cloudy
1117,2012-02-16 13:00:00,63.54,3.3,-2.7,65,19,24.1,101.53,Mostly Cloudy
1118,2012-02-16 14:00:00,63.9,3.5,-2.7,64,19,24.1,101.39,Mostly Cloudy
1119,2012-02-16 15:00:00,64.08,3.6,-2.8,63,19,24.1,101.29,Mostly Cloudy
1120,2012-02-16 16:00:00,64.26,3.7,-2.5,64,15,24.1,101.22,Cloudy
1121,2012-02-16 17:00:00,64.08,3.6,-2.7,63,15,24.1,101.17,Cloudy
1122,2012-02-16 18:00:00,63.0,3.0,-2.1,69,19,24.1,101.13,Rain
1123,2012-02-16 19:00:00,62.1,2.5,-1.4,75,17,25.0,101.02,Rain
1124,2012-02-16 20:00:00,60.660000000000004,1.7,-0.7,84,17,16.1,100.94,Rain
1125,2012-02-16 21:00:00,60.300000000000004,1.5,-0.5,87,15,25.0,100.88,Rain
1126,2012-02-16 22:00:00,60.300000000000004,1.5,-0.6,86,17,12.9,100.8,Rain
1127,2012-02-16 23:00:00,59.94,1.3,-0.3,89,19,16.1,100.71,Rain
1128,2012-02-17 00:00:00,59.94,1.3,-0.3,89,19,12.9,100.64,Rain
1129,2012-02-17 01:00:00,59.94,1.3,-0.2,90,19,12.9,100.57,Rain
1130,2012-02-17 02:00:00,59.94,1.3,0.1,92,17,9.7,100.5,Rain
1131,2012-02-17 03:00:00,60.12,1.4,0.2,92,19,12.9,100.45,Rain
1132,2012-02-17 04:00:00,61.739999999999995,2.3,1.1,92,20,8.0,100.47,Drizzle
1133,2012-02-17 05:00:00,62.63999999999999,2.8,1.6,92,24,12.9,100.49,Cloudy
1134,2012-02-17 06:00:00,63.0,3.0,0.9,86,30,16.1,100.54,Cloudy
1135,2012-02-17 07:00:00,63.0,3.0,-0.3,79,24,24.1,100.58,Mostly Cloudy
1136,2012-02-17 08:00:00,62.63999999999999,2.8,-1.2,75,32,24.1,100.67,Cloudy
1137,2012-02-17 09:00:00,61.739999999999995,2.3,-2.4,71,32,24.1,100.74,Mostly Cloudy
1138,2012-02-17 10:00:00,62.1,2.5,-3.0,67,41,48.3,100.76,Mostly Cloudy
1139,2012-02-17 11:00:00,62.28,2.6,-4.0,62,32,48.3,100.77,Cloudy
1140,2012-02-17 12:00:00,62.28,2.6,-4.1,61,24,24.1,100.71,Cloudy
1141,2012-02-17 13:00:00,63.0,3.0,-4.3,59,22,24.1,100.66,Mostly Cloudy
1142,2012-02-17 14:00:00,63.9,3.5,-5.1,53,28,24.1,100.62,Mostly Cloudy
1143,2012-02-17 15:00:00,63.0,3.0,-4.4,58,30,24.1,100.63,Mostly Cloudy
1144,2012-02-17 16:00:00,63.18000000000001,3.1,-4.9,56,26,24.1,100.64,Cloudy
1145,2012-02-17 17:00:00,62.28,2.6,-3.9,62,26,24.1,100.66,Mostly Cloudy
1146,2012-02-17 18:00:00,61.739999999999995,2.3,-3.7,64,22,25.0,100.69,Mostly Cloudy
1147,2012-02-17 19:00:00,61.2,2.0,-3.5,67,28,25.0,100.68,Mostly Cloudy
1148,2012-02-17 20:00:00,60.839999999999996,1.8,-3.4,68,24,25.0,100.68,Mostly Cloudy
1149,2012-02-17 21:00:00,60.660000000000004,1.7,-3.6,68,19,25.0,100.7,Mostly Cloudy
1150,2012-02-17 22:00:00,59.760000000000005,1.2,-3.9,69,15,25.0,100.72,Mainly Clear
1151,2012-02-17 23:00:00,59.22,0.9,-4.1,69,26,25.0,100.7,Mainly Clear
1152,2012-02-18 00:00:00,58.86000000000001,0.7,-3.9,71,24,25.0,100.71,Mainly Clear
1153,2012-02-18 01:00:00,58.86000000000001,0.7,-4.5,68,22,25.0,100.71,Mainly Clear
1154,2012-02-18 02:00:00,58.13999999999999,0.3,-4.4,71,22,25.0,100.74,Mainly Clear
1155,2012-02-18 03:00:00,58.13999999999999,0.3,-4.7,69,26,25.0,100.72,Mostly Cloudy
1156,2012-02-18 04:00:00,57.06,-0.3,-4.9,71,22,25.0,100.74,Mostly Cloudy
1157,2012-02-18 05:00:00,56.519999999999996,-0.6,-5.1,72,19,25.0,100.79,Cloudy
1158,2012-02-18 06:00:00,57.24,-0.2,-5.0,70,20,25.0,100.82,Mostly Cloudy
1159,2012-02-18 07:00:00,56.519999999999996,-0.6,-5.2,71,24,25.0,100.84,Mostly Cloudy
1160,2012-02-18 08:00:00,56.519999999999996,-0.6,-5.3,70,19,24.1,100.85,Mostly Cloudy
1161,2012-02-18 09:00:00,56.519999999999996,-0.6,-5.4,70,24,48.3,100.85,Mainly Clear
1162,2012-02-18 10:00:00,57.78,0.1,-5.3,67,24,48.3,100.83,Cloudy
1163,2012-02-18 11:00:00,58.5,0.5,-5.1,66,17,48.3,100.81,Cloudy
1164,2012-02-18 12:00:00,59.580000000000005,1.1,-5.7,60,15,48.3,100.75,Mostly Cloudy
1165,2012-02-18 13:00:00,60.839999999999996,1.8,-6.1,56,20,48.3,100.7,Mostly Cloudy
1166,2012-02-18 14:00:00,59.760000000000005,1.2,-5.4,61,15,48.3,100.7,Mostly Cloudy
1167,2012-02-18 15:00:00,60.300000000000004,1.5,-5.8,58,19,48.3,100.71,Mostly Cloudy
1168,2012-02-18 16:00:00,60.300000000000004,1.5,-6.3,56,19,48.3,100.73,Mostly Cloudy
1169,2012-02-18 17:00:00,59.4,1.0,-6.2,59,13,48.3,100.78,Mostly Cloudy
1170,2012-02-18 18:00:00,59.04,0.8,-6.9,56,15,25.0,100.88,Mostly Cloudy
1171,2012-02-18 19:00:00,56.519999999999996,-0.6,-7.8,58,11,25.0,100.99,Mainly Clear
1172,2012-02-18 20:00:00,54.54,-1.7,-7.8,63,11,25.0,101.09,Clear
1173,2012-02-18 21:00:00,53.28,-2.4,-8.1,65,9,25.0,101.16,Clear
1174,2012-02-18 22:00:00,51.300000000000004,-3.5,-8.3,69,9,25.0,101.21,Clear
1175,2012-02-18 23:00:00,50.580000000000005,-3.9,-8.7,69,9,25.0,101.29,Clear
1176,2012-02-19 00:00:00,50.580000000000005,-3.9,-8.8,69,13,25.0,101.37,Clear
1177,2012-02-19 01:00:00,49.5,-4.5,-9.8,66,19,25.0,101.46,Mainly Clear
1178,2012-02-19 02:00:00,48.24,-5.2,-10.2,68,9,25.0,101.49,Mainly Clear
1179,2012-02-19 03:00:00,46.800000000000004,-6.0,-10.3,72,0,25.0,101.43,Clear
1180,2012-02-19 04:00:00,47.16,-5.8,-10.5,69,7,25.0,101.44,Mainly Clear
1181,2012-02-19 05:00:00,46.980000000000004,-5.9,-9.7,74,9,25.0,101.48,Mainly Clear
1182,2012-02-19 06:00:00,45.54,-6.7,-10.3,76,6,25.0,101.5,Clear
1183,2012-02-19 07:00:00,46.26,-6.3,-10.5,72,7,25.0,101.53,Mainly Clear
1184,2012-02-19 08:00:00,47.16,-5.8,-9.9,73,7,24.1,101.57,Mostly Cloudy
1185,2012-02-19 09:00:00,48.24,-5.2,-9.7,71,9,24.1,101.59,Mostly Cloudy
1186,2012-02-19 10:00:00,49.14,-4.7,-9.7,68,15,48.3,101.59,Cloudy
1187,2012-02-19 11:00:00,50.4,-4.0,-9.1,68,17,48.3,101.59,Mostly Cloudy
1188,2012-02-19 12:00:00,51.84,-3.2,-9.0,64,17,48.3,101.56,Mainly Clear
1189,2012-02-19 13:00:00,52.74,-2.7,-8.6,64,19,48.3,101.51,Mainly Clear
1190,2012-02-19 14:00:00,53.46,-2.3,-9.5,58,15,48.3,101.45,Clear
1191,2012-02-19 15:00:00,54.72,-1.6,-9.3,56,17,48.3,101.43,Clear
1192,2012-02-19 16:00:00,54.72,-1.6,-9.7,54,20,48.3,101.37,Clear
1193,2012-02-19 17:00:00,53.82,-2.1,-9.8,56,15,48.3,101.36,Clear
1194,2012-02-19 18:00:00,52.38,-2.9,-9.8,59,13,48.3,101.39,Clear
1195,2012-02-19 19:00:00,51.84,-3.2,-10.0,59,15,25.0,101.43,Clear
1196,2012-02-19 20:00:00,50.76,-3.8,-10.1,62,13,25.0,101.47,Clear
1197,2012-02-19 21:00:00,48.96,-4.8,-10.0,67,11,25.0,101.51,Clear
1198,2012-02-19 22:00:00,47.88,-5.4,-10.2,69,9,25.0,101.52,Clear
1199,2012-02-19 23:00:00,46.26,-6.3,-11.8,65,7,25.0,101.52,Clear
1200,2012-02-20 00:00:00,45.54,-6.7,-12.4,64,4,25.0,101.55,Clear
1201,2012-02-20 01:00:00,43.92,-7.6,-12.6,67,0,25.0,101.63,Clear
1202,2012-02-20 02:00:00,41.76,-8.8,-12.3,76,4,25.0,101.66,Clear
1203,2012-02-20 03:00:00,41.76,-8.8,-12.7,73,7,25.0,101.68,Clear
1204,2012-02-20 04:00:00,39.96,-9.8,-13.0,77,6,25.0,101.69,Clear
1205,2012-02-20 05:00:00,39.24,-10.2,-13.7,75,6,25.0,101.77,Clear
1206,2012-02-20 06:00:00,38.34,-10.7,-14.3,75,4,25.0,101.81,Clear
1207,2012-02-20 07:00:00,37.800000000000004,-11.0,-14.4,76,4,24.1,101.87,Clear
1208,2012-02-20 08:00:00,39.78,-9.9,-14.4,70,4,48.3,101.98,Mainly Clear
1209,2012-02-20 09:00:00,41.940000000000005,-8.7,-14.1,65,6,48.3,102.04,Mostly Cloudy
1210,2012-02-20 10:00:00,43.2,-8.0,-13.7,64,9,48.3,102.07,Mostly Cloudy
1211,2012-02-20 11:00:00,44.82,-7.1,-13.3,61,9,48.3,102.09,Mostly Cloudy
1212,2012-02-20 12:00:00,46.800000000000004,-6.0,-12.1,62,11,48.3,102.1,Mostly Cloudy
1213,2012-02-20 13:00:00,49.14,-4.7,-11.7,58,20,48.3,102.08,Mostly Cloudy
1214,2012-02-20 14:00:00,52.019999999999996,-3.1,-10.5,57,17,48.3,102.07,Mainly Clear
1215,2012-02-20 15:00:00,54.0,-2.0,-9.7,56,19,48.3,102.07,Mostly Cloudy
1216,2012-02-20 16:00:00,54.36,-1.8,-8.5,60,20,48.3,102.06,Mainly Clear
1217,2012-02-20 17:00:00,54.18000000000001,-1.9,-8.9,59,17,48.3,102.08,Clear
1218,2012-02-20 18:00:00,51.84,-3.2,-8.8,65,9,48.3,102.1,Clear
1219,2012-02-20 19:00:00,51.12,-3.6,-8.7,68,7,25.0,102.13,Clear
1220,2012-02-20 20:00:00,50.4,-4.0,-9.0,68,6,25.0,102.16,Mainly Clear
1221,2012-02-20 21:00:00,51.300000000000004,-3.5,-8.9,66,6,25.0,102.18,Clear
1222,2012-02-20 22:00:00,51.66,-3.3,-8.8,66,0,25.0,102.2,Clear
1223,2012-02-20 23:00:00,47.16,-5.8,-9.3,76,4,25.0,102.2,Clear
1224,2012-02-21 00:00:00,50.4,-4.0,-8.1,73,9,25.0,102.21,Clear
1225,2012-02-21 01:00:00,49.86,-4.3,-8.4,73,6,25.0,102.18,Clear
1226,2012-02-21 02:00:00,50.22,-4.1,-8.1,74,7,25.0,102.21,Clear
1227,2012-02-21 03:00:00,48.06,-5.3,-8.9,76,4,25.0,102.19,Clear
1228,2012-02-21 04:00:00,48.24,-5.2,-8.2,79,4,25.0,102.12,Clear
1229,2012-02-21 05:00:00,46.62,-6.1,-8.6,82,7,25.0,102.05,Mainly Clear
1230,2012-02-21 06:00:00,46.62,-6.1,-8.9,81,6,25.0,102.03,Mainly Clear
1231,2012-02-21 07:00:00,46.440000000000005,-6.2,-9.1,80,7,48.3,102.03,Mainly Clear
1232,2012-02-21 08:00:00,48.6,-5.0,-8.2,78,7,48.3,101.98,Mostly Cloudy
1233,2012-02-21 09:00:00,52.019999999999996,-3.1,-7.2,73,9,48.3,101.87,Mostly Cloudy
1234,2012-02-21 10:00:00,55.080000000000005,-1.4,-7.0,66,11,48.3,101.72,Mostly Cloudy
1235,2012-02-21 11:00:00,57.42,-0.1,-6.2,63,15,48.3,101.55,Cloudy
1236,2012-02-21 12:00:00,57.6,0.0,-6.8,60,19,48.3,101.38,Cloudy
1237,2012-02-21 13:00:00,59.4,1.0,-6.2,59,24,48.3,101.19,Cloudy
1238,2012-02-21 14:00:00,61.019999999999996,1.9,-6.2,55,22,48.3,100.95,Mostly Cloudy
1239,2012-02-21 15:00:00,61.56000000000001,2.2,-5.8,55,19,48.3,100.82,Cloudy
1240,2012-02-21 16:00:00,61.2,2.0,-5.9,56,17,48.3,100.66,Cloudy
1241,2012-02-21 17:00:00,61.56000000000001,2.2,-6.4,53,9,48.3,100.59,Cloudy
1242,2012-02-21 18:00:00,61.019999999999996,1.9,-6.1,55,9,25.0,100.54,Cloudy
1243,2012-02-21 19:00:00,61.38,2.1,-6.5,53,0,25.0,100.5,Cloudy
1244,2012-02-21 20:00:00,57.24,-0.2,-4.9,71,4,25.0,100.43,Cloudy
1245,2012-02-21 21:00:00,56.7,-0.5,-4.9,72,6,25.0,100.4,Cloudy
1246,2012-02-21 22:00:00,56.519999999999996,-0.6,-4.5,75,6,25.0,100.35,Snow
1247,2012-02-21 23:00:00,58.5,0.5,-4.4,70,0,25.0,100.2,Cloudy
1248,2012-02-22 00:00:00,58.5,0.5,-2.1,83,19,9.7,100.1,Snow
1249,2012-02-22 01:00:00,59.04,0.8,-2.2,80,15,12.9,99.97,Snow
1250,2012-02-22 02:00:00,60.12,1.4,-2.5,75,19,12.9,99.87,Snow
1251,2012-02-22 03:00:00,59.94,1.3,-1.5,82,20,9.7,99.77,"Rain,Snow"
1252,2012-02-22 04:00:00,59.760000000000005,1.2,-1.0,85,15,12.9,99.68,Rain
1253,2012-02-22 05:00:00,60.12,1.4,-0.6,87,15,9.7,99.64,Rain
1254,2012-02-22 06:00:00,60.300000000000004,1.5,-0.3,88,13,12.9,99.59,Rain
1255,2012-02-22 07:00:00,60.480000000000004,1.6,0.1,90,15,6.4,99.57,"Rain,Fog"
1256,2012-02-22 08:00:00,62.28,2.6,0.9,89,17,19.3,99.57,Rain
1257,2012-02-22 09:00:00,62.82,2.9,0.7,85,26,24.1,99.57,Cloudy
1258,2012-02-22 10:00:00,64.8,4.0,1.2,82,28,24.1,99.54,Mostly Cloudy
1259,2012-02-22 11:00:00,65.88000000000001,4.6,0.4,74,26,24.1,99.56,Mostly Cloudy
1260,2012-02-22 12:00:00,66.96000000000001,5.2,-0.6,66,28,24.1,99.52,Mostly Cloudy
1261,2012-02-22 13:00:00,68.03999999999999,5.8,-1.1,61,22,24.1,99.4,Mostly Cloudy
1262,2012-02-22 14:00:00,68.58,6.1,-1.4,59,17,24.1,99.32,Mostly Cloudy
1263,2012-02-22 15:00:00,67.32,5.4,-1.4,62,28,24.1,99.3,Rain Showers
1264,2012-02-22 16:00:00,62.82,2.9,0.3,83,19,24.1,99.31,Mainly Clear
1265,2012-02-22 17:00:00,62.28,2.6,0.1,84,19,24.1,99.29,Mostly Cloudy
1266,2012-02-22 18:00:00,61.92,2.4,-0.2,83,9,24.1,99.33,Mostly Cloudy
1267,2012-02-22 19:00:00,61.019999999999996,1.9,-0.2,86,6,25.0,99.34,Mainly Clear
1268,2012-02-22 20:00:00,60.480000000000004,1.6,-0.8,84,13,25.0,99.32,Mostly Cloudy
1269,2012-02-22 21:00:00,61.739999999999995,2.3,-0.9,79,15,25.0,99.33,Mostly Cloudy
1270,2012-02-22 22:00:00,62.46000000000001,2.7,-0.8,78,15,25.0,99.26,Cloudy
1271,2012-02-22 23:00:00,62.28,2.6,-1.0,77,13,25.0,99.27,Cloudy
1272,2012-02-23 00:00:00,61.739999999999995,2.3,-0.9,79,20,25.0,99.23,Rain Showers
1273,2012-02-23 01:00:00,60.660000000000004,1.7,-1.1,82,11,25.0,99.18,Cloudy
1274,2012-02-23 02:00:00,59.580000000000005,1.1,-1.1,85,7,25.0,99.17,Snow
1275,2012-02-23 03:00:00,58.68000000000001,0.6,-1.0,89,6,6.4,99.14,Snow
1276,2012-02-23 04:00:00,58.5,0.5,-1.0,90,4,6.4,99.13,Fog
1277,2012-02-23 05:00:00,58.32,0.4,-1.1,90,4,6.4,99.11,Fog
1278,2012-02-23 06:00:00,58.5,0.5,-1.1,89,9,8.0,99.16,Fog
1279,2012-02-23 07:00:00,58.68000000000001,0.6,-1.0,89,7,8.0,99.2,Fog
1280,2012-02-23 08:00:00,58.32,0.4,-1.6,86,7,19.3,99.26,Mainly Clear
1281,2012-02-23 09:00:00,59.580000000000005,1.1,-1.8,81,17,24.1,99.32,Mostly Cloudy
1282,2012-02-23 10:00:00,60.480000000000004,1.6,-1.9,78,19,24.1,99.38,Mainly Clear
1283,2012-02-23 11:00:00,61.739999999999995,2.3,-1.9,74,22,24.1,99.42,Mostly Cloudy
1284,2012-02-23 12:00:00,61.38,2.1,-2.3,73,20,24.1,99.47,Cloudy
1285,2012-02-23 13:00:00,61.38,2.1,-2.1,74,20,16.1,99.49,Snow Showers
1286,2012-02-23 14:00:00,60.12,1.4,-1.5,81,13,19.3,99.53,Snow
1287,2012-02-23 15:00:00,61.019999999999996,1.9,-1.8,76,22,24.1,99.6,Mostly Cloudy
1288,2012-02-23 16:00:00,62.46000000000001,2.7,-2.3,70,22,24.1,99.7,Mostly Cloudy
1289,2012-02-23 17:00:00,61.739999999999995,2.3,-3.7,64,24,24.1,99.82,Mostly Cloudy
1290,2012-02-23 18:00:00,60.480000000000004,1.6,-3.8,67,15,24.1,99.9,Mainly Clear
1291,2012-02-23 19:00:00,60.480000000000004,1.6,-4.8,62,19,25.0,100.05,Clear
1292,2012-02-23 20:00:00,59.580000000000005,1.1,-5.0,64,15,25.0,100.12,Clear
1293,2012-02-23 21:00:00,58.5,0.5,-5.2,66,13,25.0,100.23,Clear
1294,2012-02-23 22:00:00,57.24,-0.2,-5.4,68,9,25.0,100.28,Clear
1295,2012-02-23 23:00:00,55.800000000000004,-1.0,-5.2,73,7,25.0,100.31,Clear
1296,2012-02-24 00:00:00,55.980000000000004,-0.9,-5.1,73,6,25.0,100.34,Clear
1297,2012-02-24 01:00:00,54.54,-1.7,-5.1,78,4,25.0,100.29,Clear
1298,2012-02-24 02:00:00,54.36,-1.8,-5.4,76,0,25.0,100.2,Clear
1299,2012-02-24 03:00:00,50.76,-3.8,-6.1,84,0,25.0,100.29,Mainly Clear
1300,2012-02-24 04:00:00,52.56,-2.8,-5.0,85,0,25.0,100.31,Cloudy
1301,2012-02-24 05:00:00,52.019999999999996,-3.1,-5.1,86,0,25.0,100.29,Cloudy
1302,2012-02-24 06:00:00,52.2,-3.0,-5.1,85,6,25.0,100.26,Cloudy
1303,2012-02-24 07:00:00,55.26,-1.3,-3.8,83,11,24.1,100.21,Cloudy
1304,2012-02-24 08:00:00,56.34,-0.7,-3.6,81,9,24.1,100.21,Cloudy
1305,2012-02-24 09:00:00,58.13999999999999,0.3,-3.3,77,7,19.3,100.27,Cloudy
1306,2012-02-24 10:00:00,58.86000000000001,0.7,-3.0,76,9,19.3,100.25,Cloudy
1307,2012-02-24 11:00:00,59.22,0.9,-3.2,74,15,19.3,100.13,Cloudy
1308,2012-02-24 12:00:00,59.580000000000005,1.1,-3.3,72,20,19.3,99.91,Cloudy
1309,2012-02-24 13:00:00,59.4,1.0,-3.5,72,20,19.3,99.75,Cloudy
1310,2012-02-24 14:00:00,59.580000000000005,1.1,-3.3,72,20,16.1,99.64,Snow
1311,2012-02-24 15:00:00,59.4,1.0,-2.6,77,19,6.4,99.53,"Snow,Fog"
1312,2012-02-24 16:00:00,57.42,-0.1,-1.6,90,22,1.2,99.38,"Snow,Fog"
1313,2012-02-24 17:00:00,57.42,-0.1,-1.5,90,26,1.0,99.16,Snow
1314,2012-02-24 18:00:00,57.6,0.0,-1.4,90,24,1.0,99.07,Snow
1315,2012-02-24 19:00:00,57.6,0.0,-1.3,91,22,1.2,98.88,Snow
1316,2012-02-24 20:00:00,57.6,0.0,-1.2,92,15,2.0,98.81,Snow
1317,2012-02-24 21:00:00,58.13999999999999,0.3,-1.1,90,17,2.4,98.69,Snow
1318,2012-02-24 22:00:00,58.68000000000001,0.6,-0.8,90,19,16.1,98.55,Rain
1319,2012-02-24 23:00:00,59.04,0.8,-0.5,91,17,19.3,98.39,Cloudy
1320,2012-02-25 00:00:00,59.4,1.0,-0.6,89,11,12.9,98.29,Rain
1321,2012-02-25 01:00:00,59.04,0.8,-0.7,90,15,8.0,98.18,"Rain,Snow"
1322,2012-02-25 02:00:00,58.32,0.4,-0.9,91,11,6.4,98.06,Snow
1323,2012-02-25 03:00:00,58.86000000000001,0.7,-0.8,90,19,4.0,98.0,Snow
1324,2012-02-25 04:00:00,58.32,0.4,-1.0,90,19,3.2,97.97,Snow
1325,2012-02-25 05:00:00,58.68000000000001,0.6,-1.1,88,22,12.9,97.99,Snow
1326,2012-02-25 06:00:00,57.6,0.0,-1.6,89,33,2.8,98.03,Snow
1327,2012-02-25 07:00:00,55.080000000000005,-1.4,-2.9,89,33,1.2,98.11,"Snow,Blowing Snow"
1328,2012-02-25 08:00:00,54.36,-1.8,-3.2,90,32,1.2,98.2,"Snow,Blowing Snow"
1329,2012-02-25 09:00:00,55.080000000000005,-1.4,-2.9,89,33,1.2,98.33,"Snow,Blowing Snow"
1330,2012-02-25 10:00:00,54.54,-1.7,-3.3,89,32,1.6,98.45,Snow
1331,2012-02-25 11:00:00,53.82,-2.1,-3.5,90,33,2.0,98.6,Snow
1332,2012-02-25 12:00:00,53.1,-2.5,-4.2,88,33,3.2,98.75,Snow
1333,2012-02-25 13:00:00,52.74,-2.7,-5.0,84,32,2.0,98.89,Snow
1334,2012-02-25 14:00:00,51.84,-3.2,-6.3,79,35,3.2,99.05,Snow
1335,2012-02-25 15:00:00,51.66,-3.3,-7.5,73,33,19.3,99.22,Snow
1336,2012-02-25 16:00:00,51.12,-3.6,-7.4,75,24,9.7,99.39,Snow
1337,2012-02-25 17:00:00,51.84,-3.2,-8.4,67,24,25.0,99.59,Cloudy
1338,2012-02-25 18:00:00,51.12,-3.6,-9.0,66,30,25.0,99.8,Cloudy
1339,2012-02-25 19:00:00,49.14,-4.7,-10.5,64,35,25.0,100.04,Cloudy
1340,2012-02-25 20:00:00,48.06,-5.3,-11.2,63,26,25.0,100.24,Cloudy
1341,2012-02-25 21:00:00,47.519999999999996,-5.6,-11.1,65,32,25.0,100.42,Mostly Cloudy
1342,2012-02-25 22:00:00,45.72,-6.6,-12.8,61,28,25.0,100.62,Cloudy
1343,2012-02-25 23:00:00,43.92,-7.6,-13.8,61,26,25.0,100.76,Cloudy
1344,2012-02-26 00:00:00,42.66,-8.3,-14.3,62,19,25.0,100.89,Mostly Cloudy
1345,2012-02-26 01:00:00,41.4,-9.0,-14.5,64,20,25.0,101.09,Mainly Clear
1346,2012-02-26 02:00:00,41.04,-9.2,-14.6,65,22,25.0,101.26,Clear
1347,2012-02-26 03:00:00,39.78,-9.9,-15.1,66,28,25.0,101.42,Mainly Clear
1348,2012-02-26 04:00:00,38.16,-10.8,-15.3,69,30,25.0,101.6,Mostly Cloudy
1349,2012-02-26 05:00:00,36.72,-11.6,-15.9,70,20,25.0,101.77,Clear
1350,2012-02-26 06:00:00,37.26,-11.3,-16.8,64,22,25.0,101.92,Clear
1351,2012-02-26 07:00:00,35.82,-12.1,-17.8,62,22,48.3,102.07,Clear
1352,2012-02-26 08:00:00,35.82,-12.1,-18.0,61,26,48.3,102.23,Mainly Clear
1353,2012-02-26 09:00:00,36.72,-11.6,-18.6,56,32,48.3,102.32,Mainly Clear
1354,2012-02-26 10:00:00,37.440000000000005,-11.2,-20.3,47,22,48.3,102.35,Clear
1355,2012-02-26 11:00:00,39.42,-10.1,-20.1,44,26,48.3,102.39,Clear
1356,2012-02-26 12:00:00,40.86,-9.3,-18.6,47,28,48.3,102.42,Clear
1357,2012-02-26 13:00:00,42.66,-8.3,-17.4,48,26,48.3,102.41,Mainly Clear
1358,2012-02-26 14:00:00,43.92,-7.6,-17.2,46,28,48.3,102.42,Mainly Clear
1359,2012-02-26 15:00:00,44.82,-7.1,-16.3,48,26,48.3,102.49,Mainly Clear
1360,2012-02-26 16:00:00,45.36,-6.8,-16.4,46,24,48.3,102.52,Mainly Clear
1361,2012-02-26 17:00:00,43.92,-7.6,-17.1,46,24,48.3,102.55,Mostly Cloudy
1362,2012-02-26 18:00:00,43.38,-7.9,-16.7,49,19,25.0,102.6,Cloudy
1363,2012-02-26 19:00:00,43.56,-7.8,-16.8,48,13,25.0,102.63,Cloudy
1364,2012-02-26 20:00:00,43.38,-7.9,-16.4,50,11,25.0,102.64,Cloudy
1365,2012-02-26 21:00:00,42.300000000000004,-8.5,-16.6,52,9,25.0,102.72,Cloudy
1366,2012-02-26 22:00:00,42.12,-8.6,-16.5,53,0,25.0,102.68,Mostly Cloudy
1367,2012-02-26 23:00:00,40.5,-9.5,-16.2,58,0,25.0,102.64,Cloudy
1368,2012-02-27 00:00:00,42.84,-8.2,-16.2,52,7,25.0,102.63,Cloudy
1369,2012-02-27 01:00:00,42.12,-8.6,-15.5,57,4,25.0,102.61,Cloudy
1370,2012-02-27 02:00:00,42.300000000000004,-8.5,-14.2,63,13,25.0,102.6,Cloudy
1371,2012-02-27 03:00:00,42.66,-8.3,-13.7,65,9,25.0,102.59,Cloudy
1372,2012-02-27 04:00:00,42.84,-8.2,-14.4,61,9,25.0,102.58,Cloudy
1373,2012-02-27 05:00:00,42.480000000000004,-8.4,-15.1,58,13,25.0,102.54,Mostly Cloudy
1374,2012-02-27 06:00:00,41.4,-9.0,-15.2,61,17,25.0,102.42,Mostly Cloudy
1375,2012-02-27 07:00:00,40.68000000000001,-9.4,-14.6,66,20,48.3,102.31,Cloudy
1376,2012-02-27 08:00:00,39.96,-9.8,-14.8,67,19,48.3,102.25,Cloudy
1377,2012-02-27 09:00:00,40.68000000000001,-9.4,-14.9,64,22,48.3,102.1,Cloudy
1378,2012-02-27 10:00:00,41.940000000000005,-8.7,-14.6,62,22,24.1,101.94,Cloudy
1379,2012-02-27 11:00:00,41.940000000000005,-8.7,-14.2,64,28,48.3,101.74,Mostly Cloudy
1380,2012-02-27 12:00:00,46.26,-6.3,-12.8,60,15,48.3,101.59,Mostly Cloudy
1381,2012-02-27 13:00:00,48.78,-4.9,-11.6,59,19,48.3,101.41,Cloudy
1382,2012-02-27 14:00:00,47.7,-5.5,-11.5,63,22,24.1,101.34,Cloudy
1383,2012-02-27 15:00:00,48.42,-5.1,-9.4,72,20,1.6,101.19,Snow
1384,2012-02-27 16:00:00,48.78,-4.9,-7.9,79,19,19.3,101.13,Snow
1385,2012-02-27 17:00:00,48.24,-5.2,-7.9,81,20,24.1,101.01,Cloudy
1386,2012-02-27 18:00:00,46.26,-6.3,-8.9,82,24,25.0,101.1,Cloudy
1387,2012-02-27 19:00:00,44.82,-7.1,-9.6,82,22,2.0,101.14,Snow
1388,2012-02-27 20:00:00,44.64,-7.2,-9.6,83,9,25.0,101.25,Snow
1389,2012-02-27 21:00:00,44.46,-7.3,-9.7,83,4,25.0,101.29,Snow
1390,2012-02-27 22:00:00,44.82,-7.1,-9.6,82,0,8.0,101.33,Snow
1391,2012-02-27 23:00:00,45.36,-6.8,-9.1,84,4,6.4,101.38,Snow
1392,2012-02-28 00:00:00,45.54,-6.7,-9.0,84,0,6.4,101.4,Snow
1393,2012-02-28 01:00:00,45.9,-6.5,-8.7,84,0,8.0,101.48,Snow
1394,2012-02-28 02:00:00,45.72,-6.6,-8.9,84,0,9.7,101.55,Snow
1395,2012-02-28 03:00:00,46.980000000000004,-5.9,-8.3,83,9,12.9,101.66,Cloudy
1396,2012-02-28 04:00:00,47.7,-5.5,-8.3,81,15,16.1,101.82,Cloudy
1397,2012-02-28 05:00:00,47.88,-5.4,-9.7,72,20,12.9,101.98,Snow
1398,2012-02-28 06:00:00,45.18000000000001,-6.9,-10.3,77,22,8.0,102.19,Snow
1399,2012-02-28 07:00:00,43.019999999999996,-8.1,-13.4,66,19,24.1,102.35,Mainly Clear
1400,2012-02-28 08:00:00,42.480000000000004,-8.4,-13.7,66,19,24.1,102.5,Mainly Clear
1401,2012-02-28 09:00:00,42.66,-8.3,-13.8,64,20,48.3,102.63,Clear
1402,2012-02-28 10:00:00,44.1,-7.5,-13.6,62,13,24.1,102.65,Clear
1403,2012-02-28 11:00:00,45.9,-6.5,-13.1,59,9,48.3,102.69,Clear
1404,2012-02-28 12:00:00,47.16,-5.8,-13.3,55,11,48.3,102.65,Mainly Clear
1405,2012-02-28 13:00:00,47.7,-5.5,-12.3,59,17,48.3,102.62,Mainly Clear
1406,2012-02-28 14:00:00,48.96,-4.8,-12.1,57,15,48.3,102.58,Mostly Cloudy
1407,2012-02-28 15:00:00,50.04,-4.2,-11.8,55,19,48.3,102.58,Mostly Cloudy
1408,2012-02-28 16:00:00,49.86,-4.3,-12.4,53,17,48.3,102.54,Mostly Cloudy
1409,2012-02-28 17:00:00,49.68000000000001,-4.4,-12.6,53,15,48.3,102.53,Mainly Clear
1410,2012-02-28 18:00:00,48.06,-5.3,-12.5,57,17,24.1,102.56,Clear
1411,2012-02-28 19:00:00,46.980000000000004,-5.9,-12.9,58,7,25.0,102.58,Clear
1412,2012-02-28 20:00:00,45.36,-6.8,-13.4,59,11,25.0,102.56,Clear
1413,2012-02-28 21:00:00,41.940000000000005,-8.7,-14.6,62,11,25.0,102.53,Clear
1414,2012-02-28 22:00:00,42.66,-8.3,-14.0,63,0,25.0,102.52,Clear
1415,2012-02-28 23:00:00,39.6,-10.0,-15.3,65,9,25.0,102.52,Clear
1416,2012-02-29 00:00:00,42.84,-8.2,-13.8,64,9,25.0,102.51,Clear
1417,2012-02-29 01:00:00,40.5,-9.5,-14.8,65,4,25.0,102.47,Clear
1418,2012-02-29 02:00:00,40.14,-9.7,-13.9,71,4,25.0,102.46,Mainly Clear
1419,2012-02-29 03:00:00,36.9,-11.5,-14.7,77,0,25.0,102.45,Clear
1420,2012-02-29 04:00:00,39.06,-10.3,-14.2,73,7,25.0,102.41,Mainly Clear
1421,2012-02-29 05:00:00,34.019999999999996,-13.1,-16.0,79,0,25.0,102.4,Clear
1422,2012-02-29 06:00:00,35.64,-12.2,-15.2,78,0,25.0,102.41,Clear
1423,2012-02-29 07:00:00,36.54,-11.7,-14.6,79,9,24.1,102.4,Mainly Clear
1424,2012-02-29 08:00:00,38.519999999999996,-10.6,-13.7,78,11,24.1,102.44,Cloudy
1425,2012-02-29 09:00:00,42.300000000000004,-8.5,-12.3,74,11,24.1,102.36,Mostly Cloudy
1426,2012-02-29 10:00:00,45.72,-6.6,-11.6,68,17,24.1,102.3,Mostly Cloudy
1427,2012-02-29 11:00:00,49.14,-4.7,-12.5,54,15,24.1,102.24,Mostly Cloudy
1428,2012-02-29 12:00:00,50.580000000000005,-3.9,-12.2,52,17,24.1,102.08,Mostly Cloudy
1429,2012-02-29 13:00:00,52.38,-2.9,-10.8,54,11,24.1,101.99,Mostly Cloudy
1430,2012-02-29 14:00:00,52.38,-2.9,-11.7,51,13,24.1,101.89,Mostly Cloudy
1431,2012-02-29 15:00:00,52.019999999999996,-3.1,-11.5,52,20,24.1,101.81,Cloudy
1432,2012-02-29 16:00:00,51.12,-3.6,-11.2,56,26,24.1,101.72,Cloudy
1433,2012-02-29 17:00:00,50.22,-4.1,-12.0,54,28,24.1,101.6,Cloudy
1434,2012-02-29 18:00:00,49.14,-4.7,-12.8,53,28,24.1,101.54,Cloudy
1435,2012-02-29 19:00:00,49.32,-4.6,-13.2,51,30,25.0,101.46,Mostly Cloudy
1436,2012-02-29 20:00:00,49.5,-4.5,-13.0,51,30,25.0,101.42,Cloudy
1437,2012-02-29 21:00:00,49.32,-4.6,-12.7,53,26,25.0,101.23,Cloudy
1438,2012-02-29 22:00:00,49.5,-4.5,-12.3,54,30,25.0,101.14,Snow
1439,2012-02-29 23:00:00,48.42,-5.1,-11.2,62,30,8.0,101.01,Snow
1440,2012-03-01 00:00:00,47.7,-5.5,-9.7,72,24,4.0,100.97,Snow
1441,2012-03-01 01:00:00,47.34,-5.7,-8.7,79,26,2.4,100.87,Snow
1442,2012-03-01 02:00:00,47.88,-5.4,-8.3,80,28,4.8,100.8,Snow
1443,2012-03-01 03:00:00,49.14,-4.7,-7.7,79,28,4.0,100.69,Snow
1444,2012-03-01 04:00:00,47.88,-5.4,-7.8,83,35,1.6,100.62,Snow
1445,2012-03-01 05:00:00,48.06,-5.3,-7.9,82,33,2.4,100.58,Snow
1446,2012-03-01 06:00:00,48.24,-5.2,-7.8,82,33,4.0,100.57,Snow
1447,2012-03-01 07:00:00,48.78,-4.9,-7.4,83,30,1.6,100.59,Snow
1448,2012-03-01 08:00:00,48.6,-5.0,-7.5,83,32,1.2,100.59,Snow
1449,2012-03-01 09:00:00,48.78,-4.9,-7.5,82,32,1.6,100.6,Snow
1450,2012-03-01 10:00:00,49.14,-4.7,-7.3,82,32,1.2,100.62,Snow
1451,2012-03-01 11:00:00,49.68000000000001,-4.4,-6.8,83,28,1.0,100.66,Snow
1452,2012-03-01 12:00:00,49.86,-4.3,-6.8,83,30,1.2,100.66,Snow
1453,2012-03-01 13:00:00,49.86,-4.3,-6.9,82,28,1.2,100.65,Snow
1454,2012-03-01 14:00:00,50.580000000000005,-3.9,-6.6,81,28,1.2,100.67,Snow
1455,2012-03-01 15:00:00,51.66,-3.3,-6.2,80,24,1.6,100.71,Snow
1456,2012-03-01 16:00:00,52.74,-2.7,-5.7,80,19,2.4,100.74,Snow
1457,2012-03-01 17:00:00,52.38,-2.9,-5.9,80,20,4.0,100.8,Snow
1458,2012-03-01 18:00:00,52.2,-3.0,-6.0,80,19,4.0,100.87,Snow
1459,2012-03-01 19:00:00,51.12,-3.6,-6.4,81,17,3.2,100.93,Snow
1460,2012-03-01 20:00:00,50.940000000000005,-3.7,-6.4,81,20,4.8,100.95,Snow
1461,2012-03-01 21:00:00,50.580000000000005,-3.9,-6.7,81,22,6.4,100.98,Snow
1462,2012-03-01 22:00:00,49.86,-4.3,-6.9,82,22,2.4,101.0,Snow
1463,2012-03-01 23:00:00,49.86,-4.3,-7.1,81,22,4.8,101.04,Snow
1464,2012-03-02 00:00:00,48.96,-4.8,-7.3,83,22,3.2,101.04,Snow
1465,2012-03-02 01:00:00,48.06,-5.3,-7.9,82,20,4.8,101.09,Snow
1466,2012-03-02 02:00:00,48.24,-5.2,-7.8,82,19,6.4,101.11,Snow
1467,2012-03-02 03:00:00,47.7,-5.5,-7.9,83,19,4.8,101.15,Snow
1468,2012-03-02 04:00:00,47.519999999999996,-5.6,-8.2,82,24,6.4,101.15,Snow
1469,2012-03-02 05:00:00,47.7,-5.5,-8.3,81,19,12.9,101.15,Snow
1470,2012-03-02 06:00:00,47.519999999999996,-5.6,-8.6,79,19,16.1,101.14,Snow
1471,2012-03-02 07:00:00,47.34,-5.7,-8.7,79,22,24.1,101.17,Cloudy
1472,2012-03-02 08:00:00,47.34,-5.7,-8.8,79,17,24.1,101.2,Snow
1473,2012-03-02 09:00:00,46.62,-6.1,-8.4,84,13,2.0,101.19,Snow
1474,2012-03-02 10:00:00,46.980000000000004,-5.9,-8.3,83,15,4.0,101.22,Snow
1475,2012-03-02 11:00:00,47.7,-5.5,-7.5,86,15,2.8,101.21,Snow
1476,2012-03-02 12:00:00,48.24,-5.2,-7.1,86,13,2.4,101.18,"Freezing Drizzle,Snow"
1477,2012-03-02 13:00:00,49.32,-4.6,-6.5,87,13,4.8,101.09,Snow
1478,2012-03-02 14:00:00,50.22,-4.1,-6.1,86,15,8.0,101.03,Fog
1479,2012-03-02 15:00:00,51.66,-3.3,-5.7,83,15,11.3,100.98,Cloudy
1480,2012-03-02 16:00:00,52.38,-2.9,-5.3,83,15,11.3,100.93,Cloudy
1481,2012-03-02 17:00:00,52.74,-2.7,-5.1,84,15,12.9,100.89,Cloudy
1482,2012-03-02 18:00:00,53.28,-2.4,-4.8,84,20,12.9,100.81,Cloudy
1483,2012-03-02 19:00:00,54.36,-1.8,-4.2,84,17,16.1,100.75,Cloudy
1484,2012-03-02 20:00:00,53.46,-2.3,-4.7,84,15,16.1,100.74,Cloudy
1485,2012-03-02 21:00:00,55.080000000000005,-1.4,-4.0,82,15,19.3,100.62,Cloudy
1486,2012-03-02 22:00:00,57.96000000000001,0.2,-4.2,72,13,25.0,100.49,Cloudy
1487,2012-03-02 23:00:00,58.5,0.5,-3.6,74,17,25.0,100.29,Cloudy
1488,2012-03-03 00:00:00,59.4,1.0,-3.2,73,22,25.0,100.12,Cloudy
1489,2012-03-03 01:00:00,59.760000000000005,1.2,-2.8,75,19,25.0,99.96,Snow
1490,2012-03-03 02:00:00,56.519999999999996,-0.6,-2.9,84,19,2.4,99.75,Snow
1491,2012-03-03 03:00:00,57.06,-0.3,-2.4,86,22,2.8,99.55,Snow
1492,2012-03-03 04:00:00,58.13999999999999,0.3,-1.7,86,24,11.3,99.4,"Snow,Ice Pellets"
1493,2012-03-03 05:00:00,59.04,0.8,-1.5,85,41,19.3,99.18,Cloudy
1494,2012-03-03 06:00:00,60.300000000000004,1.5,-1.6,80,43,25.0,99.02,Mainly Clear
1495,2012-03-03 07:00:00,61.2,2.0,-1.6,77,41,24.1,98.89,Mostly Cloudy
1496,2012-03-03 08:00:00,62.46000000000001,2.7,-1.5,74,32,24.1,98.79,Mostly Cloudy
1497,2012-03-03 09:00:00,63.0,3.0,-1.0,75,37,24.1,98.7,Cloudy
1498,2012-03-03 10:00:00,64.26,3.7,0.4,79,15,24.1,98.86,Cloudy
1499,2012-03-03 11:00:00,64.8,4.0,-0.7,71,32,24.1,98.82,Rain Showers
1500,2012-03-03 12:00:00,66.96000000000001,5.2,-3.0,55,37,48.3,98.82,Mostly Cloudy
1501,2012-03-03 13:00:00,68.03999999999999,5.8,-4.0,49,50,48.3,98.73,Mostly Cloudy
1502,2012-03-03 14:00:00,69.3,6.5,-5.5,42,48,48.3,98.68,Mostly Cloudy
1503,2012-03-03 15:00:00,67.14,5.3,-5.6,45,57,24.1,98.67,Mostly Cloudy
1504,2012-03-03 16:00:00,66.60000000000001,5.0,-5.0,48,63,48.3,98.67,Mainly Clear
1505,2012-03-03 17:00:00,65.34,4.3,-4.9,51,57,48.3,98.71,Mainly Clear
1506,2012-03-03 18:00:00,64.26,3.7,-4.3,56,48,25.0,98.82,Mostly Cloudy
1507,2012-03-03 19:00:00,63.72,3.4,-4.0,58,44,25.0,98.92,Mainly Clear
1508,2012-03-03 20:00:00,63.36000000000001,3.2,-3.9,60,50,25.0,98.96,Mainly Clear
1509,2012-03-03 21:00:00,62.82,2.9,-3.6,62,46,25.0,98.98,Snow
1510,2012-03-03 22:00:00,62.63999999999999,2.8,-3.4,64,57,25.0,99.07,Snow
1511,2012-03-03 23:00:00,61.739999999999995,2.3,-3.1,67,33,25.0,99.18,Snow
1512,2012-03-04 00:00:00,58.5,0.5,-4.8,68,32,25.0,99.34,Mostly Cloudy
1513,2012-03-04 01:00:00,56.16,-0.8,-6.0,68,24,25.0,99.46,Mostly Cloudy
1514,2012-03-04 02:00:00,54.36,-1.8,-7.8,64,26,25.0,99.56,Mostly Cloudy
1515,2012-03-04 03:00:00,53.82,-2.1,-8.2,63,19,25.0,99.63,Mostly Cloudy
1516,2012-03-04 04:00:00,52.38,-2.9,-9.0,63,20,25.0,99.7,Mostly Cloudy
1517,2012-03-04 05:00:00,49.86,-4.3,-10.5,62,19,25.0,99.77,Cloudy
1518,2012-03-04 06:00:00,48.96,-4.8,-11.6,59,17,25.0,99.84,Mostly Cloudy
1519,2012-03-04 07:00:00,47.34,-5.7,-12.6,58,22,24.1,99.88,Mostly Cloudy
1520,2012-03-04 08:00:00,46.980000000000004,-5.9,-13.8,54,13,24.1,99.97,Mostly Cloudy
1521,2012-03-04 09:00:00,46.26,-6.3,-13.5,57,15,24.1,99.95,Cloudy
1522,2012-03-04 10:00:00,46.26,-6.3,-13.5,57,17,24.1,99.95,Cloudy
1523,2012-03-04 11:00:00,45.9,-6.5,-14.0,55,17,24.1,99.96,Cloudy
1524,2012-03-04 12:00:00,47.16,-5.8,-12.9,57,19,48.3,99.95,Mostly Cloudy
1525,2012-03-04 13:00:00,47.7,-5.5,-12.8,56,19,48.3,99.88,Mainly Clear
1526,2012-03-04 14:00:00,47.34,-5.7,-13.4,55,19,48.3,99.9,Mostly Cloudy
1527,2012-03-04 15:00:00,47.519999999999996,-5.6,-13.5,54,22,48.3,99.9,Mostly Cloudy
1528,2012-03-04 16:00:00,47.7,-5.5,-13.3,54,20,48.3,99.93,Mainly Clear
1529,2012-03-04 17:00:00,45.18000000000001,-6.9,-14.6,54,22,48.3,99.94,Mainly Clear
1530,2012-03-04 18:00:00,43.38,-7.9,-15.7,53,28,25.0,100.04,Mainly Clear
1531,2012-03-04 19:00:00,43.38,-7.9,-15.5,54,22,25.0,100.09,Mostly Cloudy
1532,2012-03-04 20:00:00,42.300000000000004,-8.5,-14.6,61,24,25.0,100.13,Cloudy
1533,2012-03-04 21:00:00,41.4,-9.0,-13.7,69,15,25.0,100.18,Snow Showers
1534,2012-03-04 22:00:00,39.42,-10.1,-15.5,65,17,25.0,100.21,Cloudy
1535,2012-03-04 23:00:00,37.62,-11.1,-16.3,65,24,25.0,100.23,Mostly Cloudy
1536,2012-03-05 00:00:00,35.28,-12.4,-17.4,66,19,25.0,100.26,Mainly Clear
1537,2012-03-05 01:00:00,33.12,-13.6,-18.5,66,24,25.0,100.33,Mainly Clear
1538,2012-03-05 02:00:00,31.5,-14.5,-22.3,52,24,25.0,100.39,Clear
1539,2012-03-05 03:00:00,30.6,-15.0,-21.5,58,22,25.0,100.47,Clear
1540,2012-03-05 04:00:00,29.7,-15.5,-21.9,58,26,25.0,100.55,Clear
1541,2012-03-05 05:00:00,28.980000000000004,-15.9,-22.1,59,20,25.0,100.69,Clear
1542,2012-03-05 06:00:00,28.44,-16.2,-22.6,58,26,24.1,100.77,Mostly Cloudy
1543,2012-03-05 07:00:00,28.44,-16.2,-22.3,59,22,24.1,100.88,Mostly Cloudy
1544,2012-03-05 08:00:00,29.340000000000003,-15.7,-22.5,56,24,24.1,101.0,Mostly Cloudy
1545,2012-03-05 09:00:00,30.419999999999998,-15.1,-22.1,55,24,24.1,101.11,Mostly Cloudy
1546,2012-03-05 10:00:00,31.680000000000003,-14.4,-21.5,55,26,24.1,101.21,Mostly Cloudy
1547,2012-03-05 11:00:00,33.480000000000004,-13.4,-20.7,54,26,48.3,101.31,Mostly Cloudy
1548,2012-03-05 12:00:00,35.64,-12.2,-19.9,53,6,48.3,101.39,Mostly Cloudy
1549,2012-03-05 13:00:00,37.26,-11.3,-19.5,51,24,48.3,101.46,Mostly Cloudy
1550,2012-03-05 14:00:00,38.16,-10.8,-19.8,47,28,48.3,101.55,Mostly Cloudy
1551,2012-03-05 15:00:00,39.6,-10.0,-18.6,49,30,48.3,101.64,Mostly Cloudy
1552,2012-03-05 16:00:00,39.78,-9.9,-18.9,48,26,48.3,101.73,Mostly Cloudy
1553,2012-03-05 17:00:00,40.5,-9.5,-18.8,47,24,48.3,101.82,Mainly Clear
1554,2012-03-05 18:00:00,39.96,-9.8,-19.0,47,22,25.0,101.9,Mainly Clear
1555,2012-03-05 19:00:00,39.42,-10.1,-19.1,48,20,25.0,102.01,Clear
1556,2012-03-05 20:00:00,38.7,-10.5,-19.2,49,17,25.0,102.11,Mainly Clear
1557,2012-03-05 21:00:00,37.800000000000004,-11.0,-19.6,49,17,25.0,102.23,Clear
1558,2012-03-05 22:00:00,36.72,-11.6,-20.2,49,15,25.0,102.29,Clear
1559,2012-03-05 23:00:00,34.92,-12.6,-20.3,53,11,25.0,102.34,Clear
1560,2012-03-06 00:00:00,33.480000000000004,-13.4,-20.5,55,11,25.0,102.41,Clear
1561,2012-03-06 01:00:00,33.480000000000004,-13.4,-20.3,56,11,25.0,102.5,Clear
1562,2012-03-06 02:00:00,32.940000000000005,-13.7,-20.7,55,4,25.0,102.55,Clear
1563,2012-03-06 03:00:00,30.96,-14.8,-21.1,59,9,25.0,102.61,Clear
1564,2012-03-06 04:00:00,31.5,-14.5,-21.1,57,9,25.0,102.7,Clear
1565,2012-03-06 05:00:00,31.319999999999997,-14.6,-21.0,58,13,25.0,102.85,Clear
1566,2012-03-06 06:00:00,30.06,-15.3,-21.3,60,11,24.1,102.9,Clear
1567,2012-03-06 07:00:00,30.96,-14.8,-20.7,61,11,48.3,103.0,Clear
1568,2012-03-06 08:00:00,34.2,-13.0,-19.4,59,0,48.3,103.06,Clear
1569,2012-03-06 09:00:00,37.26,-11.3,-19.1,52,6,48.3,103.1,Clear
1570,2012-03-06 10:00:00,39.6,-10.0,-16.8,57,9,48.3,103.12,Mainly Clear
1571,2012-03-06 11:00:00,41.4,-9.0,-17.8,49,15,48.3,103.12,Mainly Clear
1572,2012-03-06 12:00:00,43.56,-7.8,-15.3,55,13,48.3,103.09,Mainly Clear
1573,2012-03-06 13:00:00,45.54,-6.7,-16.0,48,9,48.3,103.01,Mainly Clear
1574,2012-03-06 14:00:00,47.16,-5.8,-15.8,45,9,48.3,102.98,Mainly Clear
1575,2012-03-06 15:00:00,48.06,-5.3,-15.7,44,6,48.3,102.96,Mainly Clear
1576,2012-03-06 16:00:00,48.78,-4.9,-16.2,41,11,48.3,102.94,Mainly Clear
1577,2012-03-06 17:00:00,48.96,-4.8,-15.1,44,6,48.3,102.9,Mainly Clear
1578,2012-03-06 18:00:00,46.26,-6.3,-14.6,52,6,48.3,102.84,Mainly Clear
1579,2012-03-06 19:00:00,47.88,-5.4,-13.4,53,11,25.0,102.81,Mostly Cloudy
1580,2012-03-06 20:00:00,48.06,-5.3,-13.6,52,9,25.0,102.72,Mainly Clear
1581,2012-03-06 21:00:00,47.88,-5.4,-14.4,49,9,25.0,102.69,Mostly Cloudy
1582,2012-03-06 22:00:00,48.6,-5.0,-15.1,45,9,25.0,102.59,Mostly Cloudy
1583,2012-03-06 23:00:00,49.5,-4.5,-15.7,41,6,25.0,102.55,Mostly Cloudy
1584,2012-03-07 00:00:00,51.12,-3.6,-13.3,47,6,25.0,102.44,Mostly Cloudy
1585,2012-03-07 01:00:00,50.580000000000005,-3.9,-11.3,56,9,25.0,102.46,Mostly Cloudy
1586,2012-03-07 02:00:00,47.34,-5.7,-11.9,62,17,25.0,102.37,Cloudy
1587,2012-03-07 03:00:00,48.06,-5.3,-11.6,61,13,25.0,102.22,Cloudy
1588,2012-03-07 04:00:00,48.24,-5.2,-11.2,63,15,25.0,102.16,Cloudy
1589,2012-03-07 05:00:00,48.06,-5.3,-11.2,63,17,25.0,102.13,Mostly Cloudy
1590,2012-03-07 06:00:00,49.86,-4.3,-10.3,63,15,24.1,101.98,Cloudy
1591,2012-03-07 07:00:00,50.580000000000005,-3.9,-9.2,67,11,48.3,101.92,Cloudy
1592,2012-03-07 08:00:00,49.32,-4.6,-9.5,69,11,48.3,101.91,Mostly Cloudy
1593,2012-03-07 09:00:00,53.1,-2.5,-7.7,67,11,24.1,101.85,Clear
1594,2012-03-07 10:00:00,57.42,-0.1,-6.5,62,6,24.1,101.76,Clear
1595,2012-03-07 11:00:00,63.0,3.0,-4.7,57,6,24.1,101.67,Mainly Clear
1596,2012-03-07 12:00:00,69.12,6.4,-3.6,49,4,24.1,101.58,Mainly Clear
1597,2012-03-07 13:00:00,73.62,8.9,-4.4,39,13,24.1,101.49,Mainly Clear
1598,2012-03-07 14:00:00,74.34,9.3,-4.1,39,13,24.1,101.41,Mainly Clear
1599,2012-03-07 15:00:00,75.06,9.7,-2.7,42,13,24.1,101.36,Mainly Clear
1600,2012-03-07 16:00:00,78.12,11.4,-2.3,38,15,24.1,101.31,Mostly Cloudy
1601,2012-03-07 17:00:00,75.42,9.9,-1.9,44,9,24.1,101.25,Mostly Cloudy
1602,2012-03-07 18:00:00,67.5,5.5,-1.6,60,7,24.1,101.25,Mainly Clear
1603,2012-03-07 19:00:00,68.4,6.0,-1.8,57,11,25.0,101.22,Mostly Cloudy
1604,2012-03-07 20:00:00,71.28,7.6,-2.1,50,20,25.0,101.18,Mostly Cloudy
1605,2012-03-07 21:00:00,69.84,6.8,-2.1,53,22,25.0,101.16,Mostly Cloudy
1606,2012-03-07 22:00:00,68.4,6.0,-1.7,58,17,25.0,101.12,Cloudy
1607,2012-03-07 23:00:00,66.24,4.8,-1.7,63,15,25.0,101.05,Cloudy
1608,2012-03-08 00:00:00,68.76,6.2,-1.5,58,20,25.0,100.98,Cloudy
1609,2012-03-08 01:00:00,67.5,5.5,-1.4,61,11,25.0,100.92,Cloudy
1610,2012-03-08 02:00:00,71.82,7.9,-1.2,53,17,25.0,100.81,Mostly Cloudy
1611,2012-03-08 03:00:00,75.78,10.1,-0.9,46,24,25.0,100.69,Mostly Cloudy
1612,2012-03-08 04:00:00,75.60000000000001,10.0,-0.7,47,28,25.0,100.64,Mostly Cloudy
1613,2012-03-08 05:00:00,67.86000000000001,5.7,-0.8,63,19,25.0,100.57,Mostly Cloudy
1614,2012-03-08 06:00:00,71.28,7.6,-0.4,57,19,24.1,100.52,Cloudy
1615,2012-03-08 07:00:00,76.14,10.3,0.8,52,26,48.3,100.47,Cloudy
1616,2012-03-08 08:00:00,69.66000000000001,6.7,0.2,63,19,48.3,100.39,Cloudy
1617,2012-03-08 09:00:00,75.96000000000001,10.2,1.6,55,26,48.3,100.29,Cloudy
1618,2012-03-08 10:00:00,79.38000000000001,12.1,2.9,53,30,24.1,100.22,Cloudy
1619,2012-03-08 11:00:00,80.46000000000001,12.7,3.8,55,26,24.1,100.13,Cloudy
1620,2012-03-08 12:00:00,78.66000000000001,11.7,4.0,59,20,24.1,100.08,Rain
1621,2012-03-08 13:00:00,78.3,11.5,5.2,65,20,24.1,99.99,Cloudy
1622,2012-03-08 14:00:00,78.66000000000001,11.7,5.9,68,26,24.1,99.88,Cloudy
1623,2012-03-08 15:00:00,78.66000000000001,11.7,6.6,71,37,19.3,99.82,Rain
1624,2012-03-08 16:00:00,78.48,11.6,6.4,70,32,24.1,99.75,Rain
1625,2012-03-08 17:00:00,77.94,11.3,6.9,74,37,19.3,99.66,Rain
1626,2012-03-08 18:00:00,76.5,10.5,7.8,83,46,6.4,99.64,Rain
1627,2012-03-08 19:00:00,68.58,6.1,3.2,82,30,16.1,99.78,Rain
1628,2012-03-08 20:00:00,66.60000000000001,5.0,1.6,79,41,25.0,99.9,Rain
1629,2012-03-08 21:00:00,64.26,3.7,1.0,82,41,12.9,100.04,Rain
1630,2012-03-08 22:00:00,61.2,2.0,-0.5,83,46,9.7,100.13,"Rain,Fog"
1631,2012-03-08 23:00:00,59.04,0.8,-1.4,85,35,2.4,100.25,Snow
1632,2012-03-09 00:00:00,57.42,-0.1,-2.0,87,28,2.8,100.33,Snow
1633,2012-03-09 01:00:00,57.6,0.0,-3.7,76,22,25.0,100.41,Mostly Cloudy
1634,2012-03-09 02:00:00,55.440000000000005,-1.2,-6.6,67,20,25.0,100.62,Mainly Clear
1635,2012-03-09 03:00:00,52.92,-2.6,-8.5,64,24,25.0,100.81,Mainly Clear
1636,2012-03-09 04:00:00,50.580000000000005,-3.9,-8.7,69,11,25.0,100.97,Mainly Clear
1637,2012-03-09 05:00:00,50.580000000000005,-3.9,-9.1,67,20,25.0,101.13,Mainly Clear
1638,2012-03-09 06:00:00,49.86,-4.3,-9.0,70,15,25.0,101.26,Mainly Clear
1639,2012-03-09 07:00:00,48.6,-5.0,-9.7,70,15,24.1,101.31,Clear
1640,2012-03-09 08:00:00,49.14,-4.7,-10.2,65,15,24.1,101.41,Clear
1641,2012-03-09 09:00:00,50.4,-4.0,-9.5,66,20,24.1,101.46,Clear
1642,2012-03-09 10:00:00,50.940000000000005,-3.7,-10.1,61,19,48.3,101.48,Mainly Clear
1643,2012-03-09 11:00:00,52.2,-3.0,-10.0,58,17,48.3,101.47,Mainly Clear
1644,2012-03-09 12:00:00,53.82,-2.1,-8.5,62,20,48.3,101.44,Mainly Clear
1645,2012-03-09 13:00:00,54.9,-1.5,-8.8,57,15,48.3,101.42,Mainly Clear
1646,2012-03-09 14:00:00,55.800000000000004,-1.0,-7.6,61,19,48.3,101.43,Mainly Clear
1647,2012-03-09 15:00:00,55.62,-1.1,-7.9,60,17,48.3,101.45,Mostly Cloudy
1648,2012-03-09 16:00:00,56.34,-0.7,-8.4,56,11,48.3,101.44,Mostly Cloudy
1649,2012-03-09 17:00:00,55.980000000000004,-0.9,-7.9,59,7,48.3,101.47,Mostly Cloudy
1650,2012-03-09 18:00:00,54.0,-2.0,-8.7,60,7,25.0,101.52,Mainly Clear
1651,2012-03-09 19:00:00,52.92,-2.6,-8.2,65,4,25.0,101.57,Mostly Cloudy
1652,2012-03-09 20:00:00,54.0,-2.0,-9.0,59,4,25.0,101.61,Mostly Cloudy
1653,2012-03-09 21:00:00,54.18000000000001,-1.9,-8.6,60,6,25.0,101.63,Mostly Cloudy
1654,2012-03-09 22:00:00,53.64,-2.2,-8.9,60,7,25.0,101.64,Mostly Cloudy
1655,2012-03-09 23:00:00,52.92,-2.6,-8.6,63,6,25.0,101.68,Cloudy
1656,2012-03-10 00:00:00,53.64,-2.2,-8.7,61,4,25.0,101.77,Cloudy
1657,2012-03-10 01:00:00,52.74,-2.7,-8.6,64,15,25.0,101.89,Cloudy
1658,2012-03-10 02:00:00,50.76,-3.8,-10.6,59,19,25.0,102.01,Cloudy
1659,2012-03-10 03:00:00,50.22,-4.1,-12.7,51,24,25.0,102.1,Cloudy
1660,2012-03-10 04:00:00,47.34,-5.7,-13.1,56,26,25.0,102.27,Mainly Clear
1661,2012-03-10 05:00:00,46.080000000000005,-6.4,-14.0,55,20,25.0,102.42,Mainly Clear
1662,2012-03-10 06:00:00,45.36,-6.8,-14.1,56,26,24.1,102.6,Mostly Cloudy
1663,2012-03-10 07:00:00,44.82,-7.1,-14.6,55,20,48.3,102.73,Mainly Clear
1664,2012-03-10 08:00:00,45.36,-6.8,-14.6,54,19,48.3,102.84,Mainly Clear
1665,2012-03-10 09:00:00,46.26,-6.3,-14.1,54,15,48.3,102.95,Mostly Cloudy
1666,2012-03-10 10:00:00,46.62,-6.1,-14.5,51,6,48.3,103.01,Mainly Clear
1667,2012-03-10 11:00:00,50.4,-4.0,-13.2,49,0,48.3,103.02,Mainly Clear
1668,2012-03-10 12:00:00,50.22,-4.1,-12.1,54,7,48.3,102.99,Clear
1669,2012-03-10 13:00:00,51.84,-3.2,-11.3,53,7,48.3,102.89,Mainly Clear
1670,2012-03-10 14:00:00,52.92,-2.6,-11.1,52,15,48.3,102.84,Mostly Cloudy
1671,2012-03-10 15:00:00,52.74,-2.7,-10.2,56,11,48.3,102.75,Mostly Cloudy
1672,2012-03-10 16:00:00,54.36,-1.8,-10.3,52,13,48.3,102.71,Mainly Clear
1673,2012-03-10 17:00:00,54.72,-1.6,-10.0,53,17,48.3,102.68,Mainly Clear
1674,2012-03-10 18:00:00,53.82,-2.1,-10.1,54,9,25.0,102.66,Mainly Clear
1675,2012-03-10 19:00:00,54.18000000000001,-1.9,-9.4,56,9,25.0,102.67,Mainly Clear
1676,2012-03-10 20:00:00,53.46,-2.3,-8.0,65,11,25.0,102.6,Mostly Cloudy
1677,2012-03-10 21:00:00,53.46,-2.3,-8.1,64,11,25.0,102.54,Mostly Cloudy
1678,2012-03-10 22:00:00,54.0,-2.0,-7.1,68,11,25.0,102.5,Snow Showers
1679,2012-03-10 23:00:00,54.54,-1.7,-7.1,67,7,25.0,102.45,Cloudy
1680,2012-03-11 00:00:00,52.019999999999996,-3.1,-7.2,73,7,25.0,102.36,Mainly Clear
1681,2012-03-11 01:00:00,51.84,-3.2,-6.9,76,7,25.0,102.28,Mainly Clear
1682,2012-03-11 02:00:00,52.019999999999996,-3.1,-7.1,74,7,25.0,102.18,Mainly Clear
1683,2012-03-11 03:00:00,53.64,-2.2,-7.0,70,17,25.0,102.05,Cloudy
1684,2012-03-11 04:00:00,54.54,-1.7,-6.9,68,13,25.0,102.02,Cloudy
1685,2012-03-11 05:00:00,53.82,-2.1,-7.0,69,11,25.0,101.98,Mainly Clear
1686,2012-03-11 06:00:00,54.9,-1.5,-6.7,68,7,48.3,101.98,Cloudy
1687,2012-03-11 07:00:00,54.36,-1.8,-6.9,68,11,48.3,101.97,Clear
1688,2012-03-11 08:00:00,57.78,0.1,-6.2,63,7,48.3,102.0,Clear
1689,2012-03-11 09:00:00,62.46000000000001,2.7,-5.9,53,7,48.3,101.98,Mainly Clear
1690,2012-03-11 10:00:00,64.44,3.8,-5.7,50,13,48.3,101.97,Clear
1691,2012-03-11 11:00:00,68.22,5.9,-4.2,48,11,48.3,101.92,Clear
1692,2012-03-11 12:00:00,69.84,6.8,-3.2,49,24,48.3,101.86,Clear
1693,2012-03-11 13:00:00,73.8,9.0,-1.9,46,20,48.3,101.79,Clear
1694,2012-03-11 14:00:00,74.7,9.5,-1.6,46,24,48.3,101.74,Clear
1695,2012-03-11 15:00:00,76.5,10.5,-1.3,44,20,48.3,101.69,Clear
1696,2012-03-11 16:00:00,77.22,10.9,-0.7,45,15,48.3,101.65,Clear
1697,2012-03-11 17:00:00,76.86000000000001,10.7,-0.6,45,11,48.3,101.65,Clear
1698,2012-03-11 18:00:00,73.98,9.1,-1.0,49,7,25.0,101.68,Clear
1699,2012-03-11 19:00:00,70.92,7.4,-1.2,54,6,25.0,101.69,Clear
1700,2012-03-11 20:00:00,66.24,4.8,-1.5,64,9,48.3,101.7,Clear
1701,2012-03-11 21:00:00,66.24,4.8,-1.6,63,13,25.0,101.72,Mainly Clear
1702,2012-03-11 22:00:00,66.96000000000001,5.2,-1.9,60,6,25.0,101.72,Clear
1703,2012-03-11 23:00:00,68.58,6.1,-2.0,56,7,25.0,101.75,Clear
1704,2012-03-12 00:00:00,68.4,6.0,-1.8,57,20,25.0,101.77,Clear
1705,2012-03-12 01:00:00,66.96000000000001,5.2,-1.8,61,17,25.0,101.77,Mainly Clear
1706,2012-03-12 02:00:00,65.88000000000001,4.6,-2.1,62,9,25.0,101.77,Mainly Clear
1707,2012-03-12 03:00:00,60.300000000000004,1.5,-2.8,73,11,25.0,101.78,Mainly Clear
1708,2012-03-12 04:00:00,60.839999999999996,1.8,-2.6,73,4,25.0,101.8,Mainly Clear
1709,2012-03-12 05:00:00,61.739999999999995,2.3,-1.9,74,9,25.0,101.82,Clear
1710,2012-03-12 06:00:00,63.18000000000001,3.1,-1.8,70,11,48.3,101.89,Clear
1711,2012-03-12 07:00:00,62.28,2.6,-2.3,70,4,48.3,101.98,Mainly Clear
1712,2012-03-12 08:00:00,65.52,4.4,-1.0,68,6,48.3,102.03,Mainly Clear
1713,2012-03-12 09:00:00,69.3,6.5,-0.2,62,0,48.3,102.03,Mostly Cloudy
1714,2012-03-12 10:00:00,72.53999999999999,8.3,0.2,57,9,24.1,102.0,Cloudy
1715,2012-03-12 11:00:00,76.68,10.6,0.3,49,6,24.1,101.99,Cloudy
1716,2012-03-12 12:00:00,77.03999999999999,10.8,0.4,49,9,48.3,101.94,Mostly Cloudy
1717,2012-03-12 13:00:00,78.48,11.6,0.6,47,13,48.3,101.84,Mostly Cloudy
1718,2012-03-12 14:00:00,79.74,12.3,1.4,47,6,48.3,101.79,Mostly Cloudy
1719,2012-03-12 15:00:00,79.92,12.4,0.6,44,4,48.3,101.71,Cloudy
1720,2012-03-12 16:00:00,78.84,11.8,1.2,48,4,25.0,101.64,Cloudy
1721,2012-03-12 17:00:00,78.48,11.6,1.0,48,6,24.1,101.57,Cloudy
1722,2012-03-12 18:00:00,73.8,9.0,1.1,58,13,25.0,101.54,Cloudy
1723,2012-03-12 19:00:00,73.26,8.7,1.1,59,13,25.0,101.5,Cloudy
1724,2012-03-12 20:00:00,74.16000000000001,9.2,1.4,58,13,25.0,101.44,Cloudy
1725,2012-03-12 21:00:00,72.72,8.4,1.0,60,13,25.0,101.39,Mostly Cloudy
1726,2012-03-12 22:00:00,71.82,7.9,0.7,60,11,25.0,101.35,Mostly Cloudy
1727,2012-03-12 23:00:00,69.48,6.6,-0.3,61,11,25.0,101.22,Mostly Cloudy
1728,2012-03-13 00:00:00,71.10000000000001,7.5,-0.7,56,13,25.0,101.11,Mostly Cloudy
1729,2012-03-13 01:00:00,66.78,5.1,-0.9,65,13,25.0,101.07,Rain Showers
1730,2012-03-13 02:00:00,66.24,4.8,-1.0,66,6,25.0,101.05,Rain Showers
1731,2012-03-13 03:00:00,65.88000000000001,4.6,-0.2,71,15,25.0,100.87,Cloudy
1732,2012-03-13 04:00:00,69.3,6.5,1.1,68,7,25.0,100.74,Cloudy
1733,2012-03-13 05:00:00,68.03999999999999,5.8,1.1,72,6,25.0,100.71,Cloudy
1734,2012-03-13 06:00:00,70.92,7.4,1.8,68,9,19.3,100.6,Cloudy
1735,2012-03-13 07:00:00,64.8,4.0,1.0,81,11,9.7,100.61,"Rain,Haze"
1736,2012-03-13 08:00:00,67.5,5.5,2.9,83,7,6.4,100.5,"Rain,Haze"
1737,2012-03-13 09:00:00,65.52,4.4,2.3,86,17,4.0,100.51,"Rain,Haze"
1738,2012-03-13 10:00:00,63.9,3.5,1.5,87,11,2.4,100.54,"Drizzle,Fog"
1739,2012-03-13 11:00:00,63.9,3.5,1.6,87,11,4.8,100.57,"Drizzle,Fog"
1740,2012-03-13 12:00:00,64.62,3.9,2.2,89,9,4.8,100.64,Fog
1741,2012-03-13 13:00:00,66.42,4.9,3.0,87,7,6.4,100.63,Fog
1742,2012-03-13 14:00:00,69.3,6.5,4.5,87,7,6.4,100.61,Fog
1743,2012-03-13 15:00:00,67.14,5.3,3.3,87,11,8.0,100.63,Fog
1744,2012-03-13 16:00:00,67.5,5.5,2.8,83,11,8.0,100.67,Haze
1745,2012-03-13 17:00:00,66.42,4.9,2.2,83,17,8.0,100.68,Haze
1746,2012-03-13 18:00:00,64.8,4.0,1.5,84,13,8.0,100.73,Haze
1747,2012-03-13 19:00:00,63.18000000000001,3.1,0.9,85,17,6.4,100.79,"Drizzle,Fog"
1748,2012-03-13 20:00:00,62.28,2.6,0.3,85,17,6.4,100.77,Haze
1749,2012-03-13 21:00:00,59.580000000000005,1.1,-1.0,86,20,4.8,100.87,"Rain,Fog"
1750,2012-03-13 22:00:00,60.12,1.4,-0.7,86,6,6.4,100.93,Haze
1751,2012-03-13 23:00:00,59.580000000000005,1.1,-0.9,86,9,4.8,100.98,Haze
1752,2012-03-14 00:00:00,58.86000000000001,0.7,-1.0,88,7,3.2,101.02,Fog
1753,2012-03-14 01:00:00,58.86000000000001,0.7,-0.9,89,7,1.0,101.06,Fog
1754,2012-03-14 02:00:00,58.68000000000001,0.6,-1.0,89,7,0.8,101.05,Fog
1755,2012-03-14 03:00:00,59.04,0.8,-0.3,92,6,0.6,101.06,Fog
1756,2012-03-14 04:00:00,59.04,0.8,-0.6,90,4,0.6,101.13,Fog
1757,2012-03-14 05:00:00,58.86000000000001,0.7,-0.9,89,6,0.6,101.23,Fog
1758,2012-03-14 06:00:00,58.68000000000001,0.6,-0.9,90,7,0.6,101.28,Fog
1759,2012-03-14 07:00:00,59.04,0.8,-0.4,92,6,2.4,101.36,Fog
1760,2012-03-14 08:00:00,59.580000000000005,1.1,-0.1,92,6,3.2,101.46,"Rain,Fog"
1761,2012-03-14 09:00:00,60.480000000000004,1.6,0.4,92,7,4.8,101.51,"Rain,Fog"
1762,2012-03-14 10:00:00,59.580000000000005,1.1,0.5,96,7,2.4,101.57,"Snow,Fog"
1763,2012-03-14 11:00:00,58.32,0.4,0.1,98,6,1.6,101.6,"Snow,Fog"
1764,2012-03-14 12:00:00,59.4,1.0,0.8,99,4,2.0,101.65,"Snow,Fog"
1765,2012-03-14 13:00:00,61.38,2.1,1.8,98,4,4.8,101.67,"Rain,Fog"
1766,2012-03-14 14:00:00,61.56000000000001,2.2,1.8,97,7,8.0,101.7,"Drizzle,Fog"
1767,2012-03-14 15:00:00,60.660000000000004,1.7,1.3,97,13,4.8,101.77,"Drizzle,Fog"
1768,2012-03-14 16:00:00,60.300000000000004,1.5,1.2,98,13,8.0,101.82,"Drizzle,Fog"
1769,2012-03-14 17:00:00,59.4,1.0,0.6,97,15,9.7,101.89,Fog
1770,2012-03-14 18:00:00,58.5,0.5,0.1,97,17,9.7,101.99,"Drizzle,Fog"
1771,2012-03-14 19:00:00,58.13999999999999,0.3,-0.2,96,15,8.0,102.07,"Snow,Fog"
1772,2012-03-14 20:00:00,57.96000000000001,0.2,-0.5,95,15,12.9,102.13,Cloudy
1773,2012-03-14 21:00:00,57.42,-0.1,-0.9,94,17,12.9,102.17,Cloudy
1774,2012-03-14 22:00:00,57.06,-0.3,-1.3,93,20,12.9,102.18,Cloudy
1775,2012-03-14 23:00:00,56.519999999999996,-0.6,-1.6,93,15,12.9,102.23,Cloudy
1776,2012-03-15 00:00:00,56.519999999999996,-0.6,-1.7,92,19,12.9,102.24,Cloudy
1777,2012-03-15 01:00:00,56.519999999999996,-0.6,-1.7,92,19,12.9,102.27,Cloudy
1778,2012-03-15 02:00:00,56.88,-0.4,-1.5,92,13,12.9,102.29,Cloudy
1779,2012-03-15 03:00:00,57.06,-0.3,-1.5,92,11,12.9,102.25,Cloudy
1780,2012-03-15 04:00:00,57.24,-0.2,-1.3,92,17,12.9,102.26,Cloudy
1781,2012-03-15 05:00:00,57.06,-0.3,-1.5,92,15,12.9,102.34,Cloudy
1782,2012-03-15 06:00:00,57.06,-0.3,-1.6,91,20,16.1,102.36,Cloudy
1783,2012-03-15 07:00:00,56.7,-0.5,-1.9,90,13,16.1,102.4,Cloudy
1784,2012-03-15 08:00:00,56.7,-0.5,-2.1,89,17,19.3,102.42,Cloudy
1785,2012-03-15 09:00:00,57.06,-0.3,-2.0,88,20,16.1,102.39,Cloudy
1786,2012-03-15 10:00:00,58.32,0.4,-1.6,86,22,19.3,102.31,Cloudy
1787,2012-03-15 11:00:00,59.580000000000005,1.1,-1.3,84,19,24.1,102.23,Cloudy
1788,2012-03-15 12:00:00,61.56000000000001,2.2,-0.7,81,19,24.1,102.18,Cloudy
1789,2012-03-15 13:00:00,63.72,3.4,0.0,78,22,24.1,102.12,Cloudy
1790,2012-03-15 14:00:00,63.72,3.4,-0.1,78,22,24.1,102.05,Cloudy
1791,2012-03-15 15:00:00,64.8,4.0,0.6,78,24,24.1,102.0,Mostly Cloudy
1792,2012-03-15 16:00:00,63.9,3.5,0.1,78,20,24.1,101.99,Mostly Cloudy
1793,2012-03-15 17:00:00,63.0,3.0,-0.3,79,26,24.1,101.98,Mostly Cloudy
1794,2012-03-15 18:00:00,62.28,2.6,-0.3,81,22,24.1,101.98,Rain Showers
1795,2012-03-15 19:00:00,61.92,2.4,-0.4,82,28,25.0,101.88,Mostly Cloudy
1796,2012-03-15 20:00:00,61.739999999999995,2.3,-0.2,84,24,25.0,101.86,Mostly Cloudy
1797,2012-03-15 21:00:00,61.2,2.0,0.4,89,28,25.0,101.8,Rain Showers
1798,2012-03-15 22:00:00,61.38,2.1,0.5,89,20,25.0,101.77,Mostly Cloudy
1799,2012-03-15 23:00:00,60.839999999999996,1.8,0.2,89,19,25.0,101.7,Mostly Cloudy
1800,2012-03-16 00:00:00,60.839999999999996,1.8,0.4,90,19,25.0,101.67,Cloudy
1801,2012-03-16 01:00:00,61.019999999999996,1.9,0.6,91,15,25.0,101.54,Rain Showers
1802,2012-03-16 02:00:00,59.580000000000005,1.1,0.2,94,17,12.9,101.56,Rain
1803,2012-03-16 03:00:00,59.580000000000005,1.1,0.5,96,19,6.4,101.46,Rain
1804,2012-03-16 04:00:00,59.4,1.0,0.5,96,17,4.8,101.39,Rain
1805,2012-03-16 05:00:00,58.86000000000001,0.7,0.3,97,20,4.8,101.36,Rain
1806,2012-03-16 06:00:00,58.68000000000001,0.6,0.2,97,24,6.4,101.39,"Rain,Fog"
1807,2012-03-16 07:00:00,59.580000000000005,1.1,0.6,96,19,4.8,101.37,"Rain,Fog"
1808,2012-03-16 08:00:00,59.580000000000005,1.1,0.7,97,15,4.0,101.38,"Rain,Fog"
1809,2012-03-16 09:00:00,59.580000000000005,1.1,0.7,97,17,4.0,101.41,"Rain,Fog"
1810,2012-03-16 10:00:00,60.300000000000004,1.5,1.1,97,13,4.8,101.41,"Rain,Fog"
1811,2012-03-16 11:00:00,60.839999999999996,1.8,1.3,96,13,8.0,101.4,"Rain,Fog"
1812,2012-03-16 12:00:00,62.1,2.5,2.0,96,6,8.0,101.42,Fog
1813,2012-03-16 13:00:00,63.54,3.3,2.8,97,6,9.7,101.38,Fog
1814,2012-03-16 14:00:00,64.8,4.0,3.2,95,11,9.7,101.4,Fog
1815,2012-03-16 15:00:00,64.26,3.7,3.2,97,7,6.4,101.48,Fog
1816,2012-03-16 16:00:00,65.34,4.3,3.5,95,4,8.0,101.53,Fog
1817,2012-03-16 17:00:00,64.98,4.1,3.2,94,7,8.0,101.61,Fog
1818,2012-03-16 18:00:00,64.44,3.8,3.2,96,7,4.8,101.71,"Drizzle,Fog"
1819,2012-03-16 19:00:00,64.44,3.8,3.2,96,0,3.2,101.77,"Drizzle,Fog"
1820,2012-03-16 20:00:00,64.26,3.7,3.3,97,0,2.0,101.93,"Drizzle,Fog"
1821,2012-03-16 21:00:00,64.8,4.0,3.7,98,7,3.2,101.93,"Drizzle,Fog"
1822,2012-03-16 22:00:00,64.44,3.8,3.4,97,0,6.4,102.04,"Drizzle,Fog"
1823,2012-03-16 23:00:00,64.26,3.7,3.3,97,0,3.2,102.07,"Drizzle,Fog"
1824,2012-03-17 00:00:00,64.44,3.8,3.5,98,4,1.6,102.05,"Drizzle,Fog"
1825,2012-03-17 01:00:00,63.0,3.0,2.7,98,6,0.6,102.05,Fog
1826,2012-03-17 02:00:00,62.46000000000001,2.7,2.5,99,4,0.2,102.09,Fog
1827,2012-03-17 03:00:00,60.839999999999996,1.8,1.6,99,4,0.2,102.1,Fog
1828,2012-03-17 04:00:00,58.13999999999999,0.3,0.1,99,0,0.2,102.15,Fog
1829,2012-03-17 05:00:00,57.42,-0.1,-0.3,99,0,0.8,102.2,Freezing Fog
1830,2012-03-17 06:00:00,57.42,-0.1,-0.4,98,4,0.2,102.26,Freezing Fog
1831,2012-03-17 07:00:00,58.5,0.5,0.4,99,0,0.2,102.34,Fog
1832,2012-03-17 08:00:00,59.4,1.0,0.9,99,0,0.2,102.39,Fog
1833,2012-03-17 09:00:00,60.480000000000004,1.6,1.5,99,4,0.2,102.38,Fog
1834,2012-03-17 10:00:00,62.28,2.6,2.6,100,0,0.2,102.37,Fog
1835,2012-03-17 11:00:00,64.98,4.1,3.8,98,4,0.6,102.34,Fog
1836,2012-03-17 12:00:00,67.86000000000001,5.7,5.3,97,4,9.7,102.32,Fog
1837,2012-03-17 13:00:00,72.18,8.1,6.2,88,7,16.1,102.18,Cloudy
1838,2012-03-17 14:00:00,74.16000000000001,9.2,4.3,71,7,24.1,102.13,Cloudy
1839,2012-03-17 15:00:00,75.96000000000001,10.2,4.4,67,6,24.1,102.07,Cloudy
1840,2012-03-17 16:00:00,76.5,10.5,4.1,65,7,48.3,102.02,Cloudy
1841,2012-03-17 17:00:00,75.78,10.1,4.7,69,9,48.3,101.97,Cloudy
1842,2012-03-17 18:00:00,75.78,10.1,5.4,73,7,48.3,101.95,Cloudy
1843,2012-03-17 19:00:00,75.24,9.8,5.9,77,6,25.0,101.93,Cloudy
1844,2012-03-17 20:00:00,74.34,9.3,5.2,76,0,25.0,101.92,Cloudy
1845,2012-03-17 21:00:00,73.44,8.8,5.5,80,4,25.0,101.8,Mostly Cloudy
1846,2012-03-17 22:00:00,71.46000000000001,7.7,4.9,82,0,25.0,101.77,Mainly Clear
1847,2012-03-17 23:00:00,69.66000000000001,6.7,4.7,87,7,25.0,101.78,Mainly Clear
1848,2012-03-18 00:00:00,64.44,3.8,2.8,93,4,25.0,101.75,Mainly Clear
1849,2012-03-18 01:00:00,66.96000000000001,5.2,3.5,89,0,25.0,101.74,Mostly Cloudy
1850,2012-03-18 02:00:00,65.34,4.3,3.0,91,6,25.0,101.71,Mainly Clear
1851,2012-03-18 03:00:00,64.62,3.9,2.4,90,7,25.0,101.66,Clear
1852,2012-03-18 04:00:00,63.36000000000001,3.2,2.3,94,6,25.0,101.69,Clear
1853,2012-03-18 05:00:00,63.9,3.5,2.4,92,6,25.0,101.7,Clear
1854,2012-03-18 06:00:00,64.08,3.6,2.6,93,7,24.1,101.72,Clear
1855,2012-03-18 07:00:00,66.78,5.1,3.7,91,4,48.3,101.78,Mainly Clear
1856,2012-03-18 08:00:00,73.44,8.8,5.8,81,11,48.3,101.79,Mainly Clear
1857,2012-03-18 09:00:00,76.32,10.4,6.6,77,11,48.3,101.81,Mainly Clear
1858,2012-03-18 10:00:00,79.02,11.9,6.7,70,13,48.3,101.78,Mainly Clear
1859,2012-03-18 11:00:00,82.98,14.1,7.6,65,13,48.3,101.71,Clear
1860,2012-03-18 12:00:00,88.74,17.3,8.7,57,11,48.3,101.63,Clear
1861,2012-03-18 13:00:00,93.60000000000001,20.0,9.9,52,15,48.3,101.55,Mainly Clear
1862,2012-03-18 14:00:00,96.66000000000001,21.7,10.5,49,13,48.3,101.45,Mainly Clear
1863,2012-03-18 15:00:00,97.56,22.2,10.4,47,15,48.3,101.39,Mainly Clear
1864,2012-03-18 16:00:00,98.46000000000001,22.7,10.7,47,11,48.3,101.35,Mainly Clear
1865,2012-03-18 17:00:00,96.84,21.8,11.0,50,6,48.3,101.32,Mostly Cloudy
1866,2012-03-18 18:00:00,90.72,18.4,10.1,58,9,48.3,101.32,Mostly Cloudy
1867,2012-03-18 19:00:00,88.38000000000001,17.1,9.8,62,0,25.0,101.3,Mainly Clear
1868,2012-03-18 20:00:00,80.64,12.8,8.6,76,7,25.0,101.34,Clear
1869,2012-03-18 21:00:00,81.72,13.4,9.2,76,4,25.0,101.37,Mainly Clear
1870,2012-03-18 22:00:00,80.28,12.6,8.9,78,7,25.0,101.39,Mainly Clear
1871,2012-03-18 23:00:00,76.68,10.6,7.9,83,6,25.0,101.37,Mainly Clear
1872,2012-03-19 00:00:00,75.24,9.8,7.6,86,6,25.0,101.37,Mainly Clear
1873,2012-03-19 01:00:00,77.03999999999999,10.8,8.5,86,6,25.0,101.39,Clear
1874,2012-03-19 02:00:00,76.68,10.6,8.6,87,4,25.0,101.42,Clear
1875,2012-03-19 03:00:00,75.96000000000001,10.2,8.3,88,11,25.0,101.42,Clear
1876,2012-03-19 04:00:00,77.76,11.2,9.0,86,6,25.0,101.49,Clear
1877,2012-03-19 05:00:00,75.06,9.7,8.1,90,7,25.0,101.5,Clear
1878,2012-03-19 06:00:00,77.94,11.3,9.4,88,4,24.1,101.56,Mainly Clear
1879,2012-03-19 07:00:00,75.42,9.9,8.5,91,0,12.9,101.59,Mostly Cloudy
1880,2012-03-19 08:00:00,79.02,11.9,9.9,88,7,12.9,101.67,Mostly Cloudy
1881,2012-03-19 09:00:00,82.62,13.9,10.5,80,6,12.9,101.71,Mainly Clear
1882,2012-03-19 10:00:00,85.68,15.6,11.0,74,6,16.1,101.75,Mainly Clear
1883,2012-03-19 11:00:00,89.64,17.8,11.6,67,4,16.1,101.75,Mainly Clear
1884,2012-03-19 12:00:00,93.24,19.8,12.0,61,4,19.3,101.75,Mainly Clear
1885,2012-03-19 13:00:00,90.9,18.5,11.0,62,19,19.3,101.72,Mainly Clear
1886,2012-03-19 14:00:00,88.2,17.0,9.9,63,15,24.1,101.72,Mainly Clear
1887,2012-03-19 15:00:00,86.94,16.3,10.0,66,17,24.1,101.71,Mainly Clear
1888,2012-03-19 16:00:00,87.48,16.6,9.7,64,11,24.1,101.66,Mainly Clear
1889,2012-03-19 17:00:00,86.22,15.9,9.1,64,13,24.1,101.66,Mainly Clear
1890,2012-03-19 18:00:00,82.62,13.9,7.9,67,19,24.1,101.67,Mainly Clear
1891,2012-03-19 19:00:00,80.10000000000001,12.5,6.7,68,15,25.0,101.71,Mainly Clear
1892,2012-03-19 20:00:00,76.68,10.6,5.4,70,13,25.0,101.8,Mainly Clear
1893,2012-03-19 21:00:00,74.7,9.5,4.1,69,15,25.0,101.8,Clear
1894,2012-03-19 22:00:00,73.44,8.8,2.7,66,17,25.0,101.83,Clear
1895,2012-03-19 23:00:00,70.56,7.2,1.8,69,9,25.0,101.86,Clear
1896,2012-03-20 00:00:00,70.38000000000001,7.1,1.0,65,11,25.0,101.85,Clear
1897,2012-03-20 01:00:00,68.58,6.1,0.7,68,11,25.0,101.85,Clear
1898,2012-03-20 02:00:00,67.86000000000001,5.7,0.4,69,11,25.0,101.85,Clear
1899,2012-03-20 03:00:00,66.96000000000001,5.2,0.2,70,7,25.0,101.86,Clear
1900,2012-03-20 04:00:00,66.96000000000001,5.2,-0.2,68,4,25.0,101.88,Clear
1901,2012-03-20 05:00:00,66.60000000000001,5.0,-0.3,69,7,25.0,101.92,Clear
1902,2012-03-20 06:00:00,63.36000000000001,3.2,-0.6,76,4,24.1,101.97,Clear
1903,2012-03-20 07:00:00,67.5,5.5,-0.1,67,4,24.1,102.0,Clear
1904,2012-03-20 08:00:00,72.0,8.0,0.6,60,6,24.1,102.08,Clear
1905,2012-03-20 09:00:00,76.68,10.6,1.3,53,0,19.3,102.09,Mainly Clear
1906,2012-03-20 10:00:00,80.28,12.6,2.6,50,4,24.1,102.07,Mainly Clear
1907,2012-03-20 11:00:00,84.42,14.9,4.0,48,6,24.1,102.02,Clear
1908,2012-03-20 12:00:00,87.3,16.5,6.7,52,9,24.1,101.98,Clear
1909,2012-03-20 13:00:00,93.60000000000001,20.0,10.8,55,13,24.1,101.93,Clear
1910,2012-03-20 14:00:00,96.3,21.5,11.8,54,11,24.1,101.83,Clear
1911,2012-03-20 15:00:00,98.10000000000001,22.5,12.3,52,9,24.1,101.78,Clear
1912,2012-03-20 16:00:00,99.53999999999999,23.3,12.1,49,7,24.1,101.73,Clear
1913,2012-03-20 17:00:00,97.2,22.0,12.1,53,7,24.1,101.72,Clear
1914,2012-03-20 18:00:00,93.06,19.7,11.7,60,4,24.1,101.74,Clear
1915,2012-03-20 19:00:00,89.10000000000001,17.5,10.9,65,6,25.0,101.79,Clear
1916,2012-03-20 20:00:00,90.18,18.1,11.6,66,4,25.0,101.85,Clear
1917,2012-03-20 21:00:00,86.4,16.0,10.9,72,6,25.0,101.89,Clear
1918,2012-03-20 22:00:00,83.16000000000001,14.2,10.3,77,4,25.0,101.9,Clear
1919,2012-03-20 23:00:00,83.34,14.3,10.7,79,6,25.0,101.91,Clear
1920,2012-03-21 00:00:00,82.8,14.0,11.0,82,9,25.0,101.9,Clear
1921,2012-03-21 01:00:00,79.92,12.4,10.5,88,4,25.0,101.92,Clear
1922,2012-03-21 02:00:00,78.84,11.8,10.3,91,6,25.0,101.93,Clear
1923,2012-03-21 03:00:00,78.12,11.4,9.8,90,4,25.0,101.93,Clear
1924,2012-03-21 04:00:00,76.68,10.6,9.1,90,0,25.0,101.95,Clear
1925,2012-03-21 05:00:00,75.60000000000001,10.0,8.8,92,0,25.0,102.02,Clear
1926,2012-03-21 06:00:00,74.7,9.5,8.6,94,4,9.7,102.07,Fog
1927,2012-03-21 07:00:00,77.94,11.3,9.9,91,4,9.7,102.1,Fog
1928,2012-03-21 08:00:00,82.44,13.8,11.5,86,9,12.9,102.15,Clear
1929,2012-03-21 09:00:00,86.22,15.9,11.8,77,7,19.3,102.17,Clear
1930,2012-03-21 10:00:00,90.36000000000001,18.2,12.5,69,13,24.1,102.09,Clear
1931,2012-03-21 11:00:00,93.96000000000001,20.2,12.3,60,15,24.1,102.01,Clear
1932,2012-03-21 12:00:00,97.74,22.3,12.6,54,15,24.1,101.94,Clear
1933,2012-03-21 13:00:00,100.44,23.8,12.1,48,17,24.1,101.85,Clear
1934,2012-03-21 14:00:00,102.06,24.7,12.1,45,13,24.1,101.77,Clear
1935,2012-03-21 15:00:00,103.32,25.4,12.0,43,17,48.3,101.72,Clear
1936,2012-03-21 16:00:00,103.5,25.5,11.0,40,17,48.3,101.69,Clear
1937,2012-03-21 17:00:00,102.96000000000001,25.2,10.7,40,13,48.3,101.68,Clear
1938,2012-03-21 18:00:00,94.86000000000001,20.7,9.7,49,9,48.3,101.67,Clear
1939,2012-03-21 19:00:00,88.56,17.2,9.1,59,6,25.0,101.67,Clear
1940,2012-03-21 20:00:00,90.72,18.4,8.9,54,7,25.0,101.7,Clear
1941,2012-03-21 21:00:00,87.12,16.4,9.7,65,13,25.0,101.68,Clear
1942,2012-03-21 22:00:00,90.0,18.0,10.5,62,7,25.0,101.66,Clear
1943,2012-03-21 23:00:00,87.3,16.5,9.5,63,7,25.0,101.66,Clear
1944,2012-03-22 00:00:00,88.2,17.0,9.1,60,13,25.0,101.63,Clear
1945,2012-03-22 01:00:00,85.5,15.5,8.7,64,11,25.0,101.62,Clear
1946,2012-03-22 02:00:00,84.60000000000001,15.0,8.7,66,7,25.0,101.59,Clear
1947,2012-03-22 03:00:00,77.4,11.0,7.4,78,9,25.0,101.56,Clear
1948,2012-03-22 04:00:00,81.36000000000001,13.2,8.4,73,6,25.0,101.54,Clear
1949,2012-03-22 05:00:00,80.64,12.8,8.5,75,13,25.0,101.59,Clear
1950,2012-03-22 06:00:00,82.26,13.7,9.0,73,15,48.3,101.57,Mostly Cloudy
1951,2012-03-22 07:00:00,83.16000000000001,14.2,9.5,73,22,24.1,101.55,Mainly Clear
1952,2012-03-22 08:00:00,85.32,15.4,9.9,70,15,24.1,101.55,Mainly Clear
1953,2012-03-22 09:00:00,88.74,17.3,10.4,64,22,24.1,101.53,Mainly Clear
1954,2012-03-22 10:00:00,92.88000000000001,19.6,11.4,59,17,24.1,101.57,Mainly Clear
1955,2012-03-22 11:00:00,94.32,20.4,11.9,58,15,24.1,101.52,Mainly Clear
1956,2012-03-22 12:00:00,99.0,23.0,12.0,50,20,24.1,101.5,Mostly Cloudy
1957,2012-03-22 13:00:00,99.53999999999999,23.3,12.1,49,19,24.1,101.43,Mostly Cloudy
1958,2012-03-22 14:00:00,98.64,22.8,12.6,53,17,24.1,101.4,Cloudy
1959,2012-03-22 15:00:00,96.12,21.4,12.8,58,6,24.1,101.38,Cloudy
1960,2012-03-22 16:00:00,97.56,22.2,12.3,53,13,24.1,101.33,Mostly Cloudy
1961,2012-03-22 17:00:00,93.60000000000001,20.0,12.2,61,11,24.1,101.39,Mostly Cloudy
1962,2012-03-22 18:00:00,90.36000000000001,18.2,11.5,65,19,24.1,101.48,Rain Showers
1963,2012-03-22 19:00:00,87.66000000000001,16.7,9.4,62,13,25.0,101.52,Rain Showers
1964,2012-03-22 20:00:00,84.78,15.1,8.5,65,11,25.0,101.58,Mainly Clear
1965,2012-03-22 21:00:00,79.38000000000001,12.1,7.4,73,7,25.0,101.59,Mainly Clear
1966,2012-03-22 22:00:00,77.4,11.0,6.8,75,7,25.0,101.61,Mainly Clear
1967,2012-03-22 23:00:00,77.94,11.3,7.2,76,6,25.0,101.62,Clear
1968,2012-03-23 00:00:00,76.32,10.4,7.1,80,7,25.0,101.67,Mainly Clear
1969,2012-03-23 01:00:00,76.14,10.3,7.5,83,0,25.0,101.7,Mainly Clear
1970,2012-03-23 02:00:00,73.62,8.9,6.5,85,9,25.0,101.71,Mainly Clear
1971,2012-03-23 03:00:00,73.44,8.8,6.4,85,9,25.0,101.72,Mainly Clear
1972,2012-03-23 04:00:00,74.16000000000001,9.2,6.3,82,7,25.0,101.76,Clear
1973,2012-03-23 05:00:00,72.0,8.0,5.2,82,9,25.0,101.85,Clear
1974,2012-03-23 06:00:00,69.48,6.6,2.9,77,7,25.0,101.9,Clear
1975,2012-03-23 07:00:00,72.72,8.4,3.0,69,0,48.3,101.93,Clear
1976,2012-03-23 08:00:00,77.94,11.3,1.8,52,0,48.3,101.93,Clear
1977,2012-03-23 09:00:00,80.64,12.8,2.3,49,4,48.3,101.94,Clear
1978,2012-03-23 10:00:00,83.7,14.5,0.1,37,17,48.3,101.93,Clear
1979,2012-03-23 11:00:00,84.42,14.9,-3.0,29,15,48.3,101.87,Clear
1980,2012-03-23 12:00:00,86.76,16.2,-2.5,28,11,48.3,101.81,Mainly Clear
1981,2012-03-23 13:00:00,87.84,16.8,-2.3,27,7,48.3,101.71,Mostly Cloudy
1982,2012-03-23 14:00:00,87.48,16.6,-6.8,19,15,48.3,101.66,Mostly Cloudy
1983,2012-03-23 15:00:00,87.12,16.4,-6.8,20,15,48.3,101.63,Mostly Cloudy
1984,2012-03-23 16:00:00,85.5,15.5,-9.0,18,22,48.3,101.6,Cloudy
1985,2012-03-23 17:00:00,84.06,14.7,-5.1,25,13,48.3,101.62,Cloudy
1986,2012-03-23 18:00:00,81.72,13.4,-5.8,26,13,48.3,101.64,Cloudy
1987,2012-03-23 19:00:00,78.84,11.8,-5.5,29,11,25.0,101.68,Mostly Cloudy
1988,2012-03-23 20:00:00,77.22,10.9,-5.9,30,6,25.0,101.72,Cloudy
1989,2012-03-23 21:00:00,77.03999999999999,10.8,-8.0,26,15,25.0,101.7,Mostly Cloudy
1990,2012-03-23 22:00:00,76.68,10.6,-8.9,24,19,25.0,101.73,Cloudy
1991,2012-03-23 23:00:00,75.42,9.9,-8.7,26,19,25.0,101.78,Mostly Cloudy
1992,2012-03-24 00:00:00,72.72,8.4,-9.1,28,22,25.0,101.8,Mostly Cloudy
1993,2012-03-24 01:00:00,70.74,7.3,-9.4,29,20,25.0,101.85,Mainly Clear
1994,2012-03-24 02:00:00,68.76,6.2,-10.6,29,19,25.0,101.86,Mostly Cloudy
1995,2012-03-24 03:00:00,67.14,5.3,-9.4,34,22,25.0,101.86,Mostly Cloudy
1996,2012-03-24 04:00:00,65.52,4.4,-8.9,37,13,25.0,101.88,Cloudy
1997,2012-03-24 05:00:00,64.08,3.6,-8.5,41,19,25.0,101.89,Cloudy
1998,2012-03-24 06:00:00,63.36000000000001,3.2,-8.8,41,19,24.1,101.93,Cloudy
1999,2012-03-24 07:00:00,63.18000000000001,3.1,-9.3,40,15,24.1,101.97,Cloudy
2000,2012-03-24 08:00:00,62.46000000000001,2.7,-9.4,40,19,24.1,101.98,Cloudy
2001,2012-03-24 09:00:00,63.0,3.0,-11.2,34,22,48.3,101.94,Cloudy
2002,2012-03-24 10:00:00,64.26,3.7,-9.5,37,22,48.3,101.89,Cloudy
2003,2012-03-24 11:00:00,64.26,3.7,-11.1,33,22,48.3,101.86,Cloudy
2004,2012-03-24 12:00:00,66.24,4.8,-10.3,33,19,48.3,101.8,Cloudy
2005,2012-03-24 13:00:00,66.06,4.7,-10.9,31,19,48.3,101.74,Cloudy
2006,2012-03-24 14:00:00,68.58,6.1,-8.7,34,9,48.3,101.68,Cloudy
2007,2012-03-24 15:00:00,68.03999999999999,5.8,-9.8,32,4,48.3,101.61,Cloudy
2008,2012-03-24 16:00:00,68.58,6.1,-9.5,32,7,48.3,101.53,Cloudy
2009,2012-03-24 17:00:00,68.58,6.1,-10.3,30,13,48.3,101.47,Cloudy
2010,2012-03-24 18:00:00,68.58,6.1,-9.9,31,13,48.3,101.46,Cloudy
2011,2012-03-24 19:00:00,68.76,6.2,-8.4,34,13,25.0,101.38,Cloudy
2012,2012-03-24 20:00:00,68.94,6.3,-7.4,37,9,25.0,101.35,Cloudy
2013,2012-03-24 21:00:00,69.48,6.6,-8.1,34,9,25.0,101.28,Cloudy
2014,2012-03-24 22:00:00,69.48,6.6,-7.8,35,11,25.0,101.22,Cloudy
2015,2012-03-24 23:00:00,69.3,6.5,-7.2,37,7,25.0,101.15,Rain Showers
2016,2012-03-25 00:00:00,68.03999999999999,5.8,-5.7,43,20,25.0,101.05,Rain
2017,2012-03-25 01:00:00,68.22,5.9,-6.2,41,13,25.0,101.03,Cloudy
2018,2012-03-25 02:00:00,68.22,5.9,-5.0,45,9,25.0,100.91,Rain Showers
2019,2012-03-25 03:00:00,68.03999999999999,5.8,-4.2,49,7,25.0,100.84,Cloudy
2020,2012-03-25 04:00:00,67.14,5.3,-4.3,50,19,25.0,100.79,Cloudy
2021,2012-03-25 05:00:00,65.7,4.5,-2.9,59,11,25.0,100.73,Cloudy
2022,2012-03-25 06:00:00,64.44,3.8,-0.9,71,15,24.1,100.76,Rain Showers
2023,2012-03-25 07:00:00,62.1,2.5,0.9,89,17,24.1,100.76,Rain
2024,2012-03-25 08:00:00,63.0,3.0,1.5,90,6,24.1,100.74,Rain
2025,2012-03-25 09:00:00,63.18000000000001,3.1,2.0,92,0,6.4,100.71,"Rain,Fog"
2026,2012-03-25 10:00:00,64.62,3.9,2.7,92,0,12.9,100.66,Cloudy
2027,2012-03-25 11:00:00,66.96000000000001,5.2,3.6,89,6,16.1,100.58,Cloudy
2028,2012-03-25 12:00:00,68.22,5.9,3.7,86,6,24.1,100.54,Cloudy
2029,2012-03-25 13:00:00,69.48,6.6,4.0,83,6,24.1,100.47,Cloudy
2030,2012-03-25 14:00:00,71.10000000000001,7.5,4.1,79,11,24.1,100.39,Cloudy
2031,2012-03-25 15:00:00,71.28,7.6,4.6,81,9,24.1,100.29,Mostly Cloudy
2032,2012-03-25 16:00:00,72.72,8.4,4.8,78,9,24.1,100.27,Cloudy
2033,2012-03-25 17:00:00,74.16000000000001,9.2,5.3,77,7,24.1,100.26,Cloudy
2034,2012-03-25 18:00:00,73.62,8.9,5.7,80,7,24.1,100.28,Mostly Cloudy
2035,2012-03-25 19:00:00,73.26,8.7,5.2,79,4,25.0,100.25,Mainly Clear
2036,2012-03-25 20:00:00,70.74,7.3,4.9,85,7,25.0,100.22,Mostly Cloudy
2037,2012-03-25 21:00:00,72.36000000000001,8.2,5.7,84,13,25.0,100.21,Mainly Clear
2038,2012-03-25 22:00:00,71.10000000000001,7.5,5.5,87,11,25.0,100.17,Mainly Clear
2039,2012-03-25 23:00:00,69.12,6.4,4.8,89,11,25.0,100.12,Mostly Cloudy
2040,2012-03-26 00:00:00,70.74,7.3,3.7,78,24,25.0,100.19,Rain Showers
2041,2012-03-26 01:00:00,65.88000000000001,4.6,-1.9,63,33,25.0,100.29,Rain Showers
2042,2012-03-26 02:00:00,62.28,2.6,-3.7,63,26,25.0,100.4,Cloudy
2043,2012-03-26 03:00:00,59.04,0.8,-8.9,48,26,25.0,100.6,Mostly Cloudy
2044,2012-03-26 04:00:00,55.62,-1.1,-10.4,49,22,25.0,100.74,Clear
2045,2012-03-26 05:00:00,54.18000000000001,-1.9,-10.9,50,20,25.0,100.86,Clear
2046,2012-03-26 06:00:00,50.76,-3.8,-13.4,47,32,24.1,101.03,Clear
2047,2012-03-26 07:00:00,50.76,-3.8,-13.6,46,26,48.3,101.19,Mainly Clear
2048,2012-03-26 08:00:00,50.4,-4.0,-12.6,51,26,48.3,101.27,Mostly Cloudy
2049,2012-03-26 09:00:00,52.2,-3.0,-13.1,46,22,48.3,101.33,Mainly Clear
2050,2012-03-26 10:00:00,53.82,-2.1,-13.0,43,26,48.3,101.32,Mainly Clear
2051,2012-03-26 11:00:00,56.519999999999996,-0.6,-11.4,44,28,48.3,101.3,Mainly Clear
2052,2012-03-26 12:00:00,57.96000000000001,0.2,-11.4,41,30,48.3,101.28,Mainly Clear
2053,2012-03-26 13:00:00,58.68000000000001,0.6,-12.6,36,28,48.3,101.26,Mainly Clear
2054,2012-03-26 14:00:00,59.94,1.3,-13.3,33,28,48.3,101.24,Mainly Clear
2055,2012-03-26 15:00:00,60.12,1.4,-14.8,29,30,48.3,101.26,Mainly Clear
2056,2012-03-26 16:00:00,59.94,1.3,-15.7,27,30,48.3,101.29,Clear
2057,2012-03-26 17:00:00,59.760000000000005,1.2,-16.3,26,32,48.3,101.34,Clear
2058,2012-03-26 18:00:00,57.78,0.1,-17.3,26,24,48.3,101.43,Clear
2059,2012-03-26 19:00:00,56.34,-0.7,-18.0,26,28,25.0,101.56,Clear
2060,2012-03-26 20:00:00,55.080000000000005,-1.4,-18.7,25,28,25.0,101.68,Clear
2061,2012-03-26 21:00:00,53.46,-2.3,-18.4,28,24,25.0,101.79,Clear
2062,2012-03-26 22:00:00,52.38,-2.9,-17.8,31,28,25.0,101.84,Clear
2063,2012-03-26 23:00:00,51.12,-3.6,-17.4,33,26,25.0,101.9,Clear
2064,2012-03-27 00:00:00,49.86,-4.3,-17.6,35,22,25.0,101.94,Clear
2065,2012-03-27 01:00:00,48.6,-5.0,-17.7,36,19,25.0,101.96,Clear
2066,2012-03-27 02:00:00,47.88,-5.4,-16.8,40,17,25.0,102.02,Clear
2067,2012-03-27 03:00:00,46.800000000000004,-6.0,-17.0,41,17,25.0,102.06,Clear
2068,2012-03-27 04:00:00,45.9,-6.5,-17.3,42,13,25.0,102.14,Clear
2069,2012-03-27 05:00:00,44.28,-7.4,-16.4,49,11,25.0,102.24,Clear
2070,2012-03-27 06:00:00,44.1,-7.5,-16.4,49,9,48.3,102.31,Clear
2071,2012-03-27 07:00:00,46.62,-6.1,-17.7,39,9,48.3,102.39,Clear
2072,2012-03-27 08:00:00,48.42,-5.1,-18.7,34,13,48.3,102.41,Clear
2073,2012-03-27 09:00:00,49.86,-4.3,-20.3,27,9,48.3,102.44,Clear
2074,2012-03-27 10:00:00,53.1,-2.5,-21.7,21,0,48.3,102.48,Clear
2075,2012-03-27 11:00:00,54.72,-1.6,-20.6,22,6,48.3,102.43,Clear
2076,2012-03-27 12:00:00,57.96000000000001,0.2,-16.7,27,9,48.3,102.31,Clear
2077,2012-03-27 13:00:00,59.4,1.0,-16.1,27,6,48.3,102.2,Mainly Clear
2078,2012-03-27 14:00:00,60.660000000000004,1.7,-18.4,21,13,48.3,102.06,Mainly Clear
2079,2012-03-27 15:00:00,61.38,2.1,-16.5,24,15,48.3,101.98,Mainly Clear
2080,2012-03-27 16:00:00,62.46000000000001,2.7,-13.0,30,17,48.3,101.93,Mostly Cloudy
2081,2012-03-27 17:00:00,62.46000000000001,2.7,-12.3,32,19,48.3,101.88,Mostly Cloudy
2082,2012-03-27 18:00:00,62.28,2.6,-11.9,33,15,48.3,101.79,Mostly Cloudy
2083,2012-03-27 19:00:00,62.63999999999999,2.8,-11.7,33,11,25.0,101.74,Mostly Cloudy
2084,2012-03-27 20:00:00,62.28,2.6,-11.4,35,13,25.0,101.68,Cloudy
2085,2012-03-27 21:00:00,61.38,2.1,-10.7,38,9,25.0,101.67,Cloudy
2086,2012-03-27 22:00:00,59.4,1.0,-10.1,43,20,25.0,101.47,Cloudy
2087,2012-03-27 23:00:00,59.4,1.0,-10.8,41,13,25.0,101.44,Cloudy
2088,2012-03-28 00:00:00,59.4,1.0,-10.8,41,6,16.1,101.58,Snow
2089,2012-03-28 01:00:00,55.62,-1.1,-4.5,78,11,16.1,101.39,Snow
2090,2012-03-28 02:00:00,55.800000000000004,-1.0,-4.8,75,13,9.7,101.28,Snow
2091,2012-03-28 03:00:00,54.72,-1.6,-4.1,83,20,25.0,101.08,Snow
2092,2012-03-28 04:00:00,54.9,-1.5,-3.8,84,20,25.0,100.88,Snow
2093,2012-03-28 05:00:00,55.800000000000004,-1.0,-3.9,81,19,25.0,100.68,Cloudy
2094,2012-03-28 06:00:00,57.06,-0.3,-3.5,79,20,24.1,100.51,Snow
2095,2012-03-28 07:00:00,58.5,0.5,-2.7,79,22,24.1,100.4,Snow
2096,2012-03-28 08:00:00,59.04,0.8,-2.9,76,19,8.0,100.25,"Snow,Ice Pellets"
2097,2012-03-28 09:00:00,61.38,2.1,-3.3,67,15,48.3,100.08,Cloudy
2098,2012-03-28 10:00:00,61.739999999999995,2.3,-3.3,66,11,48.3,99.94,Cloudy
2099,2012-03-28 11:00:00,62.63999999999999,2.8,-2.1,70,13,48.3,99.74,Cloudy
2100,2012-03-28 12:00:00,64.44,3.8,-3.2,60,7,48.3,99.64,Cloudy
2101,2012-03-28 13:00:00,65.34,4.3,-2.9,59,9,48.3,99.51,Cloudy
2102,2012-03-28 14:00:00,65.52,4.4,-1.2,67,13,24.1,99.45,Rain
2103,2012-03-28 15:00:00,62.1,2.5,0.6,87,19,19.3,99.42,Rain
2104,2012-03-28 16:00:00,61.56000000000001,2.2,0.7,90,20,12.9,99.48,Rain
2105,2012-03-28 17:00:00,60.300000000000004,1.5,0.2,91,19,16.1,99.53,Drizzle
2106,2012-03-28 18:00:00,59.94,1.3,-0.2,90,13,16.1,99.63,Drizzle
2107,2012-03-28 19:00:00,59.94,1.3,-0.2,90,11,12.9,99.74,Cloudy
2108,2012-03-28 20:00:00,59.760000000000005,1.2,-0.3,90,13,9.7,99.86,Fog
2109,2012-03-28 21:00:00,59.4,1.0,-0.5,90,15,9.7,99.92,Fog
2110,2012-03-28 22:00:00,59.4,1.0,-0.7,88,13,9.7,99.95,Fog
2111,2012-03-28 23:00:00,59.04,0.8,-1.0,88,17,11.3,99.99,Cloudy
2112,2012-03-29 00:00:00,58.68000000000001,0.6,-1.2,88,15,12.9,100.05,Cloudy
2113,2012-03-29 01:00:00,58.5,0.5,-1.5,86,11,12.9,100.12,Cloudy
2114,2012-03-29 02:00:00,58.32,0.4,-1.8,85,17,25.0,100.15,Cloudy
2115,2012-03-29 03:00:00,58.5,0.5,-1.9,84,11,25.0,100.19,Cloudy
2116,2012-03-29 04:00:00,58.68000000000001,0.6,-2.1,82,11,25.0,100.27,Cloudy
2117,2012-03-29 05:00:00,58.68000000000001,0.6,-2.1,82,9,25.0,100.35,Snow
2118,2012-03-29 06:00:00,58.86000000000001,0.7,-1.9,83,6,24.1,100.44,Snow
2119,2012-03-29 07:00:00,59.04,0.8,-1.6,84,7,24.1,100.52,Snow
2120,2012-03-29 08:00:00,60.300000000000004,1.5,-1.1,83,6,16.1,100.59,Snow
2121,2012-03-29 09:00:00,62.1,2.5,-1.2,77,9,24.1,100.64,Snow
2122,2012-03-29 10:00:00,63.36000000000001,3.2,-2.4,67,13,24.1,100.7,Cloudy
2123,2012-03-29 11:00:00,64.08,3.6,-2.2,66,9,24.1,100.71,Cloudy
2124,2012-03-29 12:00:00,64.62,3.9,-2.2,64,6,24.1,100.71,Cloudy
2125,2012-03-29 13:00:00,65.16000000000001,4.2,-2.5,62,13,24.1,100.72,Cloudy
2126,2012-03-29 14:00:00,64.8,4.0,-2.8,61,15,24.1,100.76,Cloudy
2127,2012-03-29 15:00:00,64.98,4.1,-3.5,58,19,24.1,100.81,Cloudy
2128,2012-03-29 16:00:00,64.62,3.9,-2.8,62,13,24.1,100.87,Cloudy
2129,2012-03-29 17:00:00,63.9,3.5,-4.1,57,24,24.1,100.92,Cloudy
2130,2012-03-29 18:00:00,63.72,3.4,-5.6,52,20,24.1,100.97,Mostly Cloudy
2131,2012-03-29 19:00:00,62.82,2.9,-5.6,54,19,25.0,101.01,Cloudy
2132,2012-03-29 20:00:00,61.56000000000001,2.2,-4.7,60,19,25.0,101.07,Cloudy
2133,2012-03-29 21:00:00,61.019999999999996,1.9,-6.3,55,24,25.0,101.11,Mostly Cloudy
2134,2012-03-29 22:00:00,60.12,1.4,-7.4,52,17,25.0,101.14,Mostly Cloudy
2135,2012-03-29 23:00:00,59.04,0.8,-8.2,51,24,25.0,101.17,Mostly Cloudy
2136,2012-03-30 00:00:00,57.78,0.1,-9.1,50,19,25.0,101.18,Mostly Cloudy
2137,2012-03-30 01:00:00,55.800000000000004,-1.0,-9.8,51,20,25.0,101.21,Mainly Clear
2138,2012-03-30 02:00:00,53.64,-2.2,-9.7,56,15,25.0,101.22,Clear
2139,2012-03-30 03:00:00,51.300000000000004,-3.5,-11.4,54,19,25.0,101.25,Mainly Clear
2140,2012-03-30 04:00:00,49.86,-4.3,-10.8,60,4,25.0,101.33,Mainly Clear
2141,2012-03-30 05:00:00,48.42,-5.1,-10.4,66,11,24.1,101.32,Clear
2142,2012-03-30 06:00:00,48.96,-4.8,-10.8,63,13,48.3,101.39,Clear
2143,2012-03-30 07:00:00,49.86,-4.3,-10.9,60,15,48.3,101.52,Clear
2144,2012-03-30 08:00:00,52.2,-3.0,-10.4,57,11,48.3,101.56,Clear
2145,2012-03-30 09:00:00,54.0,-2.0,-10.1,54,13,48.3,101.63,Clear
2146,2012-03-30 10:00:00,56.16,-0.8,-9.5,52,9,48.3,101.62,Clear
2147,2012-03-30 11:00:00,59.22,0.9,-9.6,45,4,48.3,101.57,Mostly Cloudy
2148,2012-03-30 12:00:00,60.480000000000004,1.6,-8.0,49,17,48.3,101.52,Mainly Clear
2149,2012-03-30 13:00:00,63.18000000000001,3.1,-9.1,40,6,48.3,101.38,Mainly Clear
2150,2012-03-30 14:00:00,65.52,4.4,-8.8,38,17,48.3,101.3,Mainly Clear
2151,2012-03-30 15:00:00,66.24,4.8,-8.9,36,17,48.3,101.26,Mostly Cloudy
2152,2012-03-30 16:00:00,66.24,4.8,-9.3,35,15,48.3,101.26,Mostly Cloudy
2153,2012-03-30 17:00:00,65.52,4.4,-8.6,38,15,48.3,101.24,Mostly Cloudy
2154,2012-03-30 18:00:00,64.62,3.9,-7.9,42,11,24.1,101.26,Mostly Cloudy
2155,2012-03-30 19:00:00,63.18000000000001,3.1,-6.7,49,7,25.0,101.29,Mostly Cloudy
2156,2012-03-30 20:00:00,63.0,3.0,-8.4,43,7,25.0,101.3,Mostly Cloudy
2157,2012-03-30 21:00:00,60.660000000000004,1.7,-9.0,45,4,25.0,101.32,Cloudy
2158,2012-03-30 22:00:00,58.32,0.4,-8.1,53,0,25.0,101.3,Mostly Cloudy
2159,2012-03-30 23:00:00,60.12,1.4,-7.7,51,6,25.0,101.34,Mainly Clear
2160,2012-03-31 00:00:00,60.300000000000004,1.5,-8.6,47,13,25.0,101.33,Mostly Cloudy
2161,2012-03-31 01:00:00,59.94,1.3,-9.6,44,13,25.0,101.31,Mostly Cloudy
2162,2012-03-31 02:00:00,59.94,1.3,-9.7,44,11,25.0,101.29,Cloudy
2163,2012-03-31 03:00:00,58.86000000000001,0.7,-8.8,49,13,25.0,101.3,Cloudy
2164,2012-03-31 04:00:00,55.980000000000004,-0.9,-8.5,56,13,25.0,101.32,Cloudy
2165,2012-03-31 05:00:00,56.519999999999996,-0.6,-9.2,52,13,25.0,101.3,Cloudy
2166,2012-03-31 06:00:00,56.7,-0.5,-9.2,52,15,48.3,101.32,Cloudy
2167,2012-03-31 07:00:00,57.06,-0.3,-9.2,51,19,48.3,101.32,Cloudy
2168,2012-03-31 08:00:00,58.86000000000001,0.7,-8.5,50,17,48.3,101.33,Cloudy
2169,2012-03-31 09:00:00,60.300000000000004,1.5,-7.8,50,17,48.3,101.34,Mostly Cloudy
2170,2012-03-31 10:00:00,62.82,2.9,-8.1,44,15,48.3,101.3,Mainly Clear
2171,2012-03-31 11:00:00,65.88000000000001,4.6,-9.7,35,7,48.3,101.24,Clear
2172,2012-03-31 12:00:00,69.12,6.4,-7.1,37,11,48.3,101.16,Clear
2173,2012-03-31 13:00:00,69.3,6.5,-9.7,30,9,48.3,101.08,Clear
2174,2012-03-31 14:00:00,71.46000000000001,7.7,-8.5,31,4,48.3,101.01,Mainly Clear
2175,2012-03-31 15:00:00,71.46000000000001,7.7,-8.6,30,6,48.3,100.94,Mainly Clear
2176,2012-03-31 16:00:00,72.72,8.4,-7.7,31,4,48.3,100.89,Mainly Clear
2177,2012-03-31 17:00:00,71.82,7.9,-8.1,31,6,48.3,100.88,Mainly Clear
2178,2012-03-31 18:00:00,70.2,7.0,-8.2,33,7,48.3,100.87,Mainly Clear
2179,2012-03-31 19:00:00,68.22,5.9,-8.0,36,4,25.0,100.88,Clear
2180,2012-03-31 20:00:00,65.52,4.4,-7.2,43,9,25.0,100.85,Clear
2181,2012-03-31 21:00:00,62.28,2.6,-6.3,52,7,25.0,100.86,Clear
2182,2012-03-31 22:00:00,62.46000000000001,2.7,-6.7,50,0,25.0,100.82,Clear
2183,2012-03-31 23:00:00,60.300000000000004,1.5,-6.9,54,0,25.0,100.79,Clear
2184,2012-04-01 00:00:00,58.32,0.4,-6.6,59,0,25.0,100.75,Clear
2185,2012-04-01 01:00:00,54.9,-1.5,-7.3,65,4,25.0,100.77,Clear
2186,2012-04-01 02:00:00,57.78,0.1,-6.9,59,0,25.0,100.7,Clear
2187,2012-04-01 03:00:00,55.800000000000004,-1.0,-6.2,68,0,25.0,100.67,Clear
2188,2012-04-01 04:00:00,55.800000000000004,-1.0,-5.3,73,0,25.0,100.66,Mainly Clear
2189,2012-04-01 05:00:00,56.88,-0.4,-4.5,74,4,25.0,100.65,Mostly Cloudy
2190,2012-04-01 06:00:00,58.5,0.5,-3.2,76,6,48.3,100.62,Cloudy
2191,2012-04-01 07:00:00,59.760000000000005,1.2,-3.6,70,6,48.3,100.6,Cloudy
2192,2012-04-01 08:00:00,63.36000000000001,3.2,-4.5,57,11,48.3,100.53,Cloudy
2193,2012-04-01 09:00:00,64.26,3.7,-3.9,58,9,48.3,100.49,Cloudy
2194,2012-04-01 10:00:00,64.98,4.1,-2.8,61,7,48.3,100.46,Cloudy
2195,2012-04-01 11:00:00,66.24,4.8,-0.3,70,4,24.1,100.43,Rain Showers
2196,2012-04-01 12:00:00,68.03999999999999,5.8,0.2,67,0,24.1,100.35,Rain
2197,2012-04-01 13:00:00,68.22,5.9,0.0,66,7,24.1,100.24,Rain
2198,2012-04-01 14:00:00,66.06,4.7,1.1,77,9,24.1,100.2,Rain
2199,2012-04-01 15:00:00,64.44,3.8,1.5,85,19,24.1,100.14,Rain
2200,2012-04-01 16:00:00,63.0,3.0,0.7,85,17,24.1,100.1,Rain
2201,2012-04-01 17:00:00,62.63999999999999,2.8,0.5,85,22,24.1,100.12,Rain
2202,2012-04-01 18:00:00,62.1,2.5,0.3,85,11,24.1,100.11,Rain
2203,2012-04-01 19:00:00,62.28,2.6,0.2,84,0,25.0,100.14,Rain
2204,2012-04-01 20:00:00,62.28,2.6,0.2,84,11,19.3,100.18,Rain
2205,2012-04-01 21:00:00,62.28,2.6,0.7,87,13,16.1,100.21,Rain
2206,2012-04-01 22:00:00,62.1,2.5,0.7,88,13,25.0,100.22,Cloudy
2207,2012-04-01 23:00:00,61.2,2.0,0.3,88,7,25.0,100.21,Cloudy
2208,2012-04-02 00:00:00,58.32,0.4,-1.2,89,11,16.1,100.22,Mainly Clear
2209,2012-04-02 01:00:00,57.42,-0.1,-1.4,91,7,9.7,100.27,Fog
2210,2012-04-02 02:00:00,56.88,-0.4,-1.8,90,0,12.9,100.31,Clear
2211,2012-04-02 03:00:00,55.080000000000005,-1.4,-2.8,90,0,8.0,100.33,Fog
2212,2012-04-02 04:00:00,55.440000000000005,-1.2,-2.2,93,4,9.7,100.38,Fog
2213,2012-04-02 05:00:00,54.54,-1.7,-2.5,94,6,25.0,100.47,Clear
2214,2012-04-02 06:00:00,54.36,-1.8,-3.5,88,6,24.1,100.56,Clear
2215,2012-04-02 07:00:00,57.96000000000001,0.2,-2.1,84,6,48.3,100.65,Clear
2216,2012-04-02 08:00:00,61.38,2.1,-4.5,62,13,48.3,100.69,Clear
2217,2012-04-02 09:00:00,63.72,3.4,-7.3,45,22,48.3,100.72,Clear
2218,2012-04-02 10:00:00,65.7,4.5,-8.5,38,28,48.3,100.73,Clear
2219,2012-04-02 11:00:00,65.88000000000001,4.6,-7.8,40,24,48.3,100.72,Clear
2220,2012-04-02 12:00:00,68.76,6.2,-7.8,36,17,48.3,100.65,Clear
2221,2012-04-02 13:00:00,69.66000000000001,6.7,-7.2,36,24,48.3,100.64,Clear
2222,2012-04-02 14:00:00,70.74,7.3,-8.5,32,26,48.3,100.62,Clear
2223,2012-04-02 15:00:00,71.82,7.9,-10.0,27,19,48.3,100.6,Clear
2224,2012-04-02 16:00:00,71.82,7.9,-12.0,23,28,48.3,100.59,Clear
2225,2012-04-02 17:00:00,72.0,8.0,-12.2,22,30,48.3,100.61,Mainly Clear
2226,2012-04-02 18:00:00,70.02,6.9,-13.6,22,19,48.3,100.65,Clear
2227,2012-04-02 19:00:00,66.42,4.9,-12.6,27,13,25.0,100.69,Clear
2228,2012-04-02 20:00:00,63.9,3.5,-13.1,28,13,25.0,100.75,Clear
2229,2012-04-02 21:00:00,63.18000000000001,3.1,-13.0,30,11,25.0,100.78,Clear
2230,2012-04-02 22:00:00,58.68000000000001,0.6,-12.8,36,9,25.0,100.84,Clear
2231,2012-04-02 23:00:00,59.4,1.0,-12.8,35,13,25.0,100.83,Clear
2232,2012-04-03 00:00:00,57.06,-0.3,-11.9,41,6,25.0,100.84,Clear
2233,2012-04-03 01:00:00,55.62,-1.1,-11.4,45,9,25.0,100.86,Clear
2234,2012-04-03 02:00:00,55.980000000000004,-0.9,-13.2,39,6,25.0,100.84,Clear
2235,2012-04-03 03:00:00,52.2,-3.0,-12.0,50,9,25.0,100.87,Clear
2236,2012-04-03 04:00:00,53.82,-2.1,-11.8,47,13,25.0,100.92,Clear
2237,2012-04-03 05:00:00,52.92,-2.6,-12.4,47,6,25.0,100.99,Clear
2238,2012-04-03 06:00:00,54.0,-2.0,-12.4,45,6,48.3,101.03,Clear
2239,2012-04-03 07:00:00,58.13999999999999,0.3,-11.3,41,11,48.3,101.09,Clear
2240,2012-04-03 08:00:00,60.660000000000004,1.7,-11.7,36,19,48.3,101.08,Clear
2241,2012-04-03 09:00:00,62.1,2.5,-11.0,36,15,48.3,101.07,Clear
2242,2012-04-03 10:00:00,65.34,4.3,-10.3,34,17,48.3,100.98,Clear
2243,2012-04-03 11:00:00,69.12,6.4,-9.1,32,11,48.3,100.91,Mainly Clear
2244,2012-04-03 12:00:00,70.38000000000001,7.1,-8.6,32,11,48.3,100.82,Mostly Cloudy
2245,2012-04-03 13:00:00,73.26,8.7,-9.1,27,11,48.3,100.76,Mostly Cloudy
2246,2012-04-03 14:00:00,75.60000000000001,10.0,-8.9,25,13,48.3,100.65,Mostly Cloudy
2247,2012-04-03 15:00:00,77.22,10.9,-9.0,24,24,48.3,100.54,Mainly Clear
2248,2012-04-03 16:00:00,77.03999999999999,10.8,-9.1,24,30,48.3,100.51,Mainly Clear
2249,2012-04-03 17:00:00,75.06,9.7,-9.0,26,28,48.3,100.52,Mostly Cloudy
2250,2012-04-03 18:00:00,73.62,8.9,-9.6,26,20,48.3,100.49,Mostly Cloudy
2251,2012-04-03 19:00:00,72.72,8.4,-9.7,27,13,25.0,100.5,Cloudy
2252,2012-04-03 20:00:00,71.64,7.8,-9.2,29,9,25.0,100.42,Mostly Cloudy
2253,2012-04-03 21:00:00,70.38000000000001,7.1,-8.2,33,7,25.0,100.36,Mostly Cloudy
2254,2012-04-03 22:00:00,70.02,6.9,-8.5,32,11,25.0,100.34,Cloudy
2255,2012-04-03 23:00:00,70.02,6.9,-9.2,31,11,25.0,100.29,Cloudy
2256,2012-04-04 00:00:00,68.4,6.0,-8.2,35,9,25.0,100.22,Mostly Cloudy
2257,2012-04-04 01:00:00,67.68,5.6,-8.6,35,4,25.0,100.2,Cloudy
2258,2012-04-04 02:00:00,68.4,6.0,-7.8,36,9,25.0,100.15,Mostly Cloudy
2259,2012-04-04 03:00:00,67.32,5.4,-4.1,50,11,25.0,100.05,Mostly Cloudy
2260,2012-04-04 04:00:00,66.96000000000001,5.2,-3.6,53,7,25.0,100.01,Mostly Cloudy
2261,2012-04-04 05:00:00,65.88000000000001,4.6,-2.8,59,9,24.1,99.94,Mostly Cloudy
2262,2012-04-04 06:00:00,65.16000000000001,4.2,-3.0,59,11,48.3,99.89,Mostly Cloudy
2263,2012-04-04 07:00:00,66.24,4.8,-4.1,52,17,48.3,99.85,Mostly Cloudy
2264,2012-04-04 08:00:00,67.5,5.5,-5.9,44,20,48.3,99.83,Mostly Cloudy
2265,2012-04-04 09:00:00,69.3,6.5,-6.5,39,28,48.3,99.83,Mostly Cloudy
2266,2012-04-04 10:00:00,73.26,8.7,-3.7,41,30,48.3,99.78,Mainly Clear
2267,2012-04-04 11:00:00,74.34,9.3,-2.6,43,28,48.3,99.75,Mainly Clear
2268,2012-04-04 12:00:00,73.62,8.9,-2.9,43,24,48.3,99.71,Mostly Cloudy
2269,2012-04-04 13:00:00,73.26,8.7,-3.5,42,33,24.1,99.71,Cloudy
2270,2012-04-04 14:00:00,72.9,8.5,-3.4,43,26,24.1,99.72,Cloudy
2271,2012-04-04 15:00:00,72.0,8.0,-3.2,45,26,24.1,99.75,Cloudy
2272,2012-04-04 16:00:00,72.53999999999999,8.3,-3.0,45,20,24.1,99.75,Cloudy
2273,2012-04-04 17:00:00,72.18,8.1,-4.6,40,26,24.1,99.81,Mostly Cloudy
2274,2012-04-04 18:00:00,71.28,7.6,-4.6,42,22,24.1,99.87,Mostly Cloudy
2275,2012-04-04 19:00:00,69.3,6.5,-3.8,48,19,24.1,99.98,Mainly Clear
2276,2012-04-04 20:00:00,68.4,6.0,-3.8,49,19,25.0,100.07,Mostly Cloudy
2277,2012-04-04 21:00:00,66.42,4.9,-4.4,51,19,25.0,100.13,Mostly Cloudy
2278,2012-04-04 22:00:00,64.26,3.7,-4.5,55,19,25.0,100.2,Mostly Cloudy
2279,2012-04-04 23:00:00,64.08,3.6,-4.6,55,19,25.0,100.24,Mostly Cloudy
2280,2012-04-05 00:00:00,63.36000000000001,3.2,-4.9,55,15,25.0,100.34,Mostly Cloudy
2281,2012-04-05 01:00:00,61.739999999999995,2.3,-5.8,55,17,25.0,100.37,Mainly Clear
2282,2012-04-05 02:00:00,61.739999999999995,2.3,-5.9,55,11,25.0,100.4,Mostly Cloudy
2283,2012-04-05 03:00:00,61.019999999999996,1.9,-4.6,62,13,25.0,100.41,Mostly Cloudy
2284,2012-04-05 04:00:00,60.300000000000004,1.5,-5.2,61,17,25.0,100.47,Mostly Cloudy
2285,2012-04-05 05:00:00,60.300000000000004,1.5,-6.7,54,17,25.0,100.51,Mostly Cloudy
2286,2012-04-05 06:00:00,60.300000000000004,1.5,-7.2,52,19,24.1,100.6,Cloudy
2287,2012-04-05 07:00:00,61.739999999999995,2.3,-6.9,51,19,24.1,100.68,Mostly Cloudy
2288,2012-04-05 08:00:00,62.46000000000001,2.7,-6.5,51,20,24.1,100.72,Mostly Cloudy
2289,2012-04-05 09:00:00,64.62,3.9,-6.1,48,22,24.1,100.76,Mostly Cloudy
2290,2012-04-05 10:00:00,65.7,4.5,-7.6,41,17,24.1,100.76,Mostly Cloudy
2291,2012-04-05 11:00:00,66.24,4.8,-7.1,42,26,24.1,100.77,Mostly Cloudy
2292,2012-04-05 12:00:00,66.96000000000001,5.2,-6.6,42,22,24.1,100.74,Mostly Cloudy
2293,2012-04-05 13:00:00,69.48,6.6,-5.3,42,22,24.1,100.73,Mostly Cloudy
2294,2012-04-05 14:00:00,69.66000000000001,6.7,-6.2,39,20,24.1,100.7,Mainly Clear
2295,2012-04-05 15:00:00,71.28,7.6,-5.9,38,19,24.1,100.67,Mainly Clear
2296,2012-04-05 16:00:00,73.62,8.9,-5.7,35,24,48.3,100.65,Mainly Clear
2297,2012-04-05 17:00:00,71.46000000000001,7.7,-6.9,35,24,48.3,100.7,Mainly Clear
2298,2012-04-05 18:00:00,69.48,6.6,-7.0,37,20,48.3,100.75,Mostly Cloudy
2299,2012-04-05 19:00:00,67.68,5.6,-7.7,38,26,25.0,100.82,Mostly Cloudy
2300,2012-04-05 20:00:00,67.14,5.3,-7.9,38,19,25.0,100.87,Mostly Cloudy
2301,2012-04-05 21:00:00,66.42,4.9,-7.7,40,19,25.0,100.88,Mostly Cloudy
2302,2012-04-05 22:00:00,65.52,4.4,-7.4,42,22,25.0,100.89,Mostly Cloudy
2303,2012-04-05 23:00:00,63.9,3.5,-7.8,43,19,25.0,100.93,Mostly Cloudy
2304,2012-04-06 00:00:00,63.0,3.0,-8.2,44,22,25.0,100.97,Mostly Cloudy
2305,2012-04-06 01:00:00,62.63999999999999,2.8,-8.4,43,17,25.0,100.98,Mostly Cloudy
2306,2012-04-06 02:00:00,61.739999999999995,2.3,-8.2,46,22,25.0,101.04,Cloudy
2307,2012-04-06 03:00:00,60.300000000000004,1.5,-8.2,48,19,25.0,101.09,Cloudy
2308,2012-04-06 04:00:00,59.580000000000005,1.1,-8.3,49,17,25.0,101.13,Mostly Cloudy
2309,2012-04-06 05:00:00,57.42,-0.1,-8.7,52,15,24.1,101.17,Mostly Cloudy
2310,2012-04-06 06:00:00,56.7,-0.5,-9.4,51,15,48.3,101.23,Mainly Clear
2311,2012-04-06 07:00:00,58.32,0.4,-8.9,50,15,48.3,101.3,Clear
2312,2012-04-06 08:00:00,59.580000000000005,1.1,-8.8,48,19,48.3,101.34,Clear
2313,2012-04-06 09:00:00,61.38,2.1,-8.4,46,17,48.3,101.37,Clear
2314,2012-04-06 10:00:00,64.62,3.9,-7.9,42,6,48.3,101.35,Mainly Clear
2315,2012-04-06 11:00:00,67.86000000000001,5.7,-7.7,37,19,48.3,101.32,Clear
2316,2012-04-06 12:00:00,69.48,6.6,-8.3,34,20,48.3,101.24,Mainly Clear
2317,2012-04-06 13:00:00,71.28,7.6,-7.7,33,15,48.3,101.18,Clear
2318,2012-04-06 14:00:00,73.08,8.6,-8.5,29,9,48.3,101.13,Mainly Clear
2319,2012-04-06 15:00:00,74.34,9.3,-8.3,28,19,48.3,101.1,Mainly Clear
2320,2012-04-06 16:00:00,72.9,8.5,-9.3,27,28,48.3,101.08,Mostly Cloudy
2321,2012-04-06 17:00:00,71.46000000000001,7.7,-11.0,25,32,48.3,101.11,Mostly Cloudy
2322,2012-04-06 18:00:00,70.74,7.3,-11.6,25,19,25.0,101.16,Mostly Cloudy
2323,2012-04-06 19:00:00,70.74,7.3,-11.7,24,13,25.0,101.21,Mostly Cloudy
2324,2012-04-06 20:00:00,69.66000000000001,6.7,-10.6,28,11,25.0,101.24,Mostly Cloudy
2325,2012-04-06 21:00:00,69.66000000000001,6.7,-10.3,28,9,25.0,101.24,Cloudy
2326,2012-04-06 22:00:00,69.84,6.8,-10.8,27,11,25.0,101.26,Cloudy
2327,2012-04-06 23:00:00,68.58,6.1,-9.9,31,11,25.0,101.27,Cloudy
2328,2012-04-07 00:00:00,67.68,5.6,-9.7,32,11,25.0,101.28,Cloudy
2329,2012-04-07 01:00:00,67.5,5.5,-10.6,30,17,25.0,101.29,Mostly Cloudy
2330,2012-04-07 02:00:00,63.18000000000001,3.1,-10.3,37,7,25.0,101.3,Mostly Cloudy
2331,2012-04-07 03:00:00,61.92,2.4,-10.0,39,11,25.0,101.32,Mainly Clear
2332,2012-04-07 04:00:00,62.1,2.5,-10.2,39,11,25.0,101.35,Mostly Cloudy
2333,2012-04-07 05:00:00,57.96000000000001,0.2,-10.4,45,7,25.0,101.39,Mainly Clear
2334,2012-04-07 06:00:00,60.300000000000004,1.5,-9.3,44,9,48.3,101.46,Mostly Cloudy
2335,2012-04-07 07:00:00,61.92,2.4,-10.1,39,11,48.3,101.5,Mainly Clear
2336,2012-04-07 08:00:00,65.7,4.5,-9.3,36,11,48.3,101.51,Mostly Cloudy
2337,2012-04-07 09:00:00,65.7,4.5,-9.5,35,11,48.3,101.52,Mostly Cloudy
2338,2012-04-07 10:00:00,67.86000000000001,5.7,-8.5,35,17,48.3,101.54,Mostly Cloudy
2339,2012-04-07 11:00:00,68.4,6.0,-9.2,33,13,48.3,101.51,Mostly Cloudy
2340,2012-04-07 12:00:00,69.48,6.6,-8.1,34,11,48.3,101.47,Mostly Cloudy
2341,2012-04-07 13:00:00,69.84,6.8,-7.8,34,9,48.3,101.44,Mostly Cloudy
2342,2012-04-07 14:00:00,71.64,7.8,-7.8,32,9,48.3,101.39,Cloudy
2343,2012-04-07 15:00:00,72.0,8.0,-6.7,35,7,48.3,101.36,Mostly Cloudy
2344,2012-04-07 16:00:00,72.72,8.4,-6.4,34,4,24.1,101.34,Mostly Cloudy
2345,2012-04-07 17:00:00,72.72,8.4,-6.3,35,9,24.1,101.35,Mostly Cloudy
2346,2012-04-07 18:00:00,72.0,8.0,-6.1,36,7,25.0,101.35,Mostly Cloudy
2347,2012-04-07 19:00:00,72.0,8.0,-5.2,39,13,25.0,101.37,Mostly Cloudy
2348,2012-04-07 20:00:00,71.46000000000001,7.7,-5.4,39,15,25.0,101.43,Cloudy
2349,2012-04-07 21:00:00,71.10000000000001,7.5,-5.2,40,17,25.0,101.41,Mostly Cloudy
2350,2012-04-07 22:00:00,68.76,6.2,-5.1,44,15,25.0,101.36,Mostly Cloudy
2351,2012-04-07 23:00:00,68.22,5.9,-5.0,45,11,25.0,101.31,Mostly Cloudy
2352,2012-04-08 00:00:00,68.03999999999999,5.8,-5.2,45,9,25.0,101.24,Cloudy
2353,2012-04-08 01:00:00,66.24,4.8,-4.8,50,7,25.0,101.18,Cloudy
2354,2012-04-08 02:00:00,65.16000000000001,4.2,-4.5,53,4,25.0,101.11,Cloudy
2355,2012-04-08 03:00:00,64.26,3.7,-3.9,58,4,25.0,101.06,Cloudy
2356,2012-04-08 04:00:00,64.26,3.7,-4.4,55,4,25.0,101.0,Cloudy
2357,2012-04-08 05:00:00,64.8,4.0,-4.5,54,7,25.0,100.95,Cloudy
2358,2012-04-08 06:00:00,66.24,4.8,-4.1,52,7,48.3,100.91,Mostly Cloudy
2359,2012-04-08 07:00:00,67.86000000000001,5.7,-4.1,49,11,48.3,100.87,Mostly Cloudy
2360,2012-04-08 08:00:00,69.48,6.6,-3.9,47,13,48.3,100.81,Mostly Cloudy
2361,2012-04-08 09:00:00,70.92,7.4,-3.7,45,19,48.3,100.73,Mostly Cloudy
2362,2012-04-08 10:00:00,70.74,7.3,-4.8,42,22,48.3,100.61,Mostly Cloudy
2363,2012-04-08 11:00:00,74.52,9.4,-3.6,40,15,48.3,100.46,Mostly Cloudy
2364,2012-04-08 12:00:00,76.32,10.4,-3.8,37,17,48.3,100.25,Mostly Cloudy
2365,2012-04-08 13:00:00,78.66000000000001,11.7,-3.9,33,20,48.3,100.11,Mostly Cloudy
2366,2012-04-08 14:00:00,79.38000000000001,12.1,-3.5,33,20,48.3,99.97,Mostly Cloudy
2367,2012-04-08 15:00:00,79.74,12.3,-3.8,32,22,48.3,99.86,Mostly Cloudy
2368,2012-04-08 16:00:00,79.92,12.4,-4.2,31,22,48.3,99.8,Cloudy
2369,2012-04-08 17:00:00,79.74,12.3,-4.5,31,7,48.3,99.75,Mostly Cloudy
2370,2012-04-08 18:00:00,79.02,11.9,-4.7,31,19,25.0,99.69,Mostly Cloudy
2371,2012-04-08 19:00:00,78.3,11.5,-4.9,31,17,48.3,99.64,Mostly Cloudy
2372,2012-04-08 20:00:00,77.22,10.9,-3.9,35,15,25.0,99.59,Mostly Cloudy
2373,2012-04-08 21:00:00,76.32,10.4,-3.9,36,17,25.0,99.5,Mostly Cloudy
2374,2012-04-08 22:00:00,75.96000000000001,10.2,-3.7,37,19,25.0,99.42,Mostly Cloudy
2375,2012-04-08 23:00:00,72.9,8.5,-3.2,44,7,25.0,99.38,Cloudy
2376,2012-04-09 00:00:00,71.10000000000001,7.5,-3.5,46,4,25.0,99.31,Mostly Cloudy
2377,2012-04-09 01:00:00,66.24,4.8,-2.4,60,9,25.0,99.24,Cloudy
2378,2012-04-09 02:00:00,67.32,5.4,-1.3,62,9,25.0,99.19,Cloudy
2379,2012-04-09 03:00:00,67.5,5.5,-1.1,62,0,25.0,99.14,Cloudy
2380,2012-04-09 04:00:00,67.86000000000001,5.7,-0.9,62,11,25.0,99.12,Cloudy
2381,2012-04-09 05:00:00,68.22,5.9,-1.4,59,7,25.0,99.09,Cloudy
2382,2012-04-09 06:00:00,68.58,6.1,0.1,65,13,24.1,99.1,Rain
2383,2012-04-09 07:00:00,68.94,6.3,1.5,71,13,24.1,99.11,Rain
2384,2012-04-09 08:00:00,69.48,6.6,3.6,81,20,24.1,99.05,Rain
2385,2012-04-09 09:00:00,70.92,7.4,1.6,67,19,24.1,99.05,Rain
2386,2012-04-09 10:00:00,70.2,7.0,2.3,72,28,24.1,99.07,Rain
2387,2012-04-09 11:00:00,70.92,7.4,2.8,73,24,24.1,99.1,Rain
2388,2012-04-09 12:00:00,71.82,7.9,4.1,77,17,24.1,99.07,Rain
2389,2012-04-09 13:00:00,73.44,8.8,2.6,65,17,24.1,99.08,Rain
2390,2012-04-09 14:00:00,73.8,9.0,1.3,58,19,24.1,99.11,Rain
2391,2012-04-09 15:00:00,73.08,8.6,0.7,58,22,24.1,99.14,Cloudy
2392,2012-04-09 16:00:00,73.26,8.7,0.2,55,17,24.1,99.19,Cloudy
2393,2012-04-09 17:00:00,72.53999999999999,8.3,1.0,60,22,24.1,99.24,Cloudy
2394,2012-04-09 18:00:00,68.76,6.2,2.2,76,30,24.1,99.31,Rain Showers
2395,2012-04-09 19:00:00,69.12,6.4,1.7,72,28,25.0,99.34,Cloudy
2396,2012-04-09 20:00:00,67.86000000000001,5.7,1.4,74,19,25.0,99.4,Mostly Cloudy
2397,2012-04-09 21:00:00,68.03999999999999,5.8,1.4,73,22,25.0,99.43,Cloudy
2398,2012-04-09 22:00:00,67.32,5.4,1.3,75,19,25.0,99.42,Cloudy
2399,2012-04-09 23:00:00,67.14,5.3,0.9,73,20,25.0,99.42,Mostly Cloudy
2400,2012-04-10 00:00:00,66.78,5.1,1.7,79,19,25.0,99.43,Cloudy
2401,2012-04-10 01:00:00,66.42,4.9,2.2,83,20,25.0,99.41,Cloudy
2402,2012-04-10 02:00:00,65.88000000000001,4.6,1.8,82,19,25.0,99.4,Mostly Cloudy
2403,2012-04-10 03:00:00,65.34,4.3,1.6,83,17,25.0,99.37,Mostly Cloudy
2404,2012-04-10 04:00:00,64.8,4.0,1.5,84,13,25.0,99.39,Mostly Cloudy
2405,2012-04-10 05:00:00,64.8,4.0,1.6,84,9,24.1,99.39,Cloudy
2406,2012-04-10 06:00:00,65.34,4.3,1.7,83,9,24.1,99.45,Mostly Cloudy
2407,2012-04-10 07:00:00,66.60000000000001,5.0,1.5,78,9,24.1,99.48,Cloudy
2408,2012-04-10 08:00:00,67.14,5.3,1.5,76,17,24.1,99.51,Rain Showers
2409,2012-04-10 09:00:00,67.86000000000001,5.7,1.8,76,15,24.1,99.53,Mostly Cloudy
2410,2012-04-10 10:00:00,70.02,6.9,0.9,66,20,24.1,99.56,Mostly Cloudy
2411,2012-04-10 11:00:00,70.02,6.9,2.5,74,15,24.1,99.58,Rain Showers
2412,2012-04-10 12:00:00,72.0,8.0,0.5,59,19,24.1,99.58,Cloudy
2413,2012-04-10 13:00:00,73.44,8.8,1.0,58,22,24.1,99.6,Mostly Cloudy
2414,2012-04-10 14:00:00,71.28,7.6,2.4,70,33,16.1,99.63,Rain Showers
2415,2012-04-10 15:00:00,68.76,6.2,3.2,81,19,24.1,99.71,Rain Showers
2416,2012-04-10 16:00:00,69.66000000000001,6.7,2.9,77,20,24.1,99.77,Mostly Cloudy
2417,2012-04-10 17:00:00,69.84,6.8,2.4,73,19,24.1,99.83,Mostly Cloudy
2418,2012-04-10 18:00:00,68.4,6.0,2.5,78,24,24.1,99.91,Mostly Cloudy
2419,2012-04-10 19:00:00,68.03999999999999,5.8,2.3,78,19,25.0,100.01,Mostly Cloudy
2420,2012-04-10 20:00:00,66.96000000000001,5.2,1.8,79,20,25.0,100.12,Mostly Cloudy
2421,2012-04-10 21:00:00,66.78,5.1,2.3,82,22,25.0,100.15,Mostly Cloudy
2422,2012-04-10 22:00:00,65.52,4.4,1.9,84,11,25.0,100.16,Mostly Cloudy
2423,2012-04-10 23:00:00,66.06,4.7,2.4,85,15,25.0,100.21,Mostly Cloudy
2424,2012-04-11 00:00:00,65.34,4.3,1.9,84,17,25.0,100.24,Mostly Cloudy
2425,2012-04-11 01:00:00,64.8,4.0,1.7,85,9,25.0,100.26,Mostly Cloudy
2426,2012-04-11 02:00:00,63.36000000000001,3.2,1.4,88,11,25.0,100.26,Mostly Cloudy
2427,2012-04-11 03:00:00,63.0,3.0,1.3,89,0,25.0,100.3,Mostly Cloudy
2428,2012-04-11 04:00:00,60.480000000000004,1.6,0.1,90,0,25.0,100.34,Mainly Clear
2429,2012-04-11 05:00:00,58.86000000000001,0.7,-0.8,90,6,24.1,100.4,Mostly Cloudy
2430,2012-04-11 06:00:00,61.92,2.4,0.8,89,6,24.1,100.5,Mostly Cloudy
2431,2012-04-11 07:00:00,63.36000000000001,3.2,1.2,87,4,24.1,100.58,Cloudy
2432,2012-04-11 08:00:00,65.88000000000001,4.6,1.7,81,4,24.1,100.65,Cloudy
2433,2012-04-11 09:00:00,68.58,6.1,1.4,72,0,24.1,100.72,Cloudy
2434,2012-04-11 10:00:00,69.66000000000001,6.7,2.2,73,4,24.1,100.76,Mostly Cloudy
2435,2012-04-11 11:00:00,69.66000000000001,6.7,2.0,72,11,24.1,100.78,Cloudy
2436,2012-04-11 12:00:00,73.44,8.8,2.5,65,9,24.1,100.76,Mainly Clear
2437,2012-04-11 13:00:00,77.4,11.0,1.9,53,4,24.1,100.74,Mostly Cloudy
2438,2012-04-11 14:00:00,72.72,8.4,0.3,57,32,24.1,100.79,Rain Showers
2439,2012-04-11 15:00:00,71.10000000000001,7.5,3.1,74,7,24.1,100.79,Mostly Cloudy
2440,2012-04-11 16:00:00,74.7,9.5,1.4,57,20,24.1,100.82,Mostly Cloudy
2441,2012-04-11 17:00:00,74.34,9.3,1.3,57,33,24.1,100.91,Rain Showers
2442,2012-04-11 18:00:00,72.72,8.4,-0.2,55,17,24.1,100.92,Mainly Clear
2443,2012-04-11 19:00:00,69.12,6.4,-0.4,62,11,24.1,101.0,Mainly Clear
2444,2012-04-11 20:00:00,70.92,7.4,0.8,63,13,25.0,101.07,Mostly Cloudy
2445,2012-04-11 21:00:00,70.02,6.9,0.9,66,7,25.0,101.08,Mostly Cloudy
2446,2012-04-11 22:00:00,63.54,3.3,-0.9,74,11,25.0,101.09,Mostly Cloudy
2447,2012-04-11 23:00:00,69.48,6.6,-0.3,61,13,25.0,101.11,Mostly Cloudy
2448,2012-04-12 00:00:00,67.5,5.5,-1.5,61,13,25.0,101.14,Mainly Clear
2449,2012-04-12 01:00:00,68.03999999999999,5.8,-2.2,56,15,25.0,101.15,Mostly Cloudy
2450,2012-04-12 02:00:00,66.24,4.8,-2.6,59,17,25.0,101.18,Mainly Clear
2451,2012-04-12 03:00:00,65.34,4.3,-2.8,60,13,25.0,101.21,Mostly Cloudy
2452,2012-04-12 04:00:00,63.18000000000001,3.1,-3.0,64,13,25.0,101.24,Mainly Clear
2453,2012-04-12 05:00:00,64.44,3.8,-2.9,62,15,24.1,101.3,Mostly Cloudy
2454,2012-04-12 06:00:00,63.9,3.5,-2.9,63,13,48.3,101.36,Mainly Clear
2455,2012-04-12 07:00:00,64.8,4.0,-2.3,63,6,48.3,101.43,Mainly Clear
2456,2012-04-12 08:00:00,69.3,6.5,-2.1,54,13,48.3,101.46,Mostly Cloudy
2457,2012-04-12 09:00:00,71.46000000000001,7.7,-1.8,51,13,48.3,101.5,Mostly Cloudy
2458,2012-04-12 10:00:00,73.26,8.7,-1.4,49,9,48.3,101.51,Mostly Cloudy
2459,2012-04-12 11:00:00,75.24,9.8,-1.2,46,9,48.3,101.46,Mostly Cloudy
2460,2012-04-12 12:00:00,76.32,10.4,-1.5,43,4,48.3,101.42,Mostly Cloudy
2461,2012-04-12 13:00:00,75.60000000000001,10.0,-1.0,46,15,48.3,101.4,Mostly Cloudy
2462,2012-04-12 14:00:00,76.14,10.3,-1.1,45,13,48.3,101.38,Mostly Cloudy
2463,2012-04-12 15:00:00,77.94,11.3,-1.4,41,15,48.3,101.33,Mostly Cloudy
2464,2012-04-12 16:00:00,79.92,12.4,-1.8,37,15,48.3,101.32,Mostly Cloudy
2465,2012-04-12 17:00:00,78.12,11.4,-1.5,41,11,48.3,101.32,Mainly Clear
2466,2012-04-12 18:00:00,77.94,11.3,-2.2,39,17,48.3,101.33,Mainly Clear
2467,2012-04-12 19:00:00,75.42,9.9,-1.8,44,11,48.3,101.34,Mainly Clear
2468,2012-04-12 20:00:00,73.98,9.1,-1.1,49,7,25.0,101.38,Mainly Clear
2469,2012-04-12 21:00:00,69.48,6.6,-0.8,59,0,25.0,101.39,Mainly Clear
2470,2012-04-12 22:00:00,69.66000000000001,6.7,-0.6,60,4,25.0,101.44,Clear
2471,2012-04-12 23:00:00,68.22,5.9,-2.2,56,11,25.0,101.47,Clear
2472,2012-04-13 00:00:00,65.88000000000001,4.6,-4.0,54,11,25.0,101.49,Clear
2473,2012-04-13 01:00:00,64.8,4.0,-5.1,51,11,25.0,101.48,Clear
2474,2012-04-13 02:00:00,61.2,2.0,-5.4,58,6,25.0,101.5,Clear
2475,2012-04-13 03:00:00,60.300000000000004,1.5,-5.1,61,9,25.0,101.52,Clear
2476,2012-04-13 04:00:00,59.760000000000005,1.2,-4.5,66,6,25.0,101.56,Clear
2477,2012-04-13 05:00:00,59.94,1.3,-4.1,67,6,48.3,101.6,Clear
2478,2012-04-13 06:00:00,60.839999999999996,1.8,-3.4,68,6,48.3,101.67,Clear
2479,2012-04-13 07:00:00,64.98,4.1,-2.1,64,7,48.3,101.75,Mainly Clear
2480,2012-04-13 08:00:00,68.58,6.1,-1.5,58,7,48.3,101.77,Mainly Clear
2481,2012-04-13 09:00:00,72.0,8.0,-0.8,54,13,48.3,101.73,Mainly Clear
2482,2012-04-13 10:00:00,75.24,9.8,-1.8,44,17,48.3,101.69,Mainly Clear
2483,2012-04-13 11:00:00,79.56,12.2,-1.0,40,19,48.3,101.6,Mainly Clear
2484,2012-04-13 12:00:00,81.9,13.5,-3.0,32,24,48.3,101.52,Mainly Clear
2485,2012-04-13 13:00:00,84.06,14.7,-6.1,23,24,48.3,101.48,Mainly Clear
2486,2012-04-13 14:00:00,84.60000000000001,15.0,-5.6,24,22,48.3,101.36,Mainly Clear
2487,2012-04-13 15:00:00,86.22,15.9,-4.9,24,32,48.3,101.27,Mainly Clear
2488,2012-04-13 16:00:00,86.58,16.1,-5.2,23,30,48.3,101.22,Mostly Cloudy
2489,2012-04-13 17:00:00,84.60000000000001,15.0,-4.3,26,28,48.3,101.22,Cloudy
2490,2012-04-13 18:00:00,83.34,14.3,-5.1,26,22,48.3,101.24,Cloudy
2491,2012-04-13 19:00:00,82.08,13.6,-6.8,24,19,48.3,101.25,Mostly Cloudy
2492,2012-04-13 20:00:00,79.56,12.2,-5.9,28,15,25.0,101.31,Mostly Cloudy
2493,2012-04-13 21:00:00,78.66000000000001,11.7,-5.1,30,19,25.0,101.32,Mainly Clear
2494,2012-04-13 22:00:00,76.14,10.3,-1.3,44,20,25.0,101.36,Mainly Clear
2495,2012-04-13 23:00:00,73.98,9.1,-1.3,48,20,25.0,101.37,Mainly Clear
2496,2012-04-14 00:00:00,71.82,7.9,-1.6,51,22,25.0,101.35,Clear
2497,2012-04-14 01:00:00,71.10000000000001,7.5,-1.8,52,11,25.0,101.35,Clear
2498,2012-04-14 02:00:00,69.84,6.8,-1.8,54,17,25.0,101.34,Clear
2499,2012-04-14 03:00:00,67.32,5.4,-1.0,63,19,25.0,101.36,Mainly Clear
2500,2012-04-14 04:00:00,67.86000000000001,5.7,-0.5,64,11,25.0,101.35,Mainly Clear
2501,2012-04-14 05:00:00,68.76,6.2,0.0,64,17,25.0,101.36,Mostly Cloudy
2502,2012-04-14 06:00:00,69.66000000000001,6.7,-0.9,58,19,24.1,101.42,Mostly Cloudy
2503,2012-04-14 07:00:00,71.10000000000001,7.5,-1.2,54,20,48.3,101.49,Mostly Cloudy
2504,2012-04-14 08:00:00,74.16000000000001,9.2,-0.5,51,19,48.3,101.46,Mostly Cloudy
2505,2012-04-14 09:00:00,77.03999999999999,10.8,-0.3,46,20,48.3,101.45,Mostly Cloudy
2506,2012-04-14 10:00:00,80.64,12.8,-0.2,41,26,48.3,101.38,Cloudy
2507,2012-04-14 11:00:00,82.44,13.8,-0.8,37,24,48.3,101.28,Cloudy
2508,2012-04-14 12:00:00,85.14,15.3,-0.3,34,24,48.3,101.21,Cloudy
2509,2012-04-14 13:00:00,84.24,14.8,-1.1,34,26,48.3,101.2,Cloudy
2510,2012-04-14 14:00:00,84.06,14.7,-0.7,35,17,48.3,101.08,Cloudy
2511,2012-04-14 15:00:00,85.68,15.6,-3.0,28,20,48.3,101.02,Cloudy
2512,2012-04-14 16:00:00,86.22,15.9,-3.5,26,19,48.3,100.98,Cloudy
2513,2012-04-14 17:00:00,85.32,15.4,-3.1,28,24,48.3,101.0,Mostly Cloudy
2514,2012-04-14 18:00:00,83.7,14.5,-2.7,30,13,48.3,100.95,Mostly Cloudy
2515,2012-04-14 19:00:00,79.02,11.9,-0.6,42,7,48.3,100.91,Mostly Cloudy
2516,2012-04-14 20:00:00,80.64,12.8,-0.9,39,7,25.0,100.9,Mostly Cloudy
2517,2012-04-14 21:00:00,79.2,12.0,0.0,44,7,25.0,100.86,Mostly Cloudy
2518,2012-04-14 22:00:00,77.4,11.0,0.1,47,9,25.0,100.82,Mostly Cloudy
2519,2012-04-14 23:00:00,78.48,11.6,0.3,46,9,25.0,100.76,Mostly Cloudy
2520,2012-04-15 00:00:00,80.82,12.9,0.1,41,9,25.0,100.77,Mostly Cloudy
2521,2012-04-15 01:00:00,81.18,13.1,0.6,42,13,25.0,100.74,Mostly Cloudy
2522,2012-04-15 02:00:00,79.92,12.4,1.8,48,15,25.0,100.7,Mostly Cloudy
2523,2012-04-15 03:00:00,77.94,11.3,2.3,54,15,25.0,100.7,Clear
2524,2012-04-15 04:00:00,77.22,10.9,4.3,64,15,25.0,100.72,Clear
2525,2012-04-15 05:00:00,75.42,9.9,4.5,69,6,25.0,100.72,Clear
2526,2012-04-15 06:00:00,76.68,10.6,5.4,70,13,24.1,100.74,Mainly Clear
2527,2012-04-15 07:00:00,78.66000000000001,11.7,6.2,69,9,24.1,100.81,Cloudy
2528,2012-04-15 08:00:00,81.9,13.5,8.0,69,11,24.1,100.84,Cloudy
2529,2012-04-15 09:00:00,82.98,14.1,8.9,71,26,24.1,100.79,Cloudy
2530,2012-04-15 10:00:00,85.5,15.5,9.4,67,32,24.1,100.72,Cloudy
2531,2012-04-15 11:00:00,88.74,17.3,9.7,61,28,24.1,100.68,Mainly Clear
2532,2012-04-15 12:00:00,90.72,18.4,10.1,58,28,48.3,100.65,Mainly Clear
2533,2012-04-15 13:00:00,93.24,19.8,10.1,54,32,48.3,100.68,Mostly Cloudy
2534,2012-04-15 14:00:00,92.52,19.4,10.1,55,26,24.1,100.68,Mostly Cloudy
2535,2012-04-15 15:00:00,90.18,18.1,10.6,62,24,48.3,100.65,Mostly Cloudy
2536,2012-04-15 16:00:00,89.10000000000001,17.5,10.9,65,22,48.3,100.69,Cloudy
2537,2012-04-15 17:00:00,88.2,17.0,11.0,68,20,24.1,100.73,Cloudy
2538,2012-04-15 18:00:00,87.48,16.6,11.2,70,20,24.1,100.77,Cloudy
2539,2012-04-15 19:00:00,86.94,16.3,11.5,73,17,24.1,100.78,Cloudy
2540,2012-04-15 20:00:00,85.5,15.5,11.0,75,11,25.0,100.8,Cloudy
2541,2012-04-15 21:00:00,83.88000000000001,14.6,10.5,76,6,25.0,100.83,Mostly Cloudy
2542,2012-04-15 22:00:00,84.24,14.8,10.6,76,6,25.0,100.82,Cloudy
2543,2012-04-15 23:00:00,84.42,14.9,11.1,78,13,25.0,100.74,Cloudy
2544,2012-04-16 00:00:00,85.86000000000001,15.7,11.6,77,17,25.0,100.77,Cloudy
2545,2012-04-16 01:00:00,83.88000000000001,14.6,12.8,89,9,8.0,100.7,Rain Showers
2546,2012-04-16 02:00:00,84.42,14.9,13.3,90,4,9.7,100.66,Rain Showers
2547,2012-04-16 03:00:00,83.52,14.4,12.8,90,9,25.0,100.66,Cloudy
2548,2012-04-16 04:00:00,84.96000000000001,15.2,12.6,84,11,25.0,100.66,Cloudy
2549,2012-04-16 05:00:00,85.14,15.3,12.3,82,13,25.0,100.64,Cloudy
2550,2012-04-16 06:00:00,85.86000000000001,15.7,12.0,79,15,24.1,100.61,Cloudy
2551,2012-04-16 07:00:00,88.2,17.0,12.8,76,17,24.1,100.55,Cloudy
2552,2012-04-16 08:00:00,92.34,19.3,13.5,69,17,24.1,100.52,Mostly Cloudy
2553,2012-04-16 09:00:00,97.56,22.2,13.6,58,15,24.1,100.52,Mostly Cloudy
2554,2012-04-16 10:00:00,102.42,24.9,12.8,47,22,24.1,100.44,Cloudy
2555,2012-04-16 11:00:00,100.98,24.1,12.1,47,22,24.1,100.44,Cloudy
2556,2012-04-16 12:00:00,102.24,24.8,11.7,44,30,24.1,100.39,Cloudy
2557,2012-04-16 13:00:00,103.32,25.4,12.3,44,22,24.1,100.36,Cloudy
2558,2012-04-16 14:00:00,105.48,26.6,12.4,41,24,24.1,100.26,Cloudy
2559,2012-04-16 15:00:00,106.92,27.4,11.5,37,28,24.1,100.12,Mostly Cloudy
2560,2012-04-16 16:00:00,107.64,27.8,11.6,37,26,48.3,100.06,Mostly Cloudy
2561,2012-04-16 17:00:00,106.74,27.3,11.5,37,26,48.3,100.03,Mainly Clear
2562,2012-04-16 18:00:00,105.66000000000001,26.7,11.3,38,11,48.3,99.99,Mostly Cloudy
2563,2012-04-16 19:00:00,105.12,26.4,11.9,40,20,16.1,100.1,Rain Showers
2564,2012-04-16 20:00:00,94.5,20.5,15.6,73,4,25.0,100.22,Mostly Cloudy
2565,2012-04-16 21:00:00,92.34,19.3,15.8,80,13,25.0,100.26,Mostly Cloudy
2566,2012-04-16 22:00:00,92.52,19.4,14.7,74,24,25.0,100.25,Rain Showers
2567,2012-04-16 23:00:00,92.7,19.5,14.2,71,30,25.0,100.31,Mostly Cloudy
2568,2012-04-17 00:00:00,91.8,19.0,11.6,62,28,25.0,100.34,Mainly Clear
2569,2012-04-17 01:00:00,91.62,18.9,9.6,55,35,25.0,100.42,Mainly Clear
2570,2012-04-17 02:00:00,88.92,17.4,4.7,43,30,25.0,100.51,Mainly Clear
2571,2012-04-17 03:00:00,85.32,15.4,6.3,55,37,25.0,100.61,Mainly Clear
2572,2012-04-17 04:00:00,83.7,14.5,6.1,57,37,25.0,100.8,Mainly Clear
2573,2012-04-17 05:00:00,81.9,13.5,5.9,60,33,48.3,100.99,Mostly Cloudy
2574,2012-04-17 06:00:00,79.02,11.9,2.3,52,37,48.3,101.19,Mainly Clear
2575,2012-04-17 07:00:00,77.22,10.9,1.9,54,48,48.3,101.32,Mainly Clear
2576,2012-04-17 08:00:00,75.96000000000001,10.2,0.6,51,43,48.3,101.42,Mainly Clear
2577,2012-04-17 09:00:00,75.96000000000001,10.2,-1.1,45,44,48.3,101.5,Mainly Clear
2578,2012-04-17 10:00:00,77.22,10.9,-1.3,43,41,48.3,101.51,Mainly Clear
2579,2012-04-17 11:00:00,78.3,11.5,-1.0,42,30,48.3,101.57,Mostly Cloudy
2580,2012-04-17 12:00:00,79.2,12.0,-0.8,41,37,48.3,101.58,Mostly Cloudy
2581,2012-04-17 13:00:00,79.56,12.2,-0.2,42,32,48.3,101.61,Mainly Clear
2582,2012-04-17 14:00:00,80.28,12.6,-0.3,41,35,48.3,101.64,Mostly Cloudy
2583,2012-04-17 15:00:00,80.46000000000001,12.7,-0.5,40,30,48.3,101.63,Mainly Clear
2584,2012-04-17 16:00:00,78.48,11.6,-1.2,41,32,48.3,101.69,Mainly Clear
2585,2012-04-17 17:00:00,77.58,11.1,-1.7,41,24,48.3,101.72,Mostly Cloudy
2586,2012-04-17 18:00:00,74.7,9.5,-2.8,42,24,48.3,101.79,Mostly Cloudy
2587,2012-04-17 19:00:00,72.9,8.5,-4.1,41,28,24.1,101.89,Mostly Cloudy
2588,2012-04-17 20:00:00,70.92,7.4,-5.1,41,19,25.0,102.04,Mostly Cloudy
2589,2012-04-17 21:00:00,68.58,6.1,-5.6,43,17,25.0,102.12,Mostly Cloudy
2590,2012-04-17 22:00:00,67.32,5.4,-5.4,46,11,25.0,102.17,Mostly Cloudy
2591,2012-04-17 23:00:00,64.62,3.9,-4.8,53,17,25.0,102.17,Mostly Cloudy
2592,2012-04-18 00:00:00,62.82,2.9,-5.1,56,13,25.0,102.2,Clear
2593,2012-04-18 01:00:00,61.92,2.4,-5.7,55,15,25.0,102.18,Clear
2594,2012-04-18 02:00:00,59.22,0.9,-6.5,58,15,25.0,102.22,Clear
2595,2012-04-18 03:00:00,59.580000000000005,1.1,-7.0,55,11,25.0,102.25,Clear
2596,2012-04-18 04:00:00,58.32,0.4,-7.0,58,9,25.0,102.29,Clear
2597,2012-04-18 05:00:00,55.800000000000004,-1.0,-7.0,64,11,48.3,102.34,Clear
2598,2012-04-18 06:00:00,59.22,0.9,-6.3,59,9,48.3,102.41,Clear
2599,2012-04-18 07:00:00,62.1,2.5,-6.2,53,13,48.3,102.44,Clear
2600,2012-04-18 08:00:00,63.54,3.3,-5.9,51,11,48.3,102.43,Clear
2601,2012-04-18 09:00:00,65.7,4.5,-5.7,47,9,48.3,102.41,Clear
2602,2012-04-18 10:00:00,67.14,5.3,-5.1,47,9,48.3,102.36,Clear
2603,2012-04-18 11:00:00,70.02,6.9,-3.4,48,6,48.3,102.24,Clear
2604,2012-04-18 12:00:00,70.74,7.3,-4.6,43,11,48.3,102.13,Mainly Clear
2605,2012-04-18 13:00:00,73.08,8.6,-3.3,43,15,48.3,102.05,Mainly Clear
2606,2012-04-18 14:00:00,74.34,9.3,-3.2,41,7,48.3,101.97,Mainly Clear
2607,2012-04-18 15:00:00,76.32,10.4,-3.2,38,11,48.3,101.86,Mainly Clear
2608,2012-04-18 16:00:00,76.14,10.3,-3.6,37,9,48.3,101.8,Mainly Clear
2609,2012-04-18 17:00:00,75.96000000000001,10.2,-4.1,36,13,48.3,101.75,Mainly Clear
2610,2012-04-18 18:00:00,75.60000000000001,10.0,-5.5,33,7,48.3,101.7,Mainly Clear
2611,2012-04-18 19:00:00,72.72,8.4,-3.9,42,9,48.3,101.66,Mainly Clear
2612,2012-04-18 20:00:00,71.28,7.6,-4.0,44,7,25.0,101.62,Mainly Clear
2613,2012-04-18 21:00:00,71.82,7.9,-4.2,42,4,25.0,101.56,Mostly Cloudy
2614,2012-04-18 22:00:00,72.72,8.4,-4.1,41,0,25.0,101.53,Mostly Cloudy
2615,2012-04-18 23:00:00,69.84,6.8,-2.6,51,6,25.0,101.5,Mainly Clear
2616,2012-04-19 00:00:00,69.3,6.5,-2.7,52,4,25.0,101.44,Mainly Clear
2617,2012-04-19 01:00:00,67.5,5.5,-2.7,55,6,25.0,101.42,Clear
2618,2012-04-19 02:00:00,63.54,3.3,-2.8,64,7,25.0,101.33,Clear
2619,2012-04-19 03:00:00,65.52,4.4,-3.3,57,4,25.0,101.28,Mainly Clear
2620,2012-04-19 04:00:00,63.72,3.4,-3.2,62,0,25.0,101.27,Mainly Clear
2621,2012-04-19 05:00:00,63.72,3.4,-2.9,63,4,24.1,101.25,Mainly Clear
2622,2012-04-19 06:00:00,66.06,4.7,-0.8,67,4,48.3,101.28,Mostly Cloudy
2623,2012-04-19 07:00:00,70.38000000000001,7.1,-0.4,59,4,48.3,101.24,Mostly Cloudy
2624,2012-04-19 08:00:00,73.08,8.6,-1.1,50,7,48.3,101.18,Mostly Cloudy
2625,2012-04-19 09:00:00,78.84,11.8,-0.5,43,7,48.3,101.14,Mainly Clear
2626,2012-04-19 10:00:00,82.8,14.0,-0.4,37,13,48.3,101.05,Mainly Clear
2627,2012-04-19 11:00:00,86.03999999999999,15.8,0.5,35,19,48.3,101.02,Mostly Cloudy
2628,2012-04-19 12:00:00,87.48,16.6,0.9,35,15,48.3,100.95,Mostly Cloudy
2629,2012-04-19 13:00:00,90.72,18.4,1.7,33,20,48.3,100.88,Mostly Cloudy
2630,2012-04-19 14:00:00,92.34,19.3,2.6,33,17,48.3,100.78,Mostly Cloudy
2631,2012-04-19 15:00:00,93.96000000000001,20.2,3.9,34,28,48.3,100.69,Mostly Cloudy
2632,2012-04-19 16:00:00,94.86000000000001,20.7,4.0,33,26,48.3,100.65,Mostly Cloudy
2633,2012-04-19 17:00:00,93.60000000000001,20.0,4.3,36,24,48.3,100.62,Mainly Clear
2634,2012-04-19 18:00:00,91.26,18.7,4.5,39,22,48.3,100.63,Mainly Clear
2635,2012-04-19 19:00:00,90.0,18.0,4.1,40,15,48.3,100.69,Mainly Clear
2636,2012-04-19 20:00:00,87.48,16.6,4.5,45,17,25.0,100.73,Mainly Clear
2637,2012-04-19 21:00:00,86.58,16.1,4.5,46,11,25.0,100.72,Clear
2638,2012-04-19 22:00:00,82.62,13.9,4.8,54,13,25.0,100.73,Mainly Clear
2639,2012-04-19 23:00:00,80.28,12.6,4.6,58,9,25.0,100.78,Mainly Clear
2640,2012-04-20 00:00:00,80.10000000000001,12.5,2.5,50,19,25.0,100.88,Mainly Clear
2641,2012-04-20 01:00:00,77.22,10.9,1.8,53,19,25.0,100.91,Clear
2642,2012-04-20 02:00:00,75.42,9.9,1.3,55,20,25.0,100.94,Mainly Clear
2643,2012-04-20 03:00:00,73.98,9.1,1.5,59,15,25.0,101.0,Mainly Clear
2644,2012-04-20 04:00:00,73.44,8.8,1.1,58,19,25.0,101.02,Mainly Clear
2645,2012-04-20 05:00:00,73.26,8.7,-0.6,52,22,25.0,101.04,Mostly Cloudy
2646,2012-04-20 06:00:00,71.64,7.8,-0.4,56,28,24.1,101.11,Mostly Cloudy
2647,2012-04-20 07:00:00,70.02,6.9,0.3,63,22,24.1,101.17,Rain Showers
2648,2012-04-20 08:00:00,68.58,6.1,1.4,72,26,24.1,101.12,Cloudy
2649,2012-04-20 09:00:00,68.94,6.3,1.4,71,19,48.3,101.13,Cloudy
2650,2012-04-20 10:00:00,69.48,6.6,1.6,70,24,24.1,101.07,Rain
2651,2012-04-20 11:00:00,70.02,6.9,1.0,66,20,24.1,101.06,Cloudy
2652,2012-04-20 12:00:00,70.56,7.2,1.7,68,26,24.1,100.98,Rain Showers
2653,2012-04-20 13:00:00,71.10000000000001,7.5,2.0,68,24,24.1,100.91,Rain Showers
2654,2012-04-20 14:00:00,74.88000000000001,9.6,3.2,64,24,24.1,100.8,Cloudy
2655,2012-04-20 15:00:00,74.7,9.5,3.0,64,24,24.1,100.7,Cloudy
2656,2012-04-20 16:00:00,72.72,8.4,2.9,68,33,24.1,100.67,Cloudy
2657,2012-04-20 17:00:00,71.64,7.8,2.6,70,26,24.1,100.59,Cloudy
2658,2012-04-20 18:00:00,70.92,7.4,2.9,73,28,24.1,100.54,Cloudy
2659,2012-04-20 19:00:00,70.2,7.0,3.2,77,26,24.1,100.5,Cloudy
2660,2012-04-20 20:00:00,70.02,6.9,3.5,79,24,25.0,100.46,Cloudy
2661,2012-04-20 21:00:00,69.48,6.6,3.5,81,17,25.0,100.35,Cloudy
2662,2012-04-20 22:00:00,69.3,6.5,3.4,81,17,25.0,100.32,Cloudy
2663,2012-04-20 23:00:00,69.48,6.6,3.5,81,20,25.0,100.27,Cloudy
2664,2012-04-21 00:00:00,68.94,6.3,3.7,83,19,25.0,100.18,Cloudy
2665,2012-04-21 01:00:00,69.12,6.4,4.0,85,15,25.0,100.13,Cloudy
2666,2012-04-21 02:00:00,67.86000000000001,5.7,3.5,86,19,25.0,100.21,Cloudy
2667,2012-04-21 03:00:00,67.5,5.5,3.3,86,20,25.0,100.21,Cloudy
2668,2012-04-21 04:00:00,67.86000000000001,5.7,3.4,85,13,25.0,100.2,Cloudy
2669,2012-04-21 05:00:00,68.4,6.0,3.5,84,7,25.0,100.32,Cloudy
2670,2012-04-21 06:00:00,68.76,6.2,3.4,82,15,25.0,100.36,Cloudy
2671,2012-04-21 07:00:00,69.12,6.4,3.3,81,17,25.0,100.38,Rain Showers
2672,2012-04-21 08:00:00,68.76,6.2,3.3,82,17,24.1,100.42,Cloudy
2673,2012-04-21 09:00:00,67.5,5.5,3.4,86,19,24.1,100.49,Rain Showers
2674,2012-04-21 10:00:00,67.5,5.5,3.3,86,17,9.7,100.53,"Rain,Fog"
2675,2012-04-21 11:00:00,67.68,5.6,3.5,86,11,12.9,100.59,Rain
2676,2012-04-21 12:00:00,67.5,5.5,3.3,86,15,9.7,100.61,"Rain,Fog"
2677,2012-04-21 13:00:00,68.58,6.1,3.7,85,19,24.1,100.65,Rain
2678,2012-04-21 14:00:00,68.58,6.1,3.9,86,19,16.1,100.69,Rain
2679,2012-04-21 15:00:00,67.86000000000001,5.7,3.3,85,17,16.1,100.73,Rain
2680,2012-04-21 16:00:00,67.14,5.3,2.5,82,19,16.1,100.8,Rain
2681,2012-04-21 17:00:00,66.24,4.8,2.6,86,17,16.1,100.84,Rain
2682,2012-04-21 18:00:00,64.44,3.8,1.6,86,24,16.1,100.96,Rain
2683,2012-04-21 19:00:00,63.72,3.4,1.0,84,20,19.3,100.96,Rain
2684,2012-04-21 20:00:00,62.28,2.6,0.5,86,24,16.1,101.06,Rain
2685,2012-04-21 21:00:00,62.28,2.6,0.3,85,26,25.0,101.06,Rain
2686,2012-04-21 22:00:00,61.019999999999996,1.9,-0.2,86,19,19.3,101.04,Rain
2687,2012-04-21 23:00:00,60.480000000000004,1.6,-0.3,87,13,25.0,101.08,Rain
2688,2012-04-22 00:00:00,60.300000000000004,1.5,-0.6,86,24,25.0,101.04,Rain
2689,2012-04-22 01:00:00,60.12,1.4,-0.5,87,17,25.0,101.06,"Rain,Snow"
2690,2012-04-22 02:00:00,58.68000000000001,0.6,-1.0,89,13,9.7,101.07,"Rain,Snow"
2691,2012-04-22 03:00:00,59.04,0.8,-0.8,89,15,25.0,101.05,"Rain,Snow"
2692,2012-04-22 04:00:00,59.760000000000005,1.2,-0.3,90,11,25.0,101.05,Rain
2693,2012-04-22 05:00:00,60.839999999999996,1.8,-0.3,86,19,25.0,101.06,Rain
2694,2012-04-22 06:00:00,61.019999999999996,1.9,-0.3,85,19,24.1,101.1,Cloudy
2695,2012-04-22 07:00:00,61.92,2.4,-0.5,81,20,24.1,101.17,Cloudy
2696,2012-04-22 08:00:00,62.63999999999999,2.8,-1.1,75,20,24.1,101.24,Cloudy
2697,2012-04-22 09:00:00,63.54,3.3,-1.0,73,28,24.1,101.27,Cloudy
2698,2012-04-22 10:00:00,64.8,4.0,-0.3,74,22,48.3,101.3,Cloudy
2699,2012-04-22 11:00:00,65.88000000000001,4.6,-0.2,71,22,48.3,101.24,Cloudy
2700,2012-04-22 12:00:00,66.60000000000001,5.0,-0.5,68,24,48.3,101.22,Cloudy
2701,2012-04-22 13:00:00,66.96000000000001,5.2,-0.4,67,20,48.3,101.3,Cloudy
2702,2012-04-22 14:00:00,68.22,5.9,-0.1,65,22,48.3,101.27,Cloudy
2703,2012-04-22 15:00:00,68.4,6.0,-0.6,63,28,48.3,101.2,Cloudy
2704,2012-04-22 16:00:00,69.12,6.4,0.0,64,22,48.3,101.2,Cloudy
2705,2012-04-22 17:00:00,68.94,6.3,-0.3,63,26,48.3,101.17,Cloudy
2706,2012-04-22 18:00:00,69.3,6.5,0.0,63,24,48.3,101.13,Cloudy
2707,2012-04-22 19:00:00,68.58,6.1,0.4,67,32,24.1,101.16,Cloudy
2708,2012-04-22 20:00:00,67.14,5.3,-0.6,66,32,25.0,101.19,Cloudy
2709,2012-04-22 21:00:00,65.34,4.3,-1.0,68,35,25.0,101.07,Rain
2710,2012-04-22 22:00:00,62.63999999999999,2.8,-1.1,75,32,25.0,101.05,Rain
2711,2012-04-22 23:00:00,61.2,2.0,-0.7,82,41,19.3,100.89,Rain
2712,2012-04-23 00:00:00,61.019999999999996,1.9,-0.8,82,46,19.3,100.73,Rain
2713,2012-04-23 01:00:00,59.580000000000005,1.1,-1.1,85,44,11.3,100.59,"Rain,Snow"
2714,2012-04-23 02:00:00,59.580000000000005,1.1,-1.1,85,44,25.0,100.32,"Rain,Snow"
2715,2012-04-23 03:00:00,60.660000000000004,1.7,-0.7,84,52,25.0,100.11,"Rain,Snow"
2716,2012-04-23 04:00:00,61.2,2.0,-0.7,82,44,25.0,99.82,Rain
2717,2012-04-23 05:00:00,61.019999999999996,1.9,-0.2,86,46,8.0,99.74,Rain
2718,2012-04-23 06:00:00,61.38,2.1,-0.3,84,52,16.1,99.66,Rain
2719,2012-04-23 07:00:00,61.739999999999995,2.3,-0.4,82,48,24.1,99.52,Rain
2720,2012-04-23 08:00:00,62.63999999999999,2.8,0.3,84,48,19.3,99.4,Rain
2721,2012-04-23 09:00:00,63.18000000000001,3.1,0.6,84,44,12.9,99.29,Rain
2722,2012-04-23 10:00:00,64.26,3.7,1.1,83,46,24.1,99.23,Cloudy
2723,2012-04-23 11:00:00,64.98,4.1,1.7,84,48,19.3,99.15,Cloudy
2724,2012-04-23 12:00:00,65.88000000000001,4.6,1.9,83,46,24.1,99.09,Cloudy
2725,2012-04-23 13:00:00,66.60000000000001,5.0,2.4,83,41,24.1,99.06,Cloudy
2726,2012-04-23 14:00:00,67.14,5.3,2.2,80,44,24.1,98.97,Cloudy
2727,2012-04-23 15:00:00,67.86000000000001,5.7,2.4,79,43,24.1,98.9,Cloudy
2728,2012-04-23 16:00:00,67.68,5.6,2.4,80,39,24.1,98.81,Cloudy
2729,2012-04-23 17:00:00,68.22,5.9,2.9,81,35,24.1,98.8,Cloudy
2730,2012-04-23 18:00:00,68.22,5.9,2.8,80,43,24.1,98.66,Cloudy
2731,2012-04-23 19:00:00,67.32,5.4,3.2,86,39,9.7,98.61,"Rain,Fog"
2732,2012-04-23 20:00:00,67.86000000000001,5.7,3.6,86,41,25.0,98.54,Cloudy
2733,2012-04-23 21:00:00,67.68,5.6,3.5,86,37,25.0,98.51,Rain
2734,2012-04-23 22:00:00,67.5,5.5,3.7,88,19,25.0,98.58,Cloudy
2735,2012-04-23 23:00:00,67.68,5.6,3.9,89,9,25.0,98.64,Cloudy
2736,2012-04-24 00:00:00,67.86000000000001,5.7,4.2,90,13,25.0,98.6,Cloudy
2737,2012-04-24 01:00:00,69.66000000000001,6.7,5.1,90,7,16.1,98.56,Cloudy
2738,2012-04-24 02:00:00,68.58,6.1,4.5,89,6,9.7,98.5,Fog
2739,2012-04-24 03:00:00,70.2,7.0,5.5,90,15,12.9,98.53,Cloudy
2740,2012-04-24 04:00:00,71.10000000000001,7.5,4.2,80,19,25.0,98.51,Rain Showers
2741,2012-04-24 05:00:00,70.38000000000001,7.1,3.1,76,19,24.1,98.47,Cloudy
2742,2012-04-24 06:00:00,69.84,6.8,3.4,79,19,19.3,98.51,Rain Showers
2743,2012-04-24 07:00:00,67.5,5.5,3.0,84,13,11.3,98.6,Rain Showers
2744,2012-04-24 08:00:00,69.48,6.6,3.7,82,13,24.1,98.63,Rain Showers
2745,2012-04-24 09:00:00,71.46000000000001,7.7,1.4,64,17,48.3,98.64,Mostly Cloudy
2746,2012-04-24 10:00:00,70.56,7.2,1.2,66,19,24.1,98.72,Rain Showers
2747,2012-04-24 11:00:00,73.44,8.8,1.2,59,26,24.1,98.78,Mostly Cloudy
2748,2012-04-24 12:00:00,73.62,8.9,3.6,69,17,24.1,98.82,Mostly Cloudy
2749,2012-04-24 13:00:00,72.0,8.0,1.2,62,24,24.1,98.9,Rain Showers
2750,2012-04-24 14:00:00,72.0,8.0,0.5,59,28,24.1,99.01,Cloudy
2751,2012-04-24 15:00:00,72.72,8.4,1.9,64,19,48.3,99.08,Cloudy
2752,2012-04-24 16:00:00,72.18,8.1,-0.3,55,32,48.3,99.19,Cloudy
2753,2012-04-24 17:00:00,72.0,8.0,0.4,59,28,48.3,99.26,Cloudy
2754,2012-04-24 18:00:00,71.46000000000001,7.7,0.4,60,20,48.3,99.3,Mostly Cloudy
2755,2012-04-24 19:00:00,70.38000000000001,7.1,0.1,61,19,24.1,99.37,Cloudy
2756,2012-04-24 20:00:00,70.02,6.9,0.0,61,28,25.0,99.45,Cloudy
2757,2012-04-24 21:00:00,69.48,6.6,-0.2,62,20,25.0,99.54,Cloudy
2758,2012-04-24 22:00:00,68.4,6.0,-0.9,61,24,25.0,99.56,Mostly Cloudy
2759,2012-04-24 23:00:00,67.32,5.4,-0.9,64,19,25.0,99.61,Mostly Cloudy
2760,2012-04-25 00:00:00,66.42,4.9,-0.6,68,19,25.0,99.67,Mostly Cloudy
2761,2012-04-25 01:00:00,67.5,5.5,-0.7,64,19,25.0,99.71,Mostly Cloudy
2762,2012-04-25 02:00:00,65.7,4.5,-0.2,71,13,25.0,99.74,Mostly Cloudy
2763,2012-04-25 03:00:00,65.52,4.4,-0.3,71,15,25.0,99.77,Mostly Cloudy
2764,2012-04-25 04:00:00,66.24,4.8,-0.3,70,15,25.0,99.8,Mostly Cloudy
2765,2012-04-25 05:00:00,65.7,4.5,0.0,73,13,24.1,99.84,Mostly Cloudy
2766,2012-04-25 06:00:00,66.96000000000001,5.2,0.1,70,20,24.1,99.93,Rain Showers
2767,2012-04-25 07:00:00,67.5,5.5,0.6,71,19,19.3,100.01,Rain Showers
2768,2012-04-25 08:00:00,66.42,4.9,1.5,79,19,24.1,100.08,Rain
2769,2012-04-25 09:00:00,66.78,5.1,2.9,86,15,24.1,100.15,Rain
2770,2012-04-25 10:00:00,68.58,6.1,2.9,80,9,24.1,100.22,Rain
2771,2012-04-25 11:00:00,71.64,7.8,2.7,70,17,48.3,100.23,Mostly Cloudy
2772,2012-04-25 12:00:00,72.0,8.0,1.9,65,20,48.3,100.26,Mostly Cloudy
2773,2012-04-25 13:00:00,73.26,8.7,0.1,55,20,48.3,100.29,Mostly Cloudy
2774,2012-04-25 14:00:00,75.24,9.8,1.7,57,19,24.1,100.31,Mostly Cloudy
2775,2012-04-25 15:00:00,71.46000000000001,7.7,0.5,60,15,24.1,100.38,Rain Showers
2776,2012-04-25 16:00:00,73.44,8.8,-1.5,48,17,24.1,100.41,Mostly Cloudy
2777,2012-04-25 17:00:00,73.44,8.8,-1.5,48,22,48.3,100.45,Mostly Cloudy
2778,2012-04-25 18:00:00,72.0,8.0,-1.9,50,22,48.3,100.5,Mostly Cloudy
2779,2012-04-25 19:00:00,70.74,7.3,0.1,60,17,24.1,100.56,Mostly Cloudy
2780,2012-04-25 20:00:00,70.74,7.3,-0.2,59,17,25.0,100.61,Mostly Cloudy
2781,2012-04-25 21:00:00,70.2,7.0,0.0,61,13,25.0,100.67,Mostly Cloudy
2782,2012-04-25 22:00:00,68.76,6.2,0.2,65,9,25.0,100.69,Mostly Cloudy
2783,2012-04-25 23:00:00,68.4,6.0,0.2,66,9,25.0,100.69,Cloudy
2784,2012-04-26 00:00:00,68.03999999999999,5.8,0.9,71,7,25.0,100.68,Mostly Cloudy
2785,2012-04-26 01:00:00,66.42,4.9,0.2,72,9,25.0,100.67,Mainly Clear
2786,2012-04-26 02:00:00,64.26,3.7,-0.5,74,7,25.0,100.67,Mainly Clear
2787,2012-04-26 03:00:00,63.9,3.5,-0.6,74,11,25.0,100.66,Clear
2788,2012-04-26 04:00:00,62.46000000000001,2.7,-1.5,74,7,25.0,100.66,Clear
2789,2012-04-26 05:00:00,62.28,2.6,-1.3,75,9,24.1,100.69,Clear
2790,2012-04-26 06:00:00,63.36000000000001,3.2,-0.6,76,4,48.3,100.71,Clear
2791,2012-04-26 07:00:00,67.5,5.5,0.9,72,7,48.3,100.72,Mostly Cloudy
2792,2012-04-26 08:00:00,68.76,6.2,0.8,68,7,48.3,100.72,Cloudy
2793,2012-04-26 09:00:00,70.02,6.9,-0.3,60,7,48.3,100.65,Cloudy
2794,2012-04-26 10:00:00,73.44,8.8,0.3,55,11,48.3,100.6,Mostly Cloudy
2795,2012-04-26 11:00:00,74.88000000000001,9.6,0.3,52,7,48.3,100.49,Cloudy
2796,2012-04-26 12:00:00,75.24,9.8,0.5,52,13,48.3,100.39,Cloudy
2797,2012-04-26 13:00:00,76.14,10.3,0.8,52,13,48.3,100.24,Cloudy
2798,2012-04-26 14:00:00,77.4,11.0,-0.4,45,17,24.1,100.08,Cloudy
2799,2012-04-26 15:00:00,77.76,11.2,-0.6,44,19,48.3,99.98,Cloudy
2800,2012-04-26 16:00:00,78.12,11.4,-0.6,43,19,24.1,99.84,Cloudy
2801,2012-04-26 17:00:00,77.4,11.0,1.3,51,15,19.3,99.8,Rain
2802,2012-04-26 18:00:00,73.08,8.6,5.4,80,19,19.3,99.72,Rain
2803,2012-04-26 19:00:00,72.53999999999999,8.3,5.6,83,15,19.3,99.7,Rain
2804,2012-04-26 20:00:00,72.18,8.1,5.8,85,7,25.0,99.69,Rain
2805,2012-04-26 21:00:00,72.0,8.0,6.2,88,9,9.7,99.67,"Rain,Fog"
2806,2012-04-26 22:00:00,71.28,7.6,5.8,88,6,9.7,99.61,"Drizzle,Fog"
2807,2012-04-26 23:00:00,70.02,6.9,5.3,90,13,9.7,99.59,"Rain,Fog"
2808,2012-04-27 00:00:00,68.03999999999999,5.8,4.1,89,22,9.7,99.67,"Rain,Fog"
2809,2012-04-27 01:00:00,66.24,4.8,2.6,86,15,25.0,99.74,Rain
2810,2012-04-27 02:00:00,66.06,4.7,2.8,87,15,25.0,99.79,Rain
2811,2012-04-27 03:00:00,65.52,4.4,1.8,83,22,25.0,99.87,Mostly Cloudy
2812,2012-04-27 04:00:00,65.16000000000001,4.2,1.0,80,24,25.0,99.94,Mostly Cloudy
2813,2012-04-27 05:00:00,63.54,3.3,-0.6,76,26,24.1,100.03,Rain Showers
2814,2012-04-27 06:00:00,62.1,2.5,-1.7,74,28,24.1,100.16,Mostly Cloudy
2815,2012-04-27 07:00:00,60.839999999999996,1.8,-2.9,71,32,12.9,100.25,Snow
2816,2012-04-27 08:00:00,61.739999999999995,2.3,-2.7,69,26,24.1,100.33,Snow
2817,2012-04-27 09:00:00,62.46000000000001,2.7,-3.2,65,32,24.1,100.4,Snow
2818,2012-04-27 10:00:00,64.26,3.7,-3.1,61,30,24.1,100.48,Snow
2819,2012-04-27 11:00:00,63.0,3.0,-3.7,61,30,24.1,100.58,Cloudy
2820,2012-04-27 12:00:00,62.46000000000001,2.7,-4.1,61,35,24.1,100.65,Snow
2821,2012-04-27 13:00:00,62.46000000000001,2.7,-5.0,57,37,24.1,100.76,Cloudy
2822,2012-04-27 14:00:00,61.019999999999996,1.9,-5.3,59,37,24.1,100.86,Cloudy
2823,2012-04-27 15:00:00,62.1,2.5,-5.1,57,30,24.1,100.92,Cloudy
2824,2012-04-27 16:00:00,61.38,2.1,-5.9,55,30,24.1,100.97,Cloudy
2825,2012-04-27 17:00:00,60.660000000000004,1.7,-6.3,55,33,24.1,101.09,Cloudy
2826,2012-04-27 18:00:00,59.4,1.0,-7.2,54,28,24.1,101.18,Cloudy
2827,2012-04-27 19:00:00,58.86000000000001,0.7,-7.7,53,22,24.1,101.25,Cloudy
2828,2012-04-27 20:00:00,58.5,0.5,-7.2,56,24,25.0,101.36,Cloudy
2829,2012-04-27 21:00:00,57.96000000000001,0.2,-7.1,58,19,25.0,101.42,Cloudy
2830,2012-04-27 22:00:00,57.96000000000001,0.2,-7.8,55,20,25.0,101.47,Cloudy
2831,2012-04-27 23:00:00,58.13999999999999,0.3,-7.7,55,17,25.0,101.5,Cloudy
2832,2012-04-28 00:00:00,57.96000000000001,0.2,-7.4,57,17,25.0,101.52,Cloudy
2833,2012-04-28 01:00:00,57.24,-0.2,-8.2,55,19,25.0,101.51,Cloudy
2834,2012-04-28 02:00:00,56.88,-0.4,-8.1,56,22,25.0,101.5,Cloudy
2835,2012-04-28 03:00:00,56.16,-0.8,-9.1,53,17,25.0,101.54,Cloudy
2836,2012-04-28 04:00:00,55.26,-1.3,-9.8,52,24,25.0,101.6,Cloudy
2837,2012-04-28 05:00:00,54.9,-1.5,-9.6,54,26,24.1,101.67,Cloudy
2838,2012-04-28 06:00:00,53.82,-2.1,-10.7,52,22,48.3,101.74,Mainly Clear
2839,2012-04-28 07:00:00,55.26,-1.3,-10.0,52,30,48.3,101.75,Mainly Clear
2840,2012-04-28 08:00:00,56.88,-0.4,-10.0,48,24,48.3,101.78,Mainly Clear
2841,2012-04-28 09:00:00,58.68000000000001,0.6,-9.7,46,32,48.3,101.79,Mainly Clear
2842,2012-04-28 10:00:00,61.2,2.0,-7.4,50,28,48.3,101.73,Mainly Clear
2843,2012-04-28 11:00:00,64.62,3.9,-9.9,36,24,48.3,101.71,Mainly Clear
2844,2012-04-28 12:00:00,66.60000000000001,5.0,-9.7,34,30,48.3,101.68,Mainly Clear
2845,2012-04-28 13:00:00,67.32,5.4,-11.1,29,32,48.3,101.62,Mainly Clear
2846,2012-04-28 14:00:00,69.12,6.4,-10.7,28,24,48.3,101.57,Mainly Clear
2847,2012-04-28 15:00:00,70.56,7.2,-10.5,27,35,48.3,101.5,Mainly Clear
2848,2012-04-28 16:00:00,70.92,7.4,-11.0,26,30,48.3,101.46,Mainly Clear
2849,2012-04-28 17:00:00,71.46000000000001,7.7,-11.2,25,28,48.3,101.45,Mainly Clear
2850,2012-04-28 18:00:00,70.56,7.2,-11.3,25,24,48.3,101.43,Clear
2851,2012-04-28 19:00:00,68.58,6.1,-11.4,27,19,48.3,101.46,Clear
2852,2012-04-28 20:00:00,64.98,4.1,-10.2,34,11,25.0,101.51,Mainly Clear
2853,2012-04-28 21:00:00,61.739999999999995,2.3,-9.7,41,11,25.0,101.55,Clear
2854,2012-04-28 22:00:00,61.019999999999996,1.9,-9.9,41,9,25.0,101.56,Mostly Cloudy
2855,2012-04-28 23:00:00,59.04,0.8,-9.1,47,6,25.0,101.55,Mostly Cloudy
2856,2012-04-29 00:00:00,59.04,0.8,-8.8,49,7,25.0,101.52,Cloudy
2857,2012-04-29 01:00:00,59.94,1.3,-8.7,47,11,25.0,101.49,Mainly Clear
2858,2012-04-29 02:00:00,59.94,1.3,-7.5,52,11,25.0,101.49,Mainly Clear
2859,2012-04-29 03:00:00,59.04,0.8,-7.8,53,13,25.0,101.47,Mostly Cloudy
2860,2012-04-29 04:00:00,57.42,-0.1,-7.7,57,9,25.0,101.48,Mainly Clear
2861,2012-04-29 05:00:00,59.22,0.9,-10.5,42,19,48.3,101.52,Mostly Cloudy
2862,2012-04-29 06:00:00,59.760000000000005,1.2,-11.4,38,20,48.3,101.58,Mostly Cloudy
2863,2012-04-29 07:00:00,60.839999999999996,1.8,-11.9,35,26,48.3,101.64,Mostly Cloudy
2864,2012-04-29 08:00:00,62.28,2.6,-11.7,34,19,48.3,101.65,Mostly Cloudy
2865,2012-04-29 09:00:00,65.34,4.3,-11.7,30,19,48.3,101.64,Mainly Clear
2866,2012-04-29 10:00:00,67.5,5.5,-11.4,28,26,48.3,101.67,Clear
2867,2012-04-29 11:00:00,68.76,6.2,-11.6,27,24,48.3,101.62,Clear
2868,2012-04-29 12:00:00,70.92,7.4,-10.5,27,24,48.3,101.62,Clear
2869,2012-04-29 13:00:00,72.72,8.4,-11.1,24,32,48.3,101.64,Clear
2870,2012-04-29 14:00:00,73.26,8.7,-11.7,22,22,48.3,101.65,Clear
2871,2012-04-29 15:00:00,73.8,9.0,-12.0,21,32,48.3,101.63,Clear
2872,2012-04-29 16:00:00,74.16000000000001,9.2,-11.8,21,28,48.3,101.66,Mainly Clear
2873,2012-04-29 17:00:00,73.8,9.0,-11.5,22,30,48.3,101.72,Clear
2874,2012-04-29 18:00:00,72.18,8.1,-11.9,23,28,48.3,101.77,Clear
2875,2012-04-29 19:00:00,70.02,6.9,-11.7,25,20,48.3,101.82,Clear
2876,2012-04-29 20:00:00,68.94,6.3,-11.4,27,15,25.0,101.93,Mainly Clear
2877,2012-04-29 21:00:00,67.32,5.4,-11.0,29,19,25.0,102.01,Mainly Clear
2878,2012-04-29 22:00:00,66.78,5.1,-10.7,31,15,25.0,102.05,Clear
2879,2012-04-29 23:00:00,64.98,4.1,-10.3,34,13,25.0,102.09,Clear
2880,2012-04-30 00:00:00,63.54,3.3,-10.3,36,9,25.0,102.06,Clear
2881,2012-04-30 01:00:00,61.56000000000001,2.2,-9.7,41,6,25.0,102.12,Clear
2882,2012-04-30 02:00:00,63.36000000000001,3.2,-10.4,36,0,25.0,102.09,Clear
2883,2012-04-30 03:00:00,61.92,2.4,-9.2,42,0,25.0,102.09,Clear
2884,2012-04-30 04:00:00,58.86000000000001,0.7,-9.0,48,4,25.0,102.14,Clear
2885,2012-04-30 05:00:00,56.34,-0.7,-6.9,63,4,48.3,102.23,Mainly Clear
2886,2012-04-30 06:00:00,63.0,3.0,-4.3,59,0,48.3,102.33,Mainly Clear
2887,2012-04-30 07:00:00,68.4,6.0,-7.3,38,0,48.3,102.37,Mainly Clear
2888,2012-04-30 08:00:00,69.48,6.6,-6.3,39,11,48.3,102.41,Mostly Cloudy
2889,2012-04-30 09:00:00,70.56,7.2,-6.4,37,7,48.3,102.31,Mostly Cloudy
2890,2012-04-30 10:00:00,71.28,7.6,-6.7,35,7,48.3,102.31,Mostly Cloudy
2891,2012-04-30 11:00:00,74.34,9.3,-5.2,35,0,48.3,102.2,Mostly Cloudy
2892,2012-04-30 12:00:00,75.78,10.1,-3.2,39,6,48.3,102.15,Mostly Cloudy
2893,2012-04-30 13:00:00,79.92,12.4,-4.3,31,11,48.3,102.01,Mostly Cloudy
2894,2012-04-30 14:00:00,79.92,12.4,-3.2,34,7,48.3,101.93,Mostly Cloudy
2895,2012-04-30 15:00:00,80.10000000000001,12.5,-4.2,31,15,48.3,101.83,Mostly Cloudy
2896,2012-04-30 16:00:00,80.82,12.9,-3.8,31,9,48.3,101.79,Mostly Cloudy
2897,2012-04-30 17:00:00,80.46000000000001,12.7,-4.5,30,9,24.1,101.73,Cloudy
2898,2012-04-30 18:00:00,80.10000000000001,12.5,-4.0,31,13,25.0,101.68,Cloudy
2899,2012-04-30 19:00:00,79.56,12.2,-3.6,33,11,25.0,101.6,Cloudy
2900,2012-04-30 20:00:00,79.38000000000001,12.1,-2.9,35,11,25.0,101.53,Cloudy
2901,2012-04-30 21:00:00,79.56,12.2,-3.7,33,13,25.0,101.49,Cloudy
2902,2012-04-30 22:00:00,79.2,12.0,-3.2,34,11,25.0,101.47,Cloudy
2903,2012-04-30 23:00:00,77.58,11.1,-2.0,40,6,25.0,101.45,Cloudy
2904,2012-05-01 00:00:00,78.12,11.4,-1.9,39,11,25.0,101.32,Cloudy
2905,2012-05-01 01:00:00,77.03999999999999,10.8,-1.0,44,19,25.0,101.22,Rain Showers
2906,2012-05-01 02:00:00,75.06,9.7,1.7,57,7,25.0,101.24,Rain Showers
2907,2012-05-01 03:00:00,73.44,8.8,3.2,68,15,25.0,101.2,Rain Showers
2908,2012-05-01 04:00:00,72.72,8.4,3.7,72,17,25.0,101.15,Rain
2909,2012-05-01 05:00:00,71.64,7.8,5.1,83,24,11.3,101.13,Rain
2910,2012-05-01 06:00:00,71.64,7.8,5.8,87,24,9.7,101.15,"Rain,Fog"
2911,2012-05-01 07:00:00,71.82,7.9,5.9,87,13,9.7,101.15,Rain
2912,2012-05-01 08:00:00,72.0,8.0,5.9,87,17,9.7,101.13,"Rain,Fog"
2913,2012-05-01 09:00:00,72.72,8.4,6.8,90,13,9.7,101.09,Fog
2914,2012-05-01 10:00:00,74.16000000000001,9.2,7.0,86,6,16.1,101.12,Cloudy
2915,2012-05-01 11:00:00,74.7,9.5,7.0,84,6,16.1,101.13,Cloudy
2916,2012-05-01 12:00:00,77.22,10.9,7.9,82,7,16.1,101.08,Cloudy
2917,2012-05-01 13:00:00,76.68,10.6,7.5,81,0,16.1,101.12,Cloudy
2918,2012-05-01 14:00:00,77.4,11.0,7.8,81,0,16.1,101.15,Cloudy
2919,2012-05-01 15:00:00,76.32,10.4,7.9,84,9,9.7,101.16,Drizzle
2920,2012-05-01 16:00:00,75.42,9.9,7.9,87,9,4.8,101.17,"Drizzle,Fog"
2921,2012-05-01 17:00:00,75.60000000000001,10.0,8.4,90,7,4.0,101.21,"Rain,Fog"
2922,2012-05-01 18:00:00,75.06,9.7,8.2,90,7,2.4,101.3,"Rain,Fog"
2923,2012-05-01 19:00:00,74.88000000000001,9.6,8.2,91,9,2.0,101.35,"Drizzle,Fog"
2924,2012-05-01 20:00:00,74.34,9.3,8.0,92,6,4.0,101.39,"Drizzle,Fog"
2925,2012-05-01 21:00:00,74.16000000000001,9.2,7.9,92,9,2.4,101.38,"Drizzle,Fog"
2926,2012-05-01 22:00:00,73.98,9.1,7.9,92,6,2.0,101.38,"Drizzle,Fog"
2927,2012-05-01 23:00:00,73.98,9.1,7.9,92,6,2.4,101.41,"Drizzle,Fog"
2928,2012-05-02 00:00:00,73.8,9.0,7.9,93,6,1.6,101.43,"Drizzle,Fog"
2929,2012-05-02 01:00:00,73.08,8.6,7.8,95,6,0.6,101.44,Fog
2930,2012-05-02 02:00:00,73.44,8.8,7.7,93,4,0.4,101.44,Fog
2931,2012-05-02 03:00:00,73.44,8.8,7.7,93,4,0.4,101.49,Fog
2932,2012-05-02 04:00:00,73.08,8.6,7.5,93,9,1.2,101.52,Fog
2933,2012-05-02 05:00:00,72.72,8.4,7.3,93,13,1.0,101.57,Fog
2934,2012-05-02 06:00:00,73.08,8.6,7.5,93,11,1.6,101.58,Fog
2935,2012-05-02 07:00:00,72.72,8.4,7.3,93,17,1.0,101.7,"Drizzle,Fog"
2936,2012-05-02 08:00:00,72.72,8.4,7.2,92,15,2.4,101.71,Fog
2937,2012-05-02 09:00:00,73.62,8.9,7.4,90,13,6.4,101.68,Fog
2938,2012-05-02 10:00:00,74.7,9.5,7.8,89,13,6.4,101.73,Fog
2939,2012-05-02 11:00:00,76.14,10.3,8.0,86,13,12.9,101.72,Cloudy
2940,2012-05-02 12:00:00,77.76,11.2,8.0,81,13,12.9,101.64,Cloudy
2941,2012-05-02 13:00:00,78.84,11.8,8.3,79,17,12.9,101.57,Cloudy
2942,2012-05-02 14:00:00,81.0,13.0,8.5,74,11,16.1,101.51,Mostly Cloudy
2943,2012-05-02 15:00:00,82.8,14.0,9.1,72,19,16.1,101.42,Mostly Cloudy
2944,2012-05-02 16:00:00,84.42,14.9,9.0,68,19,19.3,101.37,Mostly Cloudy
2945,2012-05-02 17:00:00,85.32,15.4,8.9,65,17,24.1,101.31,Mostly Cloudy
2946,2012-05-02 18:00:00,85.32,15.4,9.0,66,15,24.1,101.28,Cloudy
2947,2012-05-02 19:00:00,84.96000000000001,15.2,9.0,66,15,24.1,101.29,Mostly Cloudy
2948,2012-05-02 20:00:00,83.16000000000001,14.2,9.0,71,11,25.0,101.34,Mostly Cloudy
2949,2012-05-02 21:00:00,83.16000000000001,14.2,8.0,66,17,25.0,101.27,Mostly Cloudy
2950,2012-05-02 22:00:00,81.9,13.5,7.7,68,19,25.0,101.22,Rain Showers
2951,2012-05-02 23:00:00,79.02,11.9,8.7,81,19,25.0,101.18,Rain Showers
2952,2012-05-03 00:00:00,78.48,11.6,8.9,83,17,25.0,101.16,Cloudy
2953,2012-05-03 01:00:00,78.12,11.4,8.9,85,15,25.0,101.17,Cloudy
2954,2012-05-03 02:00:00,78.12,11.4,8.7,83,17,25.0,101.18,Cloudy
2955,2012-05-03 03:00:00,77.76,11.2,8.5,83,15,25.0,101.21,Cloudy
2956,2012-05-03 04:00:00,77.58,11.1,8.4,83,17,25.0,101.24,Cloudy
2957,2012-05-03 05:00:00,77.4,11.0,8.4,84,13,24.1,101.29,Cloudy
2958,2012-05-03 06:00:00,78.12,11.4,8.5,82,13,24.1,101.31,Cloudy
2959,2012-05-03 07:00:00,78.66000000000001,11.7,8.6,81,15,24.1,101.36,Cloudy
2960,2012-05-03 08:00:00,79.92,12.4,8.8,79,15,24.1,101.42,Cloudy
2961,2012-05-03 09:00:00,82.08,13.6,9.6,77,17,24.1,101.42,Cloudy
2962,2012-05-03 10:00:00,83.16000000000001,14.2,9.9,75,13,24.1,101.44,Cloudy
2963,2012-05-03 11:00:00,85.32,15.4,10.3,72,11,24.1,101.41,Cloudy
2964,2012-05-03 12:00:00,85.86000000000001,15.7,10.3,70,15,24.1,101.4,Cloudy
2965,2012-05-03 13:00:00,86.22,15.9,10.7,71,13,24.1,101.38,Cloudy
2966,2012-05-03 14:00:00,86.76,16.2,10.8,70,11,24.1,101.37,Cloudy
2967,2012-05-03 15:00:00,86.76,16.2,11.0,71,7,24.1,101.27,Cloudy
2968,2012-05-03 16:00:00,87.3,16.5,11.4,72,13,24.1,101.17,Cloudy
2969,2012-05-03 17:00:00,87.12,16.4,11.4,72,6,24.1,101.22,Rain Showers
2970,2012-05-03 18:00:00,86.03999999999999,15.8,11.9,78,7,24.1,101.21,Cloudy
2971,2012-05-03 19:00:00,85.86000000000001,15.7,11.4,76,6,24.1,101.18,Cloudy
2972,2012-05-03 20:00:00,84.78,15.1,11.1,77,11,25.0,101.13,Cloudy
2973,2012-05-03 21:00:00,83.16000000000001,14.2,10.8,80,13,25.0,101.04,Mostly Cloudy
2974,2012-05-03 22:00:00,82.44,13.8,10.2,79,11,25.0,101.01,Cloudy
2975,2012-05-03 23:00:00,82.44,13.8,10.4,80,11,25.0,100.99,Rain
2976,2012-05-04 00:00:00,81.9,13.5,10.7,83,13,25.0,100.85,Cloudy
2977,2012-05-04 01:00:00,81.53999999999999,13.3,10.8,85,17,25.0,100.7,Cloudy
2978,2012-05-04 02:00:00,81.18,13.1,11.0,87,13,9.7,100.75,"Drizzle,Fog"
2979,2012-05-04 03:00:00,81.36000000000001,13.2,11.2,88,11,8.0,100.66,"Drizzle,Fog"
2980,2012-05-04 04:00:00,81.18,13.1,11.2,88,6,8.0,100.7,"Drizzle,Fog"
2981,2012-05-04 05:00:00,81.36000000000001,13.2,11.2,88,6,8.0,100.67,Fog
2982,2012-05-04 06:00:00,81.53999999999999,13.3,11.3,88,11,3.6,100.69,"Drizzle,Fog"
2983,2012-05-04 07:00:00,82.08,13.6,11.7,88,7,4.8,100.7,"Drizzle,Fog"
2984,2012-05-04 08:00:00,82.26,13.7,12.1,90,6,3.6,100.72,"Drizzle,Fog"
2985,2012-05-04 09:00:00,81.9,13.5,11.9,90,11,4.0,100.71,"Drizzle,Fog"
2986,2012-05-04 10:00:00,82.44,13.8,12.0,89,11,9.7,100.71,"Drizzle,Fog"
2987,2012-05-04 11:00:00,83.88000000000001,14.6,12.3,86,7,16.1,100.72,Cloudy
2988,2012-05-04 12:00:00,85.14,15.3,12.2,82,0,24.1,100.7,Cloudy
2989,2012-05-04 13:00:00,86.4,16.0,12.6,80,9,24.1,100.71,Cloudy
2990,2012-05-04 14:00:00,86.4,16.0,12.5,80,9,24.1,100.73,Cloudy
2991,2012-05-04 15:00:00,88.02,16.9,13.0,78,9,24.1,100.72,Cloudy
2992,2012-05-04 16:00:00,87.48,16.6,12.9,79,7,24.1,100.77,Cloudy
2993,2012-05-04 17:00:00,88.38000000000001,17.1,12.9,76,7,24.1,100.79,Cloudy
2994,2012-05-04 18:00:00,88.92,17.4,13.0,75,4,24.1,100.79,Mostly Cloudy
2995,2012-05-04 19:00:00,86.22,15.9,13.0,83,9,9.7,100.82,Rain Showers
2996,2012-05-04 20:00:00,85.32,15.4,13.5,88,9,25.0,100.89,Mostly Cloudy
2997,2012-05-04 21:00:00,82.8,14.0,9.8,76,32,25.0,100.99,Cloudy
2998,2012-05-04 22:00:00,77.4,11.0,5.4,68,30,25.0,101.08,Mostly Cloudy
2999,2012-05-04 23:00:00,75.96000000000001,10.2,4.6,68,17,25.0,101.17,Mostly Cloudy
3000,2012-05-05 00:00:00,72.72,8.4,4.1,74,4,25.0,101.25,Mainly Clear
3001,2012-05-05 01:00:00,71.82,7.9,3.4,73,11,25.0,101.32,Mainly Clear
3002,2012-05-05 02:00:00,71.46000000000001,7.7,2.9,72,11,25.0,101.36,Mainly Clear
3003,2012-05-05 03:00:00,69.3,6.5,1.6,71,15,25.0,101.42,Mainly Clear
3004,2012-05-05 04:00:00,67.86000000000001,5.7,0.2,68,11,25.0,101.44,Mainly Clear
3005,2012-05-05 05:00:00,66.96000000000001,5.2,-0.6,66,17,24.1,101.49,Mainly Clear
3006,2012-05-05 06:00:00,68.22,5.9,-0.7,63,15,48.3,101.55,Mainly Clear
3007,2012-05-05 07:00:00,69.3,6.5,-0.7,60,19,48.3,101.62,Mainly Clear
3008,2012-05-05 08:00:00,71.28,7.6,0.3,60,17,48.3,101.66,Mainly Clear
3009,2012-05-05 09:00:00,72.53999999999999,8.3,0.7,59,9,48.3,101.74,Mainly Clear
3010,2012-05-05 10:00:00,74.52,9.4,1.2,57,11,48.3,101.78,Mainly Clear
3011,2012-05-05 11:00:00,77.03999999999999,10.8,0.8,50,13,48.3,101.73,Mainly Clear
3012,2012-05-05 12:00:00,78.84,11.8,0.4,45,11,48.3,101.69,Mainly Clear
3013,2012-05-05 13:00:00,80.64,12.8,-0.7,39,13,48.3,101.63,Mostly Cloudy
3014,2012-05-05 14:00:00,83.52,14.4,-1.0,35,7,48.3,101.59,Mainly Clear
3015,2012-05-05 15:00:00,85.32,15.4,-1.0,32,6,48.3,101.55,Mainly Clear
3016,2012-05-05 16:00:00,86.4,16.0,-2.4,28,17,48.3,101.51,Clear
3017,2012-05-05 17:00:00,86.22,15.9,-1.8,30,9,48.3,101.53,Clear
3018,2012-05-05 18:00:00,85.86000000000001,15.7,-2.8,28,11,48.3,101.52,Mainly Clear
3019,2012-05-05 19:00:00,84.06,14.7,-3.0,29,0,48.3,101.54,Mainly Clear
3020,2012-05-05 20:00:00,80.64,12.8,-2.0,36,4,25.0,101.62,Mainly Clear
3021,2012-05-05 21:00:00,80.28,12.6,-2.7,34,6,25.0,101.65,Mostly Cloudy
3022,2012-05-05 22:00:00,81.18,13.1,-4.2,30,9,25.0,101.65,Cloudy
3023,2012-05-05 23:00:00,80.46000000000001,12.7,-5.0,29,13,25.0,101.64,Cloudy
3024,2012-05-06 00:00:00,79.38000000000001,12.1,-4.7,31,9,25.0,101.67,Mostly Cloudy
3025,2012-05-06 01:00:00,77.22,10.9,-4.1,35,15,25.0,101.61,Mainly Clear
3026,2012-05-06 02:00:00,71.64,7.8,-3.2,46,13,25.0,101.63,Mainly Clear
3027,2012-05-06 03:00:00,70.2,7.0,-2.0,53,17,25.0,101.67,Mainly Clear
3028,2012-05-06 04:00:00,69.48,6.6,-3.6,48,17,25.0,101.67,Mainly Clear
3029,2012-05-06 05:00:00,68.76,6.2,-3.4,50,20,48.3,101.71,Mostly Cloudy
3030,2012-05-06 06:00:00,70.74,7.3,-3.1,48,22,48.3,101.72,Cloudy
3031,2012-05-06 07:00:00,72.36000000000001,8.2,-2.3,47,22,48.3,101.78,Cloudy
3032,2012-05-06 08:00:00,75.24,9.8,-1.1,47,17,48.3,101.81,Mostly Cloudy
3033,2012-05-06 09:00:00,77.4,11.0,-0.9,44,20,48.3,101.86,Mainly Clear
3034,2012-05-06 10:00:00,79.74,12.3,-1.1,39,15,48.3,101.84,Mainly Clear
3035,2012-05-06 11:00:00,82.44,13.8,-4.0,29,15,48.3,101.77,Mainly Clear
3036,2012-05-06 12:00:00,84.06,14.7,-2.9,30,6,48.3,101.74,Mainly Clear
3037,2012-05-06 13:00:00,84.60000000000001,15.0,-1.2,33,7,48.3,101.66,Mainly Clear
3038,2012-05-06 14:00:00,85.86000000000001,15.7,-2.3,29,9,48.3,101.61,Mainly Clear
3039,2012-05-06 15:00:00,87.48,16.6,-3.0,26,6,48.3,101.61,Mainly Clear
3040,2012-05-06 16:00:00,87.48,16.6,-2.7,27,7,48.3,101.6,Mainly Clear
3041,2012-05-06 17:00:00,87.48,16.6,-1.7,29,11,48.3,101.57,Mainly Clear
3042,2012-05-06 18:00:00,86.58,16.1,-2.7,27,11,48.3,101.56,Mainly Clear
3043,2012-05-06 19:00:00,83.52,14.4,-1.8,33,9,48.3,101.56,Mostly Cloudy
3044,2012-05-06 20:00:00,81.18,13.1,-1.4,37,9,25.0,101.58,Mainly Clear
3045,2012-05-06 21:00:00,79.74,12.3,-1.0,40,6,25.0,101.57,Mainly Clear
3046,2012-05-06 22:00:00,78.66000000000001,11.7,-1.6,40,0,25.0,101.58,Mainly Clear
3047,2012-05-06 23:00:00,77.58,11.1,-2.1,40,0,25.0,101.57,Clear
3048,2012-05-07 00:00:00,75.42,9.9,-1.6,45,0,25.0,101.57,Clear
3049,2012-05-07 01:00:00,70.02,6.9,0.3,63,0,25.0,101.55,Clear
3050,2012-05-07 02:00:00,66.96000000000001,5.2,-0.8,65,4,25.0,101.56,Clear
3051,2012-05-07 03:00:00,65.88000000000001,4.6,-0.4,70,4,25.0,101.55,Clear
3052,2012-05-07 04:00:00,66.78,5.1,0.6,73,0,25.0,101.61,Clear
3053,2012-05-07 05:00:00,67.86000000000001,5.7,0.4,69,4,48.3,101.6,Clear
3054,2012-05-07 06:00:00,72.36000000000001,8.2,3.3,71,6,48.3,101.63,Clear
3055,2012-05-07 07:00:00,79.74,12.3,0.6,45,4,48.3,101.64,Clear
3056,2012-05-07 08:00:00,82.8,14.0,1.0,41,7,48.3,101.67,Clear
3057,2012-05-07 09:00:00,86.4,16.0,-3.0,27,7,48.3,101.68,Clear
3058,2012-05-07 10:00:00,88.38000000000001,17.1,-5.9,20,13,48.3,101.67,Clear
3059,2012-05-07 11:00:00,89.64,17.8,-3.1,24,7,48.3,101.59,Mainly Clear
3060,2012-05-07 12:00:00,91.62,18.9,-4.2,21,13,48.3,101.48,Mainly Clear
3061,2012-05-07 13:00:00,93.06,19.7,-2.3,22,13,48.3,101.43,Mainly Clear
3062,2012-05-07 14:00:00,93.78,20.1,-3.6,20,19,48.3,101.36,Mainly Clear
3063,2012-05-07 15:00:00,94.68,20.6,-2.3,21,7,48.3,101.25,Mostly Cloudy
3064,2012-05-07 16:00:00,95.22,20.9,-2.0,21,11,48.3,101.14,Mostly Cloudy
3065,2012-05-07 17:00:00,95.4,21.0,-2.9,20,13,48.3,101.07,Mostly Cloudy
3066,2012-05-07 18:00:00,94.86000000000001,20.7,-4.4,18,13,48.3,101.0,Mostly Cloudy
3067,2012-05-07 19:00:00,93.42,19.9,-4.0,20,11,48.3,100.93,Mostly Cloudy
3068,2012-05-07 20:00:00,92.16000000000001,19.2,-3.8,21,13,25.0,100.9,Mostly Cloudy
3069,2012-05-07 21:00:00,91.26,18.7,-4.1,21,15,25.0,100.87,Clear
3070,2012-05-07 22:00:00,90.18,18.1,-3.5,23,17,25.0,100.84,Mainly Clear
3071,2012-05-07 23:00:00,89.28,17.6,-2.2,26,15,25.0,100.77,Mostly Cloudy
3072,2012-05-08 00:00:00,86.58,16.1,0.2,34,11,25.0,100.77,Mostly Cloudy
3073,2012-05-08 01:00:00,86.4,16.0,4.8,47,15,25.0,100.74,Rain Showers
3074,2012-05-08 02:00:00,84.24,14.8,5.4,53,4,25.0,100.71,Cloudy
3075,2012-05-08 03:00:00,84.96000000000001,15.2,6.6,56,6,25.0,100.64,Rain
3076,2012-05-08 04:00:00,83.16000000000001,14.2,10.4,78,17,25.0,100.6,Rain
3077,2012-05-08 05:00:00,82.26,13.7,10.3,80,19,24.1,100.53,Cloudy
3078,2012-05-08 06:00:00,80.28,12.6,10.4,86,22,9.7,100.51,Rain
3079,2012-05-08 07:00:00,79.56,12.2,10.1,87,24,6.4,100.48,Rain
3080,2012-05-08 08:00:00,78.48,11.6,9.5,87,26,6.4,100.45,Rain
3081,2012-05-08 09:00:00,77.58,11.1,9.1,87,32,6.4,100.41,Rain
3082,2012-05-08 10:00:00,77.22,10.9,8.9,87,26,8.0,100.39,"Rain,Fog"
3083,2012-05-08 11:00:00,77.4,11.0,9.2,89,20,6.4,100.37,"Rain,Fog"
3084,2012-05-08 12:00:00,77.58,11.1,9.3,89,19,6.4,100.37,"Rain,Fog"
3085,2012-05-08 13:00:00,78.3,11.5,9.6,88,17,6.4,100.35,"Rain,Fog"
3086,2012-05-08 14:00:00,78.66000000000001,11.7,9.9,89,19,8.0,100.32,"Rain,Fog"
3087,2012-05-08 15:00:00,79.2,12.0,10.0,88,17,12.9,100.3,Rain
3088,2012-05-08 16:00:00,79.56,12.2,10.3,88,15,12.9,100.28,Rain
3089,2012-05-08 17:00:00,79.56,12.2,10.3,88,9,12.9,100.29,Rain
3090,2012-05-08 18:00:00,79.38000000000001,12.1,10.3,89,11,9.7,100.29,"Rain,Fog"
3091,2012-05-08 19:00:00,79.74,12.3,10.5,89,6,8.0,100.3,Fog
3092,2012-05-08 20:00:00,79.38000000000001,12.1,10.5,90,9,8.0,100.33,"Drizzle,Fog"
3093,2012-05-08 21:00:00,79.56,12.2,10.6,90,6,8.0,100.31,Fog
3094,2012-05-08 22:00:00,79.74,12.3,10.7,90,6,8.0,100.3,Fog
3095,2012-05-08 23:00:00,79.92,12.4,10.9,91,4,6.4,100.26,"Drizzle,Fog"
3096,2012-05-09 00:00:00,80.10000000000001,12.5,11.0,91,0,3.2,100.27,"Rain,Fog"
3097,2012-05-09 01:00:00,80.28,12.6,11.2,91,0,3.2,100.2,"Rain,Fog"
3098,2012-05-09 02:00:00,80.64,12.8,11.3,91,6,6.4,100.14,"Drizzle,Fog"
3099,2012-05-09 03:00:00,80.82,12.9,11.4,91,6,4.8,100.13,"Drizzle,Fog"
3100,2012-05-09 04:00:00,81.0,13.0,11.6,91,6,3.2,100.08,"Drizzle,Fog"
3101,2012-05-09 05:00:00,81.9,13.5,12.0,91,9,2.4,100.07,"Drizzle,Fog"
3102,2012-05-09 06:00:00,82.26,13.7,12.2,91,13,2.4,100.08,"Drizzle,Fog"
3103,2012-05-09 07:00:00,83.34,14.3,12.5,89,15,4.8,100.12,Fog
3104,2012-05-09 08:00:00,83.34,14.3,12.3,88,17,6.4,100.12,Fog
3105,2012-05-09 09:00:00,82.8,14.0,12.3,89,9,4.0,100.1,"Drizzle,Fog"
3106,2012-05-09 10:00:00,84.42,14.9,12.2,84,17,16.1,100.07,Cloudy
3107,2012-05-09 11:00:00,86.58,16.1,13.3,83,9,24.1,100.03,Cloudy
3108,2012-05-09 12:00:00,86.58,16.1,11.7,75,19,24.1,100.02,Cloudy
3109,2012-05-09 13:00:00,88.92,17.4,12.0,71,15,24.1,99.96,Mostly Cloudy
3110,2012-05-09 14:00:00,89.82,17.9,11.2,65,15,24.1,99.88,Mostly Cloudy
3111,2012-05-09 15:00:00,91.8,19.0,11.4,61,13,24.1,99.78,Mostly Cloudy
3112,2012-05-09 16:00:00,92.16000000000001,19.2,10.4,57,13,24.1,99.72,Cloudy
3113,2012-05-09 17:00:00,91.62,18.9,10.2,57,7,24.1,99.67,Cloudy
3114,2012-05-09 18:00:00,87.84,16.8,10.6,67,20,24.1,99.68,Cloudy
3115,2012-05-09 19:00:00,86.94,16.3,10.9,70,11,24.1,99.68,Mostly Cloudy
3116,2012-05-09 20:00:00,86.22,15.9,11.0,73,7,25.0,99.68,Mostly Cloudy
3117,2012-05-09 21:00:00,85.32,15.4,9.5,68,11,25.0,99.67,Mostly Cloudy
3118,2012-05-09 22:00:00,83.34,14.3,9.4,72,13,25.0,99.67,Mainly Clear
3119,2012-05-09 23:00:00,79.02,11.9,8.3,79,4,25.0,99.65,Mainly Clear
3120,2012-05-10 00:00:00,79.56,12.2,8.4,78,15,25.0,99.66,Mostly Cloudy
3121,2012-05-10 01:00:00,78.48,11.6,8.6,82,6,25.0,99.62,Mostly Cloudy
3122,2012-05-10 02:00:00,77.4,11.0,8.5,85,7,25.0,99.59,Cloudy
3123,2012-05-10 03:00:00,78.12,11.4,8.9,85,6,16.1,99.55,Cloudy
3124,2012-05-10 04:00:00,78.12,11.4,9.0,85,11,16.1,99.5,Cloudy
3125,2012-05-10 05:00:00,77.22,10.9,8.1,83,17,24.1,99.47,Cloudy
3126,2012-05-10 06:00:00,75.96000000000001,10.2,7.3,82,22,24.1,99.5,Cloudy
3127,2012-05-10 07:00:00,73.62,8.9,6.1,83,20,24.1,99.51,Cloudy
3128,2012-05-10 08:00:00,73.8,9.0,5.6,79,20,24.1,99.51,Cloudy
3129,2012-05-10 09:00:00,73.8,9.0,5.0,76,26,24.1,99.51,Cloudy
3130,2012-05-10 10:00:00,74.34,9.3,5.2,76,28,24.1,99.52,Cloudy
3131,2012-05-10 11:00:00,76.5,10.5,5.6,72,28,24.1,99.48,Cloudy
3132,2012-05-10 12:00:00,75.60000000000001,10.0,5.4,73,30,24.1,99.48,Cloudy
3133,2012-05-10 13:00:00,76.32,10.4,6.0,74,26,24.1,99.46,Cloudy
3134,2012-05-10 14:00:00,75.78,10.1,5.9,75,30,24.1,99.48,Cloudy
3135,2012-05-10 15:00:00,76.5,10.5,5.3,70,28,24.1,99.51,Cloudy
3136,2012-05-10 16:00:00,75.96000000000001,10.2,6.0,75,19,24.1,99.55,Rain Showers
3137,2012-05-10 17:00:00,75.96000000000001,10.2,5.1,71,26,24.1,99.6,Cloudy
3138,2012-05-10 18:00:00,75.24,9.8,6.0,77,19,24.1,99.68,Rain Showers
3139,2012-05-10 19:00:00,74.7,9.5,6.2,80,15,24.1,99.73,Rain Showers
3140,2012-05-10 20:00:00,74.52,9.4,5.6,77,20,25.0,99.79,Rain Showers
3141,2012-05-10 21:00:00,74.16000000000001,9.2,5.0,75,20,25.0,99.88,Rain
3142,2012-05-10 22:00:00,74.16000000000001,9.2,4.1,70,24,25.0,99.92,Mostly Cloudy
3143,2012-05-10 23:00:00,73.8,9.0,3.1,66,17,25.0,100.0,Mostly Cloudy
3144,2012-05-11 00:00:00,73.26,8.7,2.7,66,15,25.0,100.07,Rain Showers
3145,2012-05-11 01:00:00,72.72,8.4,3.1,69,22,25.0,100.14,Rain Showers
3146,2012-05-11 02:00:00,70.74,7.3,3.5,77,17,25.0,100.22,Rain
3147,2012-05-11 03:00:00,70.74,7.3,2.4,71,19,25.0,100.3,Cloudy
3148,2012-05-11 04:00:00,70.74,7.3,2.1,70,7,25.0,100.39,Rain
3149,2012-05-11 05:00:00,71.10000000000001,7.5,2.5,71,7,24.1,100.42,Cloudy
3150,2012-05-11 06:00:00,73.26,8.7,2.9,67,17,48.3,100.49,Cloudy
3151,2012-05-11 07:00:00,74.7,9.5,2.3,61,19,48.3,100.54,Mostly Cloudy
3152,2012-05-11 08:00:00,77.94,11.3,3.0,57,19,48.3,100.6,Mostly Cloudy
3153,2012-05-11 09:00:00,78.66000000000001,11.7,1.6,50,19,48.3,100.63,Mainly Clear
3154,2012-05-11 10:00:00,81.18,13.1,1.4,45,22,48.3,100.64,Mainly Clear
3155,2012-05-11 11:00:00,83.88000000000001,14.6,-0.9,34,24,48.3,100.65,Mainly Clear
3156,2012-05-11 12:00:00,85.14,15.3,-1.4,32,22,48.3,100.67,Mainly Clear
3157,2012-05-11 13:00:00,87.12,16.4,-1.3,30,20,48.3,100.7,Mainly Clear
3158,2012-05-11 14:00:00,89.28,17.6,-1.0,28,32,48.3,100.72,Mainly Clear
3159,2012-05-11 15:00:00,88.38000000000001,17.1,-1.8,27,26,48.3,100.76,Mainly Clear
3160,2012-05-11 16:00:00,89.64,17.8,-2.1,26,26,48.3,100.78,Mainly Clear
3161,2012-05-11 17:00:00,89.28,17.6,-2.2,26,22,48.3,100.82,Mainly Clear
3162,2012-05-11 18:00:00,87.84,16.8,-2.7,26,22,48.3,100.87,Clear
3163,2012-05-11 19:00:00,84.78,15.1,-2.9,29,13,48.3,100.95,Clear
3164,2012-05-11 20:00:00,79.38000000000001,12.1,-2.1,37,11,25.0,101.04,Clear
3165,2012-05-11 21:00:00,75.96000000000001,10.2,-2.1,42,9,25.0,101.1,Clear
3166,2012-05-11 22:00:00,71.46000000000001,7.7,-1.2,53,9,25.0,101.15,Clear
3167,2012-05-11 23:00:00,71.64,7.8,-0.9,54,9,25.0,101.19,Clear
3168,2012-05-12 00:00:00,70.38000000000001,7.1,-0.6,58,9,25.0,101.19,Clear
3169,2012-05-12 01:00:00,75.24,9.8,-1.1,47,7,25.0,101.22,Clear
3170,2012-05-12 02:00:00,72.9,8.5,-1.0,51,0,25.0,101.23,Clear
3171,2012-05-12 03:00:00,70.2,7.0,-0.5,59,4,25.0,101.28,Clear
3172,2012-05-12 04:00:00,71.82,7.9,-1.0,53,11,25.0,101.35,Clear
3173,2012-05-12 05:00:00,70.74,7.3,-1.4,54,6,48.3,101.37,Clear
3174,2012-05-12 06:00:00,74.52,9.4,-0.5,50,7,48.3,101.42,Clear
3175,2012-05-12 07:00:00,77.58,11.1,2.3,55,11,48.3,101.45,Clear
3176,2012-05-12 08:00:00,80.82,12.9,2.4,49,11,48.3,101.46,Clear
3177,2012-05-12 09:00:00,83.88000000000001,14.6,4.5,51,13,48.3,101.43,Clear
3178,2012-05-12 10:00:00,87.66000000000001,16.7,4.6,45,15,48.3,101.41,Clear
3179,2012-05-12 11:00:00,91.08,18.6,4.0,38,20,48.3,101.36,Mostly Cloudy
3180,2012-05-12 12:00:00,94.32,20.4,5.0,36,22,48.3,101.3,Cloudy
3181,2012-05-12 13:00:00,97.2,22.0,5.6,34,24,48.3,101.25,Mostly Cloudy
3182,2012-05-12 14:00:00,97.92,22.4,6.8,36,28,48.3,101.23,Cloudy
3183,2012-05-12 15:00:00,100.62,23.9,6.9,34,26,48.3,101.22,Mostly Cloudy
3184,2012-05-12 16:00:00,100.08,23.6,7.7,36,22,48.3,101.19,Mostly Cloudy
3185,2012-05-12 17:00:00,98.64,22.8,7.3,37,20,48.3,101.21,Cloudy
3186,2012-05-12 18:00:00,98.64,22.8,5.5,33,17,48.3,101.26,Cloudy
3187,2012-05-12 19:00:00,97.2,22.0,6.2,36,20,48.3,101.27,Cloudy
3188,2012-05-12 20:00:00,94.86000000000001,20.7,7.3,42,0,25.0,101.34,Cloudy
3189,2012-05-12 21:00:00,92.34,19.3,7.8,47,11,25.0,101.37,Rain Showers
3190,2012-05-12 22:00:00,90.72,18.4,8.8,54,6,25.0,101.34,Rain
3191,2012-05-12 23:00:00,87.48,16.6,9.5,63,6,25.0,101.32,Cloudy
3192,2012-05-13 00:00:00,87.3,16.5,10.0,65,7,25.0,101.34,Cloudy
3193,2012-05-13 01:00:00,86.4,16.0,10.0,68,7,25.0,101.31,Cloudy
3194,2012-05-13 02:00:00,86.22,15.9,10.4,70,6,25.0,101.32,Rain Showers
3195,2012-05-13 03:00:00,85.32,15.4,10.9,75,6,25.0,101.39,Cloudy
3196,2012-05-13 04:00:00,84.78,15.1,10.9,76,11,25.0,101.5,Rain Showers
3197,2012-05-13 05:00:00,82.98,14.1,11.5,84,6,24.1,101.51,Rain
3198,2012-05-13 06:00:00,82.98,14.1,11.8,86,11,24.1,101.58,Rain
3199,2012-05-13 07:00:00,83.16000000000001,14.2,12.0,87,13,24.1,101.63,Rain
3200,2012-05-13 08:00:00,83.7,14.5,12.3,87,11,24.1,101.6,Cloudy
3201,2012-05-13 09:00:00,85.86000000000001,15.7,12.5,81,13,24.1,101.63,Cloudy
3202,2012-05-13 10:00:00,88.2,17.0,12.3,74,9,24.1,101.63,Cloudy
3203,2012-05-13 11:00:00,88.56,17.2,11.2,68,17,24.1,101.63,Cloudy
3204,2012-05-13 12:00:00,90.18,18.1,10.7,62,13,24.1,101.61,Cloudy
3205,2012-05-13 13:00:00,92.7,19.5,9.0,51,11,24.1,101.59,Cloudy
3206,2012-05-13 14:00:00,92.88000000000001,19.6,6.8,43,20,48.3,101.56,Mostly Cloudy
3207,2012-05-13 15:00:00,93.60000000000001,20.0,5.8,39,11,48.3,101.53,Mostly Cloudy
3208,2012-05-13 16:00:00,95.22,20.9,4.0,33,11,48.3,101.5,Mostly Cloudy
3209,2012-05-13 17:00:00,94.32,20.4,4.1,34,15,48.3,101.48,Mainly Clear
3210,2012-05-13 18:00:00,93.06,19.7,5.1,38,17,48.3,101.47,Clear
3211,2012-05-13 19:00:00,91.44,18.8,5.7,42,13,48.3,101.49,Mainly Clear
3212,2012-05-13 20:00:00,87.84,16.8,5.8,48,11,25.0,101.5,Mainly Clear
3213,2012-05-13 21:00:00,81.72,13.4,6.5,63,7,25.0,101.54,Clear
3214,2012-05-13 22:00:00,80.46000000000001,12.7,6.4,65,7,25.0,101.54,Clear
3215,2012-05-13 23:00:00,81.53999999999999,13.3,6.6,64,0,25.0,101.54,Clear
3216,2012-05-14 00:00:00,78.84,11.8,6.8,71,6,25.0,101.53,Clear
3217,2012-05-14 01:00:00,80.64,12.8,7.1,68,6,25.0,101.51,Clear
3218,2012-05-14 02:00:00,79.2,12.0,6.9,71,4,25.0,101.5,Clear
3219,2012-05-14 03:00:00,79.2,12.0,6.9,71,0,25.0,101.5,Clear
3220,2012-05-14 04:00:00,72.36000000000001,8.2,5.4,82,4,25.0,101.51,Mainly Clear
3221,2012-05-14 05:00:00,72.53999999999999,8.3,5.7,84,0,24.1,101.54,Mainly Clear
3222,2012-05-14 06:00:00,79.2,12.0,8.4,79,0,48.3,101.56,Mostly Cloudy
3223,2012-05-14 07:00:00,85.68,15.6,9.5,67,0,48.3,101.58,Mostly Cloudy
3224,2012-05-14 08:00:00,88.38000000000001,17.1,9.6,61,6,48.3,101.59,Mainly Clear
3225,2012-05-14 09:00:00,92.16000000000001,19.2,8.6,50,6,48.3,101.54,Mostly Cloudy
3226,2012-05-14 10:00:00,93.78,20.1,7.7,45,11,48.3,101.5,Mostly Cloudy
3227,2012-05-14 11:00:00,95.76,21.2,7.7,42,13,48.3,101.44,Mostly Cloudy
3228,2012-05-14 12:00:00,97.02,21.9,8.0,41,17,48.3,101.36,Mainly Clear
3229,2012-05-14 13:00:00,97.2,22.0,7.4,39,17,48.3,101.32,Mainly Clear
3230,2012-05-14 14:00:00,99.36000000000001,23.2,8.5,39,0,48.3,101.24,Mainly Clear
3231,2012-05-14 15:00:00,99.36000000000001,23.2,9.2,41,9,48.3,101.17,Mainly Clear
3232,2012-05-14 16:00:00,99.72,23.4,10.0,43,9,48.3,101.13,Mainly Clear
3233,2012-05-14 17:00:00,99.9,23.5,11.3,46,6,48.3,101.11,Mostly Cloudy
3234,2012-05-14 18:00:00,98.82,22.9,12.1,51,9,48.3,101.1,Mostly Cloudy
3235,2012-05-14 19:00:00,96.3,21.5,12.4,56,15,48.3,101.11,Cloudy
3236,2012-05-14 20:00:00,93.24,19.8,12.6,63,17,25.0,101.15,Mostly Cloudy
3237,2012-05-14 21:00:00,90.53999999999999,18.3,12.6,69,15,25.0,101.18,Mainly Clear
3238,2012-05-14 22:00:00,89.10000000000001,17.5,12.7,73,6,25.0,101.2,Mostly Cloudy
3239,2012-05-14 23:00:00,89.10000000000001,17.5,13.1,75,7,25.0,101.22,Mostly Cloudy
3240,2012-05-15 00:00:00,86.4,16.0,12.2,78,11,25.0,101.23,Mainly Clear
3241,2012-05-15 01:00:00,87.48,16.6,12.1,75,6,25.0,101.23,Mainly Clear
3242,2012-05-15 02:00:00,86.03999999999999,15.8,12.7,82,9,25.0,101.21,Mostly Cloudy
3243,2012-05-15 03:00:00,86.22,15.9,13.1,83,11,25.0,101.19,Mostly Cloudy
3244,2012-05-15 04:00:00,86.4,16.0,13.1,83,11,25.0,101.19,Mostly Cloudy
3245,2012-05-15 05:00:00,86.22,15.9,12.9,82,11,24.1,101.21,Cloudy
3246,2012-05-15 06:00:00,86.94,16.3,12.9,80,9,24.1,101.23,Cloudy
3247,2012-05-15 07:00:00,87.12,16.4,13.8,85,7,24.1,101.24,Cloudy
3248,2012-05-15 08:00:00,88.74,17.3,13.9,80,11,24.1,101.23,Cloudy
3249,2012-05-15 09:00:00,91.26,18.7,14.5,77,9,24.1,101.2,Cloudy
3250,2012-05-15 10:00:00,94.86000000000001,20.7,15.0,70,7,24.1,101.17,Mostly Cloudy
3251,2012-05-15 11:00:00,94.14,20.3,14.3,68,11,24.1,101.12,Cloudy
3252,2012-05-15 12:00:00,94.86000000000001,20.7,15.0,70,13,24.1,101.06,Mostly Cloudy
3253,2012-05-15 13:00:00,93.78,20.1,14.6,71,20,24.1,101.02,Cloudy
3254,2012-05-15 14:00:00,92.16000000000001,19.2,14.4,74,19,24.1,100.98,Cloudy
3255,2012-05-15 15:00:00,89.64,17.8,15.2,85,9,16.1,100.95,Rain Showers
3256,2012-05-15 16:00:00,90.36000000000001,18.2,15.4,84,15,24.1,100.9,Cloudy
3257,2012-05-15 17:00:00,90.36000000000001,18.2,15.3,83,17,24.1,100.85,Mostly Cloudy
3258,2012-05-15 18:00:00,89.82,17.9,15.1,84,19,24.1,100.83,Mostly Cloudy
3259,2012-05-15 19:00:00,88.92,17.4,15.0,86,17,24.1,100.81,Mostly Cloudy
3260,2012-05-15 20:00:00,88.2,17.0,14.4,85,17,24.1,100.79,Mostly Cloudy
3261,2012-05-15 21:00:00,87.48,16.6,14.0,85,15,25.0,100.77,Mostly Cloudy
3262,2012-05-15 22:00:00,86.22,15.9,13.6,86,11,25.0,100.75,Clear
3263,2012-05-15 23:00:00,85.32,15.4,13.2,87,11,25.0,100.74,Clear
3264,2012-05-16 00:00:00,83.88000000000001,14.6,12.6,88,4,25.0,100.71,Clear
3265,2012-05-16 01:00:00,82.62,13.9,12.0,88,6,25.0,100.66,Clear
3266,2012-05-16 02:00:00,82.62,13.9,12.0,88,6,25.0,100.6,Clear
3267,2012-05-16 03:00:00,81.53999999999999,13.3,11.4,88,0,25.0,100.58,Clear
3268,2012-05-16 04:00:00,80.82,12.9,11.0,88,6,19.3,100.59,Mainly Clear
3269,2012-05-16 05:00:00,81.0,13.0,11.1,88,0,16.1,100.56,Mostly Cloudy
3270,2012-05-16 06:00:00,82.44,13.8,12.0,89,11,19.3,100.56,Mostly Cloudy
3271,2012-05-16 07:00:00,84.60000000000001,15.0,12.8,87,9,24.1,100.57,Mostly Cloudy
3272,2012-05-16 08:00:00,89.10000000000001,17.5,13.9,79,9,24.1,100.54,Mostly Cloudy
3273,2012-05-16 09:00:00,93.78,20.1,14.2,69,13,24.1,100.45,Mainly Clear
3274,2012-05-16 10:00:00,97.02,21.9,14.1,61,15,24.1,100.35,Mainly Clear
3275,2012-05-16 11:00:00,97.2,22.0,13.1,57,20,19.3,100.35,Mostly Cloudy
3276,2012-05-16 12:00:00,98.82,22.9,12.5,52,11,24.1,100.23,Mostly Cloudy
3277,2012-05-16 13:00:00,99.72,23.4,12.3,50,15,24.1,100.21,Mostly Cloudy
3278,2012-05-16 14:00:00,89.82,17.9,13.2,74,19,19.3,100.22,Cloudy
3279,2012-05-16 15:00:00,92.34,19.3,10.4,56,32,24.1,100.29,Mostly Cloudy
3280,2012-05-16 16:00:00,91.26,18.7,10.2,58,33,24.1,100.27,Mostly Cloudy
3281,2012-05-16 17:00:00,89.28,17.6,10.7,64,22,24.1,100.32,Mostly Cloudy
3282,2012-05-16 18:00:00,90.36000000000001,18.2,11.1,63,26,24.1,100.35,Mainly Clear
3283,2012-05-16 19:00:00,89.28,17.6,10.7,64,22,24.1,100.34,Mainly Clear
3284,2012-05-16 20:00:00,88.38000000000001,17.1,9.9,63,17,25.0,100.37,Mainly Clear
3285,2012-05-16 21:00:00,83.16000000000001,14.2,6.9,61,17,25.0,100.53,Mostly Cloudy
3286,2012-05-16 22:00:00,81.53999999999999,13.3,5.7,60,20,25.0,100.66,Mostly Cloudy
3287,2012-05-16 23:00:00,78.3,11.5,3.2,57,22,25.0,100.82,Mostly Cloudy
3288,2012-05-17 00:00:00,75.60000000000001,10.0,2.9,61,24,25.0,100.93,Mostly Cloudy
3289,2012-05-17 01:00:00,75.24,9.8,2.1,59,24,25.0,101.05,Mostly Cloudy
3290,2012-05-17 02:00:00,72.53999999999999,8.3,1.6,63,15,25.0,101.07,Clear
3291,2012-05-17 03:00:00,70.74,7.3,1.6,67,15,25.0,101.16,Clear
3292,2012-05-17 04:00:00,69.48,6.6,1.4,69,9,48.3,101.24,Clear
3293,2012-05-17 05:00:00,68.4,6.0,1.0,70,11,48.3,101.32,Clear
3294,2012-05-17 06:00:00,72.9,8.5,1.9,63,9,48.3,101.4,Clear
3295,2012-05-17 07:00:00,75.96000000000001,10.2,1.8,56,15,48.3,101.45,Mostly Cloudy
3296,2012-05-17 08:00:00,76.86000000000001,10.7,2.2,56,15,48.3,101.5,Mostly Cloudy
3297,2012-05-17 09:00:00,77.94,11.3,2.1,53,22,48.3,101.48,Mainly Clear
3298,2012-05-17 10:00:00,79.56,12.2,2.2,50,26,48.3,101.46,Mostly Cloudy
3299,2012-05-17 11:00:00,82.62,13.9,2.5,46,22,48.3,101.49,Mainly Clear
3300,2012-05-17 12:00:00,83.34,14.3,1.8,43,17,48.3,101.49,Mostly Cloudy
3301,2012-05-17 13:00:00,85.32,15.4,0.5,36,26,48.3,101.46,Mainly Clear
3302,2012-05-17 14:00:00,85.14,15.3,0.9,38,20,48.3,101.48,Mainly Clear
3303,2012-05-17 15:00:00,86.03999999999999,15.8,0.4,35,24,48.3,101.46,Mainly Clear
3304,2012-05-17 16:00:00,86.03999999999999,15.8,0.0,34,30,48.3,101.46,Mainly Clear
3305,2012-05-17 17:00:00,85.86000000000001,15.7,0.8,36,24,48.3,101.48,Mainly Clear
3306,2012-05-17 18:00:00,84.78,15.1,0.4,37,20,48.3,101.5,Clear
3307,2012-05-17 19:00:00,82.98,14.1,0.4,39,13,48.3,101.54,Clear
3308,2012-05-17 20:00:00,82.44,13.8,0.6,40,7,48.3,101.58,Mainly Clear
3309,2012-05-17 21:00:00,79.92,12.4,1.4,47,6,25.0,101.64,Clear
3310,2012-05-17 22:00:00,75.78,10.1,2.1,58,0,25.0,101.64,Clear
3311,2012-05-17 23:00:00,75.42,9.9,3.8,66,7,25.0,101.7,Clear
3312,2012-05-18 00:00:00,76.32,10.4,2.6,58,13,25.0,101.72,Mainly Clear
3313,2012-05-18 01:00:00,75.42,9.9,2.4,60,7,25.0,101.73,Clear
3314,2012-05-18 02:00:00,74.16000000000001,9.2,2.3,62,9,25.0,101.75,Clear
3315,2012-05-18 03:00:00,73.08,8.6,2.0,63,11,25.0,101.77,Clear
3316,2012-05-18 04:00:00,73.08,8.6,1.5,61,9,48.3,101.77,Clear
3317,2012-05-18 05:00:00,71.46000000000001,7.7,1.5,65,9,48.3,101.79,Mainly Clear
3318,2012-05-18 06:00:00,75.78,10.1,3.3,63,11,48.3,101.84,Mainly Clear
3319,2012-05-18 07:00:00,77.76,11.2,2.9,57,20,48.3,101.9,Mainly Clear
3320,2012-05-18 08:00:00,81.0,13.0,4.6,57,15,48.3,101.91,Mostly Cloudy
3321,2012-05-18 09:00:00,83.52,14.4,4.6,52,17,48.3,101.94,Mainly Clear
3322,2012-05-18 10:00:00,87.12,16.4,4.7,46,22,48.3,101.91,Mainly Clear
3323,2012-05-18 11:00:00,90.18,18.1,5.9,45,17,48.3,101.89,Mainly Clear
3324,2012-05-18 12:00:00,90.53999999999999,18.3,4.2,39,20,48.3,101.82,Mainly Clear
3325,2012-05-18 13:00:00,93.06,19.7,-0.7,25,22,48.3,101.75,Mainly Clear
3326,2012-05-18 14:00:00,93.78,20.1,2.6,31,22,48.3,101.73,Mostly Cloudy
3327,2012-05-18 15:00:00,95.03999999999999,20.8,1.7,28,20,48.3,101.66,Mainly Clear
3328,2012-05-18 16:00:00,94.5,20.5,0.9,27,19,48.3,101.64,Mostly Cloudy
3329,2012-05-18 17:00:00,95.22,20.9,2.5,30,17,48.3,101.59,Mostly Cloudy
3330,2012-05-18 18:00:00,94.32,20.4,4.0,34,13,48.3,101.57,Mostly Cloudy
3331,2012-05-18 19:00:00,89.46000000000001,17.7,4.2,41,9,48.3,101.58,Mostly Cloudy
3332,2012-05-18 20:00:00,87.48,16.6,4.2,44,4,25.0,101.59,Mostly Cloudy
3333,2012-05-18 21:00:00,83.52,14.4,5.3,54,6,25.0,101.62,Clear
3334,2012-05-18 22:00:00,83.52,14.4,5.0,53,6,25.0,101.63,Mainly Clear
3335,2012-05-18 23:00:00,82.8,14.0,5.9,58,6,25.0,101.64,Mainly Clear
3336,2012-05-19 00:00:00,82.44,13.8,6.9,63,6,25.0,101.65,Mainly Clear
3337,2012-05-19 01:00:00,83.16000000000001,14.2,6.6,60,9,25.0,101.68,Mainly Clear
3338,2012-05-19 02:00:00,81.18,13.1,8.3,73,7,25.0,101.68,Mostly Cloudy
3339,2012-05-19 03:00:00,81.53999999999999,13.3,7.2,67,9,25.0,101.68,Mostly Cloudy
3340,2012-05-19 04:00:00,81.18,13.1,7.2,67,9,48.3,101.69,Mostly Cloudy
3341,2012-05-19 05:00:00,78.84,11.8,6.4,69,7,48.3,101.7,Mostly Cloudy
3342,2012-05-19 06:00:00,82.44,13.8,7.1,64,6,48.3,101.75,Mostly Cloudy
3343,2012-05-19 07:00:00,84.06,14.7,6.8,59,9,48.3,101.72,Mainly Clear
3344,2012-05-19 08:00:00,88.74,17.3,7.2,51,9,48.3,101.72,Mainly Clear
3345,2012-05-19 09:00:00,91.98,19.1,6.6,44,7,48.3,101.73,Mostly Cloudy
3346,2012-05-19 10:00:00,95.4,21.0,7.8,43,4,48.3,101.74,Mainly Clear
3347,2012-05-19 11:00:00,97.74,22.3,8.5,41,11,48.3,101.72,Mainly Clear
3348,2012-05-19 12:00:00,99.72,23.4,7.7,37,19,48.3,101.64,Mainly Clear
3349,2012-05-19 13:00:00,100.98,24.1,7.0,33,15,48.3,101.61,Mostly Cloudy
3350,2012-05-19 14:00:00,103.32,25.4,7.3,32,15,48.3,101.56,Mostly Cloudy
3351,2012-05-19 15:00:00,103.68,25.6,7.8,32,15,48.3,101.52,Mostly Cloudy
3352,2012-05-19 16:00:00,104.03999999999999,25.8,6.9,30,15,48.3,101.46,Mostly Cloudy
3353,2012-05-19 17:00:00,104.4,26.0,6.9,30,15,48.3,101.46,Mostly Cloudy
3354,2012-05-19 18:00:00,102.96000000000001,25.2,6.6,30,11,48.3,101.43,Mostly Cloudy
3355,2012-05-19 19:00:00,101.34,24.3,7.6,34,11,48.3,101.47,Mostly Cloudy
3356,2012-05-19 20:00:00,99.9,23.5,8.0,37,6,25.0,101.53,Mainly Clear
3357,2012-05-19 21:00:00,96.48,21.6,8.2,42,9,25.0,101.57,Mainly Clear
3358,2012-05-19 22:00:00,97.02,21.9,6.4,37,7,25.0,101.61,Clear
3359,2012-05-19 23:00:00,90.36000000000001,18.2,8.8,54,4,25.0,101.62,Clear
3360,2012-05-20 00:00:00,90.53999999999999,18.3,7.8,50,0,25.0,101.64,Clear
3361,2012-05-20 01:00:00,88.02,16.9,8.4,57,6,25.0,101.64,Clear
3362,2012-05-20 02:00:00,86.58,16.1,8.6,61,6,25.0,101.67,Clear
3363,2012-05-20 03:00:00,87.84,16.8,8.6,58,9,25.0,101.7,Clear
3364,2012-05-20 04:00:00,84.24,14.8,8.9,68,6,48.3,101.72,Mainly Clear
3365,2012-05-20 05:00:00,84.06,14.7,9.3,70,6,48.3,101.76,Cloudy
3366,2012-05-20 06:00:00,88.38000000000001,17.1,9.2,60,4,48.3,101.81,Mostly Cloudy
3367,2012-05-20 07:00:00,91.26,18.7,9.6,55,7,48.3,101.87,Mostly Cloudy
3368,2012-05-20 08:00:00,94.32,20.4,9.4,49,7,48.3,101.91,Mostly Cloudy
3369,2012-05-20 09:00:00,97.56,22.2,9.6,45,11,48.3,101.93,Mostly Cloudy
3370,2012-05-20 10:00:00,102.24,24.8,9.1,37,11,48.3,101.91,Mostly Cloudy
3371,2012-05-20 11:00:00,105.84,26.8,11.4,38,11,48.3,101.9,Mainly Clear
3372,2012-05-20 12:00:00,109.08,28.6,10.7,33,13,48.3,101.86,Mainly Clear
3373,2012-05-20 13:00:00,110.7,29.5,11.0,32,9,48.3,101.78,Mainly Clear
3374,2012-05-20 14:00:00,113.22,30.9,11.5,30,11,48.3,101.72,Mainly Clear
3375,2012-05-20 15:00:00,113.22,30.9,10.7,29,4,48.3,101.67,Mainly Clear
3376,2012-05-20 16:00:00,113.76,31.2,10.7,28,4,48.3,101.61,Mainly Clear
3377,2012-05-20 17:00:00,113.03999999999999,30.8,10.6,29,13,48.3,101.58,Mostly Cloudy
3378,2012-05-20 18:00:00,110.16000000000001,29.2,11.7,34,15,48.3,101.56,Mostly Cloudy
3379,2012-05-20 19:00:00,106.02,26.9,12.3,40,11,24.1,101.56,Mostly Cloudy
3380,2012-05-20 20:00:00,104.22,25.9,11.6,41,11,24.1,101.57,Mainly Clear
3381,2012-05-20 21:00:00,100.8,24.0,11.8,46,11,25.0,101.6,Mainly Clear
3382,2012-05-20 22:00:00,100.62,23.9,11.8,47,17,25.0,101.59,Mainly Clear
3383,2012-05-20 23:00:00,100.08,23.6,11.3,46,15,25.0,101.59,Mainly Clear
3384,2012-05-21 00:00:00,97.56,22.2,11.0,49,11,25.0,101.61,Mainly Clear
3385,2012-05-21 01:00:00,92.34,19.3,11.2,59,9,25.0,101.63,Mainly Clear
3386,2012-05-21 02:00:00,91.26,18.7,11.7,64,7,25.0,101.65,Mainly Clear
3387,2012-05-21 03:00:00,90.9,18.5,11.7,65,0,25.0,101.65,Mainly Clear
3388,2012-05-21 04:00:00,90.36000000000001,18.2,11.9,67,9,24.1,101.65,Mainly Clear
3389,2012-05-21 05:00:00,91.44,18.8,12.2,65,13,24.1,101.63,Mostly Cloudy
3390,2012-05-21 06:00:00,94.32,20.4,12.7,61,6,48.3,101.68,Mostly Cloudy
3391,2012-05-21 07:00:00,96.84,21.8,12.7,56,11,48.3,101.7,Mostly Cloudy
3392,2012-05-21 08:00:00,100.8,24.0,11.1,44,19,48.3,101.69,Mostly Cloudy
3393,2012-05-21 09:00:00,102.24,24.8,11.2,42,24,48.3,101.63,Mainly Clear
3394,2012-05-21 10:00:00,103.5,25.5,10.7,39,20,48.3,101.6,Mainly Clear
3395,2012-05-21 11:00:00,105.66000000000001,26.7,10.8,37,22,48.3,101.54,Mainly Clear
3396,2012-05-21 12:00:00,108.0,28.0,9.3,31,24,48.3,101.45,Mainly Clear
3397,2012-05-21 13:00:00,108.72,28.4,8.4,28,26,48.3,101.36,Mainly Clear
3398,2012-05-21 14:00:00,109.44,28.8,9.0,29,26,48.3,101.29,Mainly Clear
3399,2012-05-21 15:00:00,109.62,28.9,9.0,29,33,48.3,101.21,Mainly Clear
3400,2012-05-21 16:00:00,108.36000000000001,28.2,8.7,29,30,48.3,101.14,Mainly Clear
3401,2012-05-21 17:00:00,107.46000000000001,27.7,9.9,33,26,48.3,101.1,Mainly Clear
3402,2012-05-21 18:00:00,105.3,26.5,11.7,40,28,48.3,101.07,Mainly Clear
3403,2012-05-21 19:00:00,103.32,25.4,12.8,46,26,25.0,101.05,Mostly Cloudy
3404,2012-05-21 20:00:00,100.44,23.8,13.4,52,22,25.0,101.05,Mainly Clear
3405,2012-05-21 21:00:00,98.10000000000001,22.5,13.8,58,24,25.0,101.05,Mainly Clear
3406,2012-05-21 22:00:00,97.56,22.2,14.0,60,15,25.0,101.06,Mostly Cloudy
3407,2012-05-21 23:00:00,96.84,21.8,14.0,61,15,25.0,101.05,Mostly Cloudy
3408,2012-05-22 00:00:00,95.76,21.2,14.4,65,13,25.0,101.03,Rain Showers
3409,2012-05-22 01:00:00,92.16000000000001,19.2,16.0,82,15,12.9,101.02,Rain Showers
3410,2012-05-22 02:00:00,90.9,18.5,16.0,85,9,25.0,100.97,Rain Showers
3411,2012-05-22 03:00:00,90.36000000000001,18.2,15.8,86,0,16.1,100.95,Rain Showers
3412,2012-05-22 04:00:00,91.08,18.6,16.2,86,7,12.9,100.89,Rain Showers
3413,2012-05-22 05:00:00,91.44,18.8,16.4,86,4,12.9,100.9,Drizzle
3414,2012-05-22 06:00:00,90.36000000000001,18.2,16.1,88,9,2.0,100.92,"Rain,Fog"
3415,2012-05-22 07:00:00,90.53999999999999,18.3,16.4,89,11,12.9,100.92,Rain
3416,2012-05-22 08:00:00,90.9,18.5,16.5,88,9,9.7,100.9,"Rain,Fog"
3417,2012-05-22 09:00:00,91.08,18.6,16.4,87,9,12.9,100.89,Rain
3418,2012-05-22 10:00:00,92.16000000000001,19.2,16.9,87,9,12.9,100.87,Rain
3419,2012-05-22 11:00:00,91.44,18.8,16.5,86,13,16.1,100.85,Rain
3420,2012-05-22 12:00:00,90.72,18.4,16.3,88,15,19.3,100.78,Rain
3421,2012-05-22 13:00:00,94.32,20.4,17.3,82,9,24.1,100.7,Cloudy
3422,2012-05-22 14:00:00,95.58,21.1,17.3,79,11,24.1,100.66,Mostly Cloudy
3423,2012-05-22 15:00:00,96.3,21.5,16.2,72,9,24.1,100.63,Cloudy
3424,2012-05-22 16:00:00,93.06,19.7,13.9,69,20,16.1,100.64,Cloudy
3425,2012-05-22 17:00:00,89.46000000000001,17.7,15.3,86,11,12.9,100.67,Rain Showers
3426,2012-05-22 18:00:00,90.36000000000001,18.2,15.1,82,28,19.3,100.66,Cloudy
3427,2012-05-22 19:00:00,86.58,16.1,13.3,83,24,24.1,100.73,Rain Showers
3428,2012-05-22 20:00:00,85.32,15.4,12.3,82,20,24.1,100.77,Mostly Cloudy
3429,2012-05-22 21:00:00,84.96000000000001,15.2,11.8,80,15,25.0,100.78,Mostly Cloudy
3430,2012-05-22 22:00:00,84.42,14.9,10.8,76,17,25.0,100.81,Mostly Cloudy
3431,2012-05-22 23:00:00,82.8,14.0,10.7,80,9,25.0,100.84,Mainly Clear
3432,2012-05-23 00:00:00,81.18,13.1,10.4,84,0,25.0,100.82,Clear
3433,2012-05-23 01:00:00,79.56,12.2,10.2,88,4,25.0,100.82,Mainly Clear
3434,2012-05-23 02:00:00,78.84,11.8,9.9,88,6,25.0,100.85,Mostly Cloudy
3435,2012-05-23 03:00:00,79.2,12.0,9.4,84,7,25.0,100.84,Mainly Clear
3436,2012-05-23 04:00:00,80.28,12.6,9.4,81,4,24.1,100.87,Mostly Cloudy
3437,2012-05-23 05:00:00,81.36000000000001,13.2,9.7,79,9,24.1,100.95,Cloudy
3438,2012-05-23 06:00:00,81.9,13.5,10.5,82,7,24.1,101.03,Cloudy
3439,2012-05-23 07:00:00,84.24,14.8,10.9,77,11,24.1,101.05,Cloudy
3440,2012-05-23 08:00:00,85.86000000000001,15.7,11.2,75,15,24.1,101.1,Cloudy
3441,2012-05-23 09:00:00,86.58,16.1,11.7,75,15,24.1,101.15,Cloudy
3442,2012-05-23 10:00:00,88.38000000000001,17.1,11.8,71,11,24.1,101.21,Mostly Cloudy
3443,2012-05-23 11:00:00,91.26,18.7,12.7,68,13,24.1,101.21,Mostly Cloudy
3444,2012-05-23 12:00:00,92.7,19.5,12.7,65,11,24.1,101.18,Mostly Cloudy
3445,2012-05-23 13:00:00,93.78,20.1,12.2,60,13,24.1,101.15,Mostly Cloudy
3446,2012-05-23 14:00:00,95.22,20.9,12.0,57,9,24.1,101.16,Mostly Cloudy
3447,2012-05-23 15:00:00,96.48,21.6,13.5,60,0,24.1,101.16,Mostly Cloudy
3448,2012-05-23 16:00:00,96.3,21.5,12.2,55,6,24.1,101.13,Mainly Clear
3449,2012-05-23 17:00:00,97.74,22.3,12.7,55,4,24.1,101.1,Mainly Clear
3450,2012-05-23 18:00:00,97.56,22.2,11.8,52,4,24.1,101.12,Mainly Clear
3451,2012-05-23 19:00:00,96.3,21.5,11.6,53,7,24.1,101.11,Mainly Clear
3452,2012-05-23 20:00:00,94.32,20.4,10.9,54,9,24.1,101.16,Clear
3453,2012-05-23 21:00:00,94.32,20.4,10.6,53,9,25.0,101.19,Clear
3454,2012-05-23 22:00:00,92.88000000000001,19.6,10.3,55,7,25.0,101.21,Clear
3455,2012-05-23 23:00:00,91.62,18.9,10.3,57,4,25.0,101.25,Clear
3456,2012-05-24 00:00:00,87.12,16.4,10.4,68,0,25.0,101.28,Clear
3457,2012-05-24 01:00:00,84.60000000000001,15.0,10.6,75,4,25.0,101.29,Clear
3458,2012-05-24 02:00:00,80.28,12.6,9.7,82,6,25.0,101.31,Clear
3459,2012-05-24 03:00:00,83.7,14.5,11.2,81,6,25.0,101.3,Clear
3460,2012-05-24 04:00:00,82.8,14.0,10.7,80,9,24.1,101.32,Clear
3461,2012-05-24 05:00:00,84.60000000000001,15.0,11.0,77,7,24.1,101.36,Mainly Clear
3462,2012-05-24 06:00:00,87.48,16.6,12.1,75,9,24.1,101.43,Mainly Clear
3463,2012-05-24 07:00:00,91.44,18.8,13.9,73,4,24.1,101.5,Mainly Clear
3464,2012-05-24 08:00:00,95.58,21.1,14.6,66,0,24.1,101.54,Mainly Clear
3465,2012-05-24 09:00:00,98.82,22.9,15.6,63,7,48.3,101.51,Mainly Clear
3466,2012-05-24 10:00:00,101.88000000000001,24.6,15.2,56,0,48.3,101.46,Clear
3467,2012-05-24 11:00:00,104.58,26.1,16.7,56,9,24.1,101.44,Clear
3468,2012-05-24 12:00:00,105.66000000000001,26.7,16.4,53,6,24.1,101.4,Mainly Clear
3469,2012-05-24 13:00:00,106.38000000000001,27.1,15.9,50,13,24.1,101.37,Mainly Clear
3470,2012-05-24 14:00:00,107.28,27.6,17.0,52,13,48.3,101.33,Mainly Clear
3471,2012-05-24 15:00:00,108.18,28.1,17.7,53,17,48.3,101.27,Mainly Clear
3472,2012-05-24 16:00:00,108.18,28.1,17.5,53,17,24.1,101.23,Mainly Clear
3473,2012-05-24 17:00:00,107.28,27.6,17.3,53,22,24.1,101.21,Mainly Clear
3474,2012-05-24 18:00:00,103.5,25.5,16.5,58,24,24.1,101.23,Mostly Cloudy
3475,2012-05-24 19:00:00,101.52,24.4,16.4,61,15,24.1,101.25,Mainly Clear
3476,2012-05-24 20:00:00,99.18,23.1,16.1,65,19,24.1,101.3,Clear
3477,2012-05-24 21:00:00,97.92,22.4,15.9,67,19,25.0,101.31,Clear
3478,2012-05-24 22:00:00,97.02,21.9,15.5,67,22,25.0,101.35,Clear
3479,2012-05-24 23:00:00,95.58,21.1,15.2,69,19,25.0,101.39,Clear
3480,2012-05-25 00:00:00,94.86000000000001,20.7,15.3,71,13,25.0,101.43,Clear
3481,2012-05-25 01:00:00,93.06,19.7,15.6,77,15,25.0,101.4,Clear
3482,2012-05-25 02:00:00,92.52,19.4,15.6,79,15,25.0,101.41,Clear
3483,2012-05-25 03:00:00,92.16000000000001,19.2,15.3,78,17,25.0,101.42,Mainly Clear
3484,2012-05-25 04:00:00,91.98,19.1,15.3,79,19,24.1,101.44,Mainly Clear
3485,2012-05-25 05:00:00,91.8,19.0,15.5,80,17,24.1,101.45,Mostly Cloudy
3486,2012-05-25 06:00:00,94.68,20.6,15.7,73,17,24.1,101.44,Mainly Clear
3487,2012-05-25 07:00:00,96.48,21.6,15.9,70,20,24.1,101.42,Mainly Clear
3488,2012-05-25 08:00:00,98.64,22.8,16.1,66,20,24.1,101.36,Mainly Clear
3489,2012-05-25 09:00:00,99.53999999999999,23.3,16.1,64,20,24.1,101.29,Clear
3490,2012-05-25 10:00:00,102.42,24.9,16.5,60,20,24.1,101.21,Mainly Clear
3491,2012-05-25 11:00:00,103.5,25.5,16.9,59,22,24.1,101.12,Mostly Cloudy
3492,2012-05-25 12:00:00,104.22,25.9,16.8,57,20,24.1,101.07,Mostly Cloudy
3493,2012-05-25 13:00:00,106.56,27.2,17.5,55,28,24.1,100.97,Mostly Cloudy
3494,2012-05-25 14:00:00,104.4,26.0,17.2,58,19,24.1,100.94,Mostly Cloudy
3495,2012-05-25 15:00:00,106.38000000000001,27.1,17.1,54,26,24.1,100.86,Mostly Cloudy
3496,2012-05-25 16:00:00,106.74,27.3,16.7,52,24,24.1,100.79,Mostly Cloudy
3497,2012-05-25 17:00:00,106.56,27.2,16.7,53,19,24.1,100.72,Mostly Cloudy
3498,2012-05-25 18:00:00,104.76,26.2,16.1,54,20,24.1,100.65,Mostly Cloudy
3499,2012-05-25 19:00:00,105.12,26.4,16.1,53,22,25.0,100.59,Cloudy
3500,2012-05-25 20:00:00,95.94,21.3,18.3,83,13,16.1,100.83,"Thunderstorms,Rain"
3501,2012-05-25 21:00:00,97.38000000000001,22.1,18.5,80,15,25.0,100.79,Mainly Clear
3502,2012-05-25 22:00:00,96.3,21.5,18.1,81,11,25.0,100.88,Mainly Clear
3503,2012-05-25 23:00:00,95.94,21.3,15.4,69,17,25.0,100.96,Clear
3504,2012-05-26 00:00:00,93.24,19.8,14.8,73,9,25.0,101.0,Clear
3505,2012-05-26 01:00:00,92.34,19.3,14.0,71,13,25.0,101.09,Clear
3506,2012-05-26 02:00:00,91.08,18.6,12.3,67,11,25.0,101.16,Clear
3507,2012-05-26 03:00:00,88.38000000000001,17.1,10.5,65,13,25.0,101.21,Clear
3508,2012-05-26 04:00:00,87.12,16.4,10.1,66,9,25.0,101.28,Clear
3509,2012-05-26 05:00:00,86.94,16.3,9.8,65,9,24.1,101.36,Mainly Clear
3510,2012-05-26 06:00:00,88.38000000000001,17.1,10.0,63,9,48.3,101.37,Clear
3511,2012-05-26 07:00:00,90.18,18.1,10.8,62,9,48.3,101.51,Clear
3512,2012-05-26 08:00:00,92.52,19.4,12.2,63,6,48.3,101.56,Clear
3513,2012-05-26 09:00:00,95.58,21.1,12.7,59,9,24.1,101.56,Clear
3514,2012-05-26 10:00:00,96.48,21.6,12.5,56,7,19.3,101.6,Mostly Cloudy
3515,2012-05-26 11:00:00,98.28,22.6,12.5,53,0,16.1,101.6,Clear
3516,2012-05-26 12:00:00,99.53999999999999,23.3,12.8,52,13,16.1,101.56,Mainly Clear
3517,2012-05-26 13:00:00,101.52,24.4,9.9,40,30,19.3,101.53,Mainly Clear
3518,2012-05-26 14:00:00,101.16000000000001,24.2,10.6,42,22,19.3,101.54,Mainly Clear
3519,2012-05-26 15:00:00,99.36000000000001,23.2,10.2,44,20,24.1,101.54,Mainly Clear
3520,2012-05-26 16:00:00,100.44,23.8,10.2,42,22,24.1,101.52,Mostly Cloudy
3521,2012-05-26 17:00:00,99.18,23.1,9.4,42,19,24.1,101.49,Mostly Cloudy
3522,2012-05-26 18:00:00,97.56,22.2,8.6,42,20,24.1,101.51,Mostly Cloudy
3523,2012-05-26 19:00:00,95.4,21.0,7.7,42,13,24.1,101.56,Mainly Clear
3524,2012-05-26 20:00:00,90.9,18.5,7.4,48,9,24.1,101.64,Mainly Clear
3525,2012-05-26 21:00:00,87.48,16.6,7.5,55,7,25.0,101.71,Mainly Clear
3526,2012-05-26 22:00:00,88.74,17.3,7.3,52,6,25.0,101.71,Mainly Clear
3527,2012-05-26 23:00:00,85.68,15.6,7.7,59,6,25.0,101.75,Mainly Clear
3528,2012-05-27 00:00:00,85.86000000000001,15.7,7.1,57,6,25.0,101.76,Clear
3529,2012-05-27 01:00:00,83.88000000000001,14.6,7.4,62,9,25.0,101.77,Clear
3530,2012-05-27 02:00:00,82.62,13.9,6.9,63,11,25.0,101.76,Mainly Clear
3531,2012-05-27 03:00:00,84.24,14.8,3.1,45,13,25.0,101.76,Mostly Cloudy
3532,2012-05-27 04:00:00,83.52,14.4,3.5,48,13,25.0,101.84,Mostly Cloudy
3533,2012-05-27 05:00:00,82.26,13.7,3.9,52,13,24.1,101.9,Mostly Cloudy
3534,2012-05-27 06:00:00,83.16000000000001,14.2,2.4,45,17,24.1,101.92,Mostly Cloudy
3535,2012-05-27 07:00:00,83.88000000000001,14.6,4.0,49,9,48.3,101.95,Mostly Cloudy
3536,2012-05-27 08:00:00,85.68,15.6,3.1,43,11,48.3,101.94,Mostly Cloudy
3537,2012-05-27 09:00:00,88.38000000000001,17.1,4.6,44,9,48.3,101.95,Mostly Cloudy
3538,2012-05-27 10:00:00,91.08,18.6,4.0,38,0,48.3,101.89,Mostly Cloudy
3539,2012-05-27 11:00:00,92.7,19.5,3.9,36,4,48.3,101.83,Cloudy
3540,2012-05-27 12:00:00,93.06,19.7,4.4,36,0,48.3,101.76,Cloudy
3541,2012-05-27 13:00:00,93.96000000000001,20.2,5.4,38,13,48.3,101.68,Cloudy
3542,2012-05-27 14:00:00,95.76,21.2,5.4,36,0,48.3,101.63,Cloudy
3543,2012-05-27 15:00:00,94.14,20.3,5.1,37,11,48.3,101.57,Cloudy
3544,2012-05-27 16:00:00,94.32,20.4,5.5,38,13,48.3,101.55,Cloudy
3545,2012-05-27 17:00:00,94.14,20.3,5.3,37,6,48.3,101.49,Cloudy
3546,2012-05-27 18:00:00,92.16000000000001,19.2,6.9,45,7,48.3,101.41,Rain Showers
3547,2012-05-27 19:00:00,90.18,18.1,9.5,57,0,48.3,101.42,Rain
3548,2012-05-27 20:00:00,90.36000000000001,18.2,8.5,53,4,25.0,101.31,Cloudy
3549,2012-05-27 21:00:00,90.72,18.4,8.4,52,0,25.0,101.34,Cloudy
3550,2012-05-27 22:00:00,89.10000000000001,17.5,9.1,58,0,25.0,101.33,Cloudy
3551,2012-05-27 23:00:00,89.28,17.6,8.9,57,6,25.0,101.29,Mostly Cloudy
3552,2012-05-28 00:00:00,89.10000000000001,17.5,10.5,63,4,25.0,101.31,Mostly Cloudy
3553,2012-05-28 01:00:00,88.92,17.4,8.8,57,13,25.0,101.23,Mostly Cloudy
3554,2012-05-28 02:00:00,87.48,16.6,8.3,58,11,25.0,101.19,Mostly Cloudy
3555,2012-05-28 03:00:00,87.48,16.6,8.3,58,9,25.0,101.21,Cloudy
3556,2012-05-28 04:00:00,87.48,16.6,8.3,58,17,25.0,101.21,Cloudy
3557,2012-05-28 05:00:00,87.12,16.4,7.4,55,19,25.0,101.17,Mostly Cloudy
3558,2012-05-28 06:00:00,87.12,16.4,7.3,55,24,24.1,101.31,Mostly Cloudy
3559,2012-05-28 07:00:00,87.48,16.6,6.2,50,22,48.3,101.26,Mostly Cloudy
3560,2012-05-28 08:00:00,87.66000000000001,16.7,7.1,53,28,48.3,101.24,Mostly Cloudy
3561,2012-05-28 09:00:00,88.2,17.0,7.4,53,20,48.3,101.24,Cloudy
3562,2012-05-28 10:00:00,90.0,18.0,7.6,51,22,48.3,101.21,Cloudy
3563,2012-05-28 11:00:00,89.64,17.8,7.8,52,24,48.3,101.2,Cloudy
3564,2012-05-28 12:00:00,86.58,16.1,8.9,62,20,24.1,101.12,Cloudy
3565,2012-05-28 13:00:00,88.2,17.0,7.2,52,26,24.1,101.05,Cloudy
3566,2012-05-28 14:00:00,91.98,19.1,7.8,48,28,48.3,100.98,Cloudy
3567,2012-05-28 15:00:00,89.10000000000001,17.5,6.6,49,24,48.3,100.94,Cloudy
3568,2012-05-28 16:00:00,88.74,17.3,6.4,49,22,24.1,100.88,Cloudy
3569,2012-05-28 17:00:00,88.92,17.4,6.9,50,26,24.1,100.82,Mostly Cloudy
3570,2012-05-28 18:00:00,87.84,16.8,7.1,53,26,48.3,100.81,Mostly Cloudy
3571,2012-05-28 19:00:00,86.22,15.9,6.9,55,22,48.3,100.77,Mostly Cloudy
3572,2012-05-28 20:00:00,85.14,15.3,7.0,58,20,48.3,100.71,Cloudy
3573,2012-05-28 21:00:00,83.88000000000001,14.6,6.7,59,19,25.0,100.69,Mainly Clear
3574,2012-05-28 22:00:00,82.8,14.0,7.1,63,15,25.0,100.66,Mostly Cloudy
3575,2012-05-28 23:00:00,81.36000000000001,13.2,7.1,66,13,25.0,100.54,Mostly Cloudy
3576,2012-05-29 00:00:00,80.46000000000001,12.7,7.2,69,15,25.0,100.44,Mostly Cloudy
3577,2012-05-29 01:00:00,79.02,11.9,6.8,71,9,25.0,100.31,Mostly Cloudy
3578,2012-05-29 02:00:00,79.56,12.2,6.8,70,11,25.0,100.26,Mostly Cloudy
3579,2012-05-29 03:00:00,78.84,11.8,5.9,67,15,25.0,100.18,Mostly Cloudy
3580,2012-05-29 04:00:00,78.12,11.4,7.0,74,30,24.1,100.34,"Thunderstorms,Rain Showers"
3581,2012-05-29 05:00:00,77.4,11.0,8.9,87,15,12.9,100.14,"Thunderstorms,Rain Showers"
3582,2012-05-29 06:00:00,77.22,10.9,9.0,88,9,2.4,100.26,"Thunderstorms,Heavy Rain Showers"
3583,2012-05-29 07:00:00,79.92,12.4,10.3,87,6,19.3,100.23,Cloudy
3584,2012-05-29 08:00:00,85.32,15.4,12.7,84,0,19.3,100.17,Mainly Clear
3585,2012-05-29 09:00:00,91.08,18.6,15.1,80,4,19.3,100.12,Mainly Clear
3586,2012-05-29 10:00:00,94.32,20.4,15.8,75,4,19.3,100.08,Mostly Cloudy
3587,2012-05-29 11:00:00,97.56,22.2,16.9,72,7,19.3,100.08,Mostly Cloudy
3588,2012-05-29 12:00:00,101.16000000000001,24.2,17.7,67,7,19.3,100.0,Mostly Cloudy
3589,2012-05-29 13:00:00,104.58,26.1,18.7,64,6,16.1,99.87,Mainly Clear
3590,2012-05-29 14:00:00,103.68,25.6,18.4,64,11,19.3,99.75,Rain Showers
3591,2012-05-29 15:00:00,105.84,26.8,19.0,62,13,19.3,99.65,Mostly Cloudy
3592,2012-05-29 16:00:00,95.4,21.0,17.5,80,15,9.7,99.75,"Thunderstorms,Rain Showers"
3593,2012-05-29 17:00:00,94.86000000000001,20.7,17.4,81,13,12.9,99.84,"Thunderstorms,Rain Showers"
3594,2012-05-29 18:00:00,94.32,20.4,17.6,84,28,19.3,99.78,Rain Showers
3595,2012-05-29 19:00:00,93.78,20.1,17.8,87,24,16.1,99.76,Rain Showers
3596,2012-05-29 20:00:00,93.96000000000001,20.2,17.9,87,11,16.1,99.8,Cloudy
3597,2012-05-29 21:00:00,93.78,20.1,17.8,87,17,16.1,99.75,Cloudy
3598,2012-05-29 22:00:00,95.03999999999999,20.8,17.7,82,9,19.3,99.75,Cloudy
3599,2012-05-29 23:00:00,94.5,20.5,17.5,83,6,25.0,99.74,Cloudy
3600,2012-05-30 00:00:00,94.68,20.6,17.1,80,17,25.0,99.77,Cloudy
3601,2012-05-30 01:00:00,93.06,19.7,14.4,71,24,25.0,99.77,Mainly Clear
3602,2012-05-30 02:00:00,91.08,18.6,10.5,59,22,25.0,99.88,Mainly Clear
3603,2012-05-30 03:00:00,89.28,17.6,9.8,60,19,25.0,99.91,Mostly Cloudy
3604,2012-05-30 04:00:00,87.48,16.6,10.3,66,13,24.1,99.98,Mostly Cloudy
3605,2012-05-30 05:00:00,86.22,15.9,10.0,68,11,24.1,100.02,Mostly Cloudy
3606,2012-05-30 06:00:00,88.56,17.2,10.2,63,15,24.1,100.07,Mostly Cloudy
3607,2012-05-30 07:00:00,89.64,17.8,10.4,62,17,48.3,100.12,Mostly Cloudy
3608,2012-05-30 08:00:00,91.98,19.1,10.7,58,19,48.3,100.11,Mainly Clear
3609,2012-05-30 09:00:00,94.5,20.5,10.0,51,20,48.3,100.08,Clear
3610,2012-05-30 10:00:00,96.3,21.5,10.2,49,15,48.3,100.1,Mainly Clear
3611,2012-05-30 11:00:00,97.38000000000001,22.1,9.6,45,17,24.1,100.08,Clear
3612,2012-05-30 12:00:00,99.18,23.1,8.2,38,35,48.3,100.06,Mainly Clear
3613,2012-05-30 13:00:00,99.9,23.5,8.1,37,30,48.3,100.05,Clear
3614,2012-05-30 14:00:00,99.9,23.5,8.5,38,32,48.3,100.04,Clear
3615,2012-05-30 15:00:00,99.9,23.5,8.6,39,22,48.3,100.03,Mainly Clear
3616,2012-05-30 16:00:00,100.26,23.7,8.3,37,15,48.3,100.0,Clear
3617,2012-05-30 17:00:00,99.18,23.1,8.4,39,24,48.3,100.04,Clear
3618,2012-05-30 18:00:00,97.92,22.4,8.4,41,20,48.3,100.06,Mainly Clear
3619,2012-05-30 19:00:00,94.5,20.5,8.0,44,0,48.3,100.08,Mainly Clear
3620,2012-05-30 20:00:00,90.53999999999999,18.3,8.1,51,6,48.3,100.13,Mainly Clear
3621,2012-05-30 21:00:00,88.74,17.3,8.9,58,7,25.0,100.18,Mainly Clear
3622,2012-05-30 22:00:00,88.92,17.4,9.5,60,9,25.0,100.17,Mostly Cloudy
3623,2012-05-30 23:00:00,87.84,16.8,9.9,64,15,16.1,100.26,Rain Showers
3624,2012-05-31 00:00:00,87.66000000000001,16.7,10.5,67,6,25.0,100.28,Mostly Cloudy
3625,2012-05-31 01:00:00,86.94,16.3,10.8,70,7,25.0,100.31,Mostly Cloudy
3626,2012-05-31 02:00:00,85.68,15.6,11.2,75,4,25.0,100.32,Mostly Cloudy
3627,2012-05-31 03:00:00,85.5,15.5,9.5,67,9,25.0,100.3,Mostly Cloudy
3628,2012-05-31 04:00:00,82.08,13.6,8.5,71,11,24.1,100.34,Mainly Clear
3629,2012-05-31 05:00:00,82.62,13.9,8.2,68,9,48.3,100.44,Mainly Clear
3630,2012-05-31 06:00:00,83.52,14.4,8.3,67,15,48.3,100.5,Mainly Clear
3631,2012-05-31 07:00:00,81.18,13.1,8.9,76,15,24.1,100.61,Rain Showers
3632,2012-05-31 08:00:00,84.42,14.9,8.6,66,13,24.1,100.64,Mainly Clear
3633,2012-05-31 09:00:00,86.76,16.2,9.3,64,11,24.1,100.68,Mostly Cloudy
3634,2012-05-31 10:00:00,86.22,15.9,8.7,62,9,24.1,100.71,Mostly Cloudy
3635,2012-05-31 11:00:00,88.02,16.9,9.4,61,4,24.1,100.71,Mostly Cloudy
3636,2012-05-31 12:00:00,87.84,16.8,8.6,58,0,48.3,100.72,Mostly Cloudy
3637,2012-05-31 13:00:00,90.72,18.4,7.5,49,20,48.3,100.77,Mostly Cloudy
3638,2012-05-31 14:00:00,91.44,18.8,7.5,48,19,48.3,100.78,Mostly Cloudy
3639,2012-05-31 15:00:00,90.18,18.1,5.8,44,19,48.3,100.83,Mostly Cloudy
3640,2012-05-31 16:00:00,91.44,18.8,6.0,43,19,48.3,100.85,Mainly Clear
3641,2012-05-31 17:00:00,91.62,18.9,6.1,43,15,48.3,100.86,Mainly Clear
3642,2012-05-31 18:00:00,90.72,18.4,4.6,40,22,48.3,100.91,Mainly Clear
3643,2012-05-31 19:00:00,88.38000000000001,17.1,4.9,44,15,48.3,100.96,Mainly Clear
3644,2012-05-31 20:00:00,84.24,14.8,3.7,47,13,24.1,101.01,Mainly Clear
3645,2012-05-31 21:00:00,80.64,12.8,4.2,56,9,25.0,101.05,Clear
3646,2012-05-31 22:00:00,80.10000000000001,12.5,4.4,58,7,25.0,101.13,Clear
3647,2012-05-31 23:00:00,80.64,12.8,4.4,57,7,25.0,101.18,Clear
3648,2012-06-01 00:00:00,78.48,11.6,3.8,59,6,25.0,101.21,Clear
3649,2012-06-01 01:00:00,77.94,11.3,3.6,59,7,25.0,101.24,Clear
3650,2012-06-01 02:00:00,77.03999999999999,10.8,3.1,59,9,25.0,101.27,Mainly Clear
3651,2012-06-01 03:00:00,74.7,9.5,2.6,62,9,25.0,101.29,Mainly Clear
3652,2012-06-01 04:00:00,75.78,10.1,2.8,60,11,48.3,101.34,Mostly Cloudy
3653,2012-06-01 05:00:00,76.86000000000001,10.7,3.3,60,11,48.3,101.38,Cloudy
3654,2012-06-01 06:00:00,78.48,11.6,4.5,62,7,48.3,101.42,Cloudy
3655,2012-06-01 07:00:00,83.88000000000001,14.6,5.3,54,9,48.3,101.44,Cloudy
3656,2012-06-01 08:00:00,84.96000000000001,15.2,3.5,45,11,48.3,101.48,Cloudy
3657,2012-06-01 09:00:00,88.38000000000001,17.1,4.6,44,11,48.3,101.47,Cloudy
3658,2012-06-01 10:00:00,90.9,18.5,1.2,31,20,48.3,101.44,Mostly Cloudy
3659,2012-06-01 11:00:00,90.72,18.4,1.0,31,17,48.3,101.4,Cloudy
3660,2012-06-01 12:00:00,92.34,19.3,3.3,35,20,48.3,101.32,Cloudy
3661,2012-06-01 13:00:00,92.7,19.5,4.0,36,17,48.3,101.29,Cloudy
3662,2012-06-01 14:00:00,92.88000000000001,19.6,4.6,37,15,48.3,101.21,Cloudy
3663,2012-06-01 15:00:00,93.24,19.8,4.9,38,17,48.3,101.16,Cloudy
3664,2012-06-01 16:00:00,93.96000000000001,20.2,4.3,35,22,48.3,101.04,Cloudy
3665,2012-06-01 17:00:00,93.96000000000001,20.2,4.1,35,19,48.3,101.03,Cloudy
3666,2012-06-01 18:00:00,93.78,20.1,4.6,36,19,24.1,100.98,Cloudy
3667,2012-06-01 19:00:00,93.60000000000001,20.0,5.3,38,19,25.0,100.88,Cloudy
3668,2012-06-01 20:00:00,93.42,19.9,4.9,37,20,25.0,100.86,Cloudy
3669,2012-06-01 21:00:00,92.88000000000001,19.6,5.7,40,26,25.0,100.8,Rain
3670,2012-06-01 22:00:00,92.88000000000001,19.6,6.5,42,20,25.0,100.77,Cloudy
3671,2012-06-01 23:00:00,90.36000000000001,18.2,8.3,52,19,25.0,100.77,Rain
3672,2012-06-02 00:00:00,89.10000000000001,17.5,8.2,54,15,19.3,100.78,Rain
3673,2012-06-02 01:00:00,86.22,15.9,9.5,66,19,16.1,100.67,Rain
3674,2012-06-02 02:00:00,83.88000000000001,14.6,8.7,68,19,16.1,100.58,Rain
3675,2012-06-02 03:00:00,83.16000000000001,14.2,8.8,70,19,16.1,100.5,Rain
3676,2012-06-02 04:00:00,82.08,13.6,9.5,76,24,12.9,100.43,Rain
3677,2012-06-02 05:00:00,81.72,13.4,9.2,76,24,16.1,100.36,Rain
3678,2012-06-02 06:00:00,82.08,13.6,9.5,76,19,16.1,100.44,Rain
3679,2012-06-02 07:00:00,81.72,13.4,8.7,73,17,19.3,100.45,Rain
3680,2012-06-02 08:00:00,79.74,12.3,9.7,84,11,19.3,100.48,Rain
3681,2012-06-02 09:00:00,81.18,13.1,9.6,79,13,24.1,100.52,Cloudy
3682,2012-06-02 10:00:00,80.10000000000001,12.5,9.8,84,7,8.0,100.48,"Rain,Fog"
3683,2012-06-02 11:00:00,80.10000000000001,12.5,10.3,86,7,16.1,100.48,Rain
3684,2012-06-02 12:00:00,80.64,12.8,10.5,86,9,24.1,100.43,Rain
3685,2012-06-02 13:00:00,81.18,13.1,10.9,86,11,24.1,100.43,Rain
3686,2012-06-02 14:00:00,82.08,13.6,10.9,84,20,24.1,100.39,Cloudy
3687,2012-06-02 15:00:00,82.62,13.9,10.9,82,17,24.1,100.38,Cloudy
3688,2012-06-02 16:00:00,81.9,13.5,11.0,85,22,24.1,100.35,Rain
3689,2012-06-02 17:00:00,81.9,13.5,11.0,85,17,24.1,100.36,Drizzle
3690,2012-06-02 18:00:00,81.18,13.1,11.1,88,19,6.4,100.38,"Drizzle,Fog"
3691,2012-06-02 19:00:00,81.36000000000001,13.2,11.2,88,9,4.8,100.4,"Drizzle,Fog"
3692,2012-06-02 20:00:00,80.82,12.9,10.5,85,4,19.3,100.4,Drizzle
3693,2012-06-02 21:00:00,81.0,13.0,10.7,86,7,25.0,100.41,Cloudy
3694,2012-06-02 22:00:00,81.53999999999999,13.3,10.4,83,15,25.0,100.34,Cloudy
3695,2012-06-02 23:00:00,81.18,13.1,10.2,83,6,25.0,100.33,Cloudy
3696,2012-06-03 00:00:00,81.18,13.1,10.4,84,9,19.3,100.33,Cloudy
3697,2012-06-03 01:00:00,81.0,13.0,10.9,87,6,19.3,100.29,Cloudy
3698,2012-06-03 02:00:00,81.18,13.1,11.0,87,6,19.3,100.26,Cloudy
3699,2012-06-03 03:00:00,80.82,12.9,10.6,86,4,19.3,100.23,Cloudy
3700,2012-06-03 04:00:00,81.0,13.0,10.4,84,7,19.3,100.2,Mostly Cloudy
3701,2012-06-03 05:00:00,79.2,12.0,9.9,87,0,19.3,100.24,Mostly Cloudy
3702,2012-06-03 06:00:00,82.08,13.6,10.9,84,9,24.1,100.25,Mostly Cloudy
3703,2012-06-03 07:00:00,83.88000000000001,14.6,10.5,76,15,24.1,100.25,Mostly Cloudy
3704,2012-06-03 08:00:00,84.42,14.9,10.3,74,13,24.1,100.24,Mostly Cloudy
3705,2012-06-03 09:00:00,86.58,16.1,10.9,71,11,24.1,100.2,Mostly Cloudy
3706,2012-06-03 10:00:00,89.46000000000001,17.7,11.0,65,13,48.3,100.19,Mostly Cloudy
3707,2012-06-03 11:00:00,90.36000000000001,18.2,10.4,60,11,48.3,100.14,Mostly Cloudy
3708,2012-06-03 12:00:00,90.72,18.4,9.8,57,9,48.3,100.12,Mostly Cloudy
3709,2012-06-03 13:00:00,91.62,18.9,10.8,59,24,48.3,100.07,Mostly Cloudy
3710,2012-06-03 14:00:00,92.88000000000001,19.6,10.5,56,24,48.3,100.04,Mostly Cloudy
3711,2012-06-03 15:00:00,90.9,18.5,10.4,59,24,48.3,100.02,Mostly Cloudy
3712,2012-06-03 16:00:00,90.53999999999999,18.3,10.3,60,33,48.3,100.01,Mostly Cloudy
3713,2012-06-03 17:00:00,89.64,17.8,9.3,57,30,48.3,100.03,Mostly Cloudy
3714,2012-06-03 18:00:00,87.48,16.6,9.6,63,30,48.3,100.13,Mostly Cloudy
3715,2012-06-03 19:00:00,85.14,15.3,8.8,65,28,25.0,100.2,Mostly Cloudy
3716,2012-06-03 20:00:00,82.98,14.1,7.4,64,32,25.0,100.27,Mostly Cloudy
3717,2012-06-03 21:00:00,82.44,13.8,7.1,64,28,25.0,100.29,Mostly Cloudy
3718,2012-06-03 22:00:00,82.08,13.6,6.9,64,30,25.0,100.32,Cloudy
3719,2012-06-03 23:00:00,81.53999999999999,13.3,6.9,65,30,25.0,100.31,Mostly Cloudy
3720,2012-06-04 00:00:00,80.64,12.8,7.3,69,33,25.0,100.34,Cloudy
3721,2012-06-04 01:00:00,79.02,11.9,7.7,75,19,25.0,100.33,Rain
3722,2012-06-04 02:00:00,78.84,11.8,7.6,75,22,25.0,100.32,Cloudy
3723,2012-06-04 03:00:00,78.3,11.5,7.5,76,24,25.0,100.32,Rain Showers
3724,2012-06-04 04:00:00,77.4,11.0,7.6,80,22,19.3,100.38,Rain
3725,2012-06-04 05:00:00,77.4,11.0,8.0,82,20,19.3,100.41,Rain
3726,2012-06-04 06:00:00,77.94,11.3,8.2,81,22,24.1,100.46,Cloudy
3727,2012-06-04 07:00:00,78.66000000000001,11.7,7.9,77,33,24.1,100.5,Rain
3728,2012-06-04 08:00:00,78.48,11.6,8.3,80,24,19.3,100.55,Rain
3729,2012-06-04 09:00:00,78.48,11.6,7.7,77,28,24.1,100.6,Rain
3730,2012-06-04 10:00:00,79.92,12.4,7.5,72,28,24.1,100.65,Cloudy
3731,2012-06-04 11:00:00,81.18,13.1,7.4,68,28,24.1,100.67,Cloudy
3732,2012-06-04 12:00:00,81.0,13.0,7.3,68,22,24.1,100.7,Rain Showers
3733,2012-06-04 13:00:00,81.0,13.0,7.4,69,24,24.1,100.75,Rain
3734,2012-06-04 14:00:00,83.34,14.3,7.3,63,20,24.1,100.73,Cloudy
3735,2012-06-04 15:00:00,86.03999999999999,15.8,7.2,57,22,24.1,100.73,Mostly Cloudy
3736,2012-06-04 16:00:00,86.4,16.0,6.6,54,22,24.1,100.71,Mostly Cloudy
3737,2012-06-04 17:00:00,86.22,15.9,7.1,56,22,24.1,100.71,Mostly Cloudy
3738,2012-06-04 18:00:00,87.3,16.5,7.1,54,15,48.3,100.74,Mostly Cloudy
3739,2012-06-04 19:00:00,86.94,16.3,6.9,54,20,48.3,100.77,Mostly Cloudy
3740,2012-06-04 20:00:00,85.68,15.6,7.3,58,13,24.1,100.8,Mainly Clear
3741,2012-06-04 21:00:00,83.7,14.5,7.5,63,15,25.0,100.84,Mainly Clear
3742,2012-06-04 22:00:00,83.88000000000001,14.6,6.4,58,17,25.0,100.83,Mostly Cloudy
3743,2012-06-04 23:00:00,83.88000000000001,14.6,5.9,56,11,25.0,100.83,Cloudy
3744,2012-06-05 00:00:00,82.44,13.8,4.9,55,13,25.0,100.83,Cloudy
3745,2012-06-05 01:00:00,82.26,13.7,7.1,64,15,25.0,100.82,Cloudy
3746,2012-06-05 02:00:00,80.46000000000001,12.7,6.3,65,13,25.0,100.82,Mostly Cloudy
3747,2012-06-05 03:00:00,78.12,11.4,6.7,73,15,25.0,100.85,Mainly Clear
3748,2012-06-05 04:00:00,76.86000000000001,10.7,6.5,75,13,24.1,100.87,Mainly Clear
3749,2012-06-05 05:00:00,76.86000000000001,10.7,6.7,76,13,24.1,100.94,Mainly Clear
3750,2012-06-05 06:00:00,80.28,12.6,7.1,69,15,48.3,100.98,Mainly Clear
3751,2012-06-05 07:00:00,83.34,14.3,6.5,59,20,48.3,100.99,Mainly Clear
3752,2012-06-05 08:00:00,86.22,15.9,6.4,53,26,48.3,101.02,Mainly Clear
3753,2012-06-05 09:00:00,88.92,17.4,6.9,50,19,48.3,101.01,Clear
3754,2012-06-05 10:00:00,91.44,18.8,6.7,45,19,48.3,100.99,Mainly Clear
3755,2012-06-05 11:00:00,93.24,19.8,5.3,39,26,48.3,101.0,Mainly Clear
3756,2012-06-05 12:00:00,94.14,20.3,4.9,36,20,48.3,100.97,Mainly Clear
3757,2012-06-05 13:00:00,95.94,21.3,3.8,32,15,48.3,100.93,Mainly Clear
3758,2012-06-05 14:00:00,96.48,21.6,4.4,32,7,48.3,100.88,Mainly Clear
3759,2012-06-05 15:00:00,97.02,21.9,4.4,32,11,48.3,100.83,Mainly Clear
3760,2012-06-05 16:00:00,98.28,22.6,6.2,35,4,48.3,100.75,Mainly Clear
3761,2012-06-05 17:00:00,97.56,22.2,5.4,34,15,48.3,100.74,Mostly Cloudy
3762,2012-06-05 18:00:00,95.22,20.9,6.8,40,11,48.3,100.76,Rain Showers
3763,2012-06-05 19:00:00,88.2,17.0,10.3,65,22,24.1,100.89,Rain Showers
3764,2012-06-05 20:00:00,85.68,15.6,11.6,77,9,24.1,100.88,Rain Showers
3765,2012-06-05 21:00:00,86.94,16.3,9.9,66,6,25.0,100.9,Mostly Cloudy
3766,2012-06-05 22:00:00,84.06,14.7,11.0,78,7,25.0,100.95,Mostly Cloudy
3767,2012-06-05 23:00:00,87.12,16.4,9.3,63,15,25.0,100.97,Mostly Cloudy
3768,2012-06-06 00:00:00,84.06,14.7,7.9,64,9,25.0,100.97,Mostly Cloudy
3769,2012-06-06 01:00:00,82.44,13.8,7.2,64,9,25.0,100.97,Mostly Cloudy
3770,2012-06-06 02:00:00,80.28,12.6,6.6,67,11,25.0,100.99,Mostly Cloudy
3771,2012-06-06 03:00:00,77.4,11.0,6.8,75,9,25.0,100.99,Mostly Cloudy
3772,2012-06-06 04:00:00,77.76,11.2,6.9,75,6,24.1,101.03,Mostly Cloudy
3773,2012-06-06 05:00:00,79.2,12.0,7.2,72,9,48.3,101.05,Mostly Cloudy
3774,2012-06-06 06:00:00,79.92,12.4,7.7,73,15,24.1,101.07,Mostly Cloudy
3775,2012-06-06 07:00:00,82.98,14.1,8.3,68,13,24.1,101.1,Mainly Clear
3776,2012-06-06 08:00:00,85.14,15.3,9.6,69,7,24.1,101.14,Mainly Clear
3777,2012-06-06 09:00:00,86.58,16.1,9.6,65,9,24.1,101.13,Mainly Clear
3778,2012-06-06 10:00:00,89.28,17.6,9.7,60,11,24.1,101.12,Mainly Clear
3779,2012-06-06 11:00:00,92.52,19.4,9.4,52,7,24.1,101.08,Mainly Clear
3780,2012-06-06 12:00:00,93.24,19.8,9.7,52,9,24.1,101.05,Mainly Clear
3781,2012-06-06 13:00:00,92.88000000000001,19.6,9.6,52,0,24.1,101.01,Mainly Clear
3782,2012-06-06 14:00:00,94.68,20.6,9.8,50,4,48.3,100.94,Mostly Cloudy
3783,2012-06-06 15:00:00,94.14,20.3,9.3,49,7,48.3,100.89,Mostly Cloudy
3784,2012-06-06 16:00:00,95.94,21.3,8.2,43,13,48.3,100.9,Mostly Cloudy
3785,2012-06-06 17:00:00,94.68,20.6,7.4,42,11,24.1,100.91,Mostly Cloudy
3786,2012-06-06 18:00:00,93.60000000000001,20.0,7.6,45,15,24.1,100.95,Mostly Cloudy
3787,2012-06-06 19:00:00,91.62,18.9,7.8,48,15,24.1,101.0,Mostly Cloudy
3788,2012-06-06 20:00:00,88.92,17.4,9.6,60,9,24.1,101.04,Rain Showers
3789,2012-06-06 21:00:00,86.94,16.3,9.7,65,11,25.0,101.04,Mostly Cloudy
3790,2012-06-06 22:00:00,88.92,17.4,9.3,59,9,25.0,101.04,Cloudy
3791,2012-06-06 23:00:00,88.38000000000001,17.1,9.1,59,11,25.0,101.05,Rain Showers
3792,2012-06-07 00:00:00,84.42,14.9,9.0,68,9,25.0,101.06,Mainly Clear
3793,2012-06-07 01:00:00,81.53999999999999,13.3,9.2,76,7,25.0,101.06,Mainly Clear
3794,2012-06-07 02:00:00,80.64,12.8,9.4,80,11,25.0,101.04,Clear
3795,2012-06-07 03:00:00,79.74,12.3,8.9,80,17,25.0,101.02,Clear
3796,2012-06-07 04:00:00,79.2,12.0,8.3,78,9,24.1,101.05,Mainly Clear
3797,2012-06-07 05:00:00,77.94,11.3,8.1,81,11,48.3,101.11,Mainly Clear
3798,2012-06-07 06:00:00,79.74,12.3,8.4,77,13,48.3,101.12,Mainly Clear
3799,2012-06-07 07:00:00,82.62,13.9,8.4,69,4,24.1,101.13,Mainly Clear
3800,2012-06-07 08:00:00,86.22,15.9,9.2,64,11,24.1,101.12,Mainly Clear
3801,2012-06-07 09:00:00,89.10000000000001,17.5,9.5,59,6,48.3,101.09,Mainly Clear
3802,2012-06-07 10:00:00,92.52,19.4,9.6,53,6,48.3,101.05,Mainly Clear
3803,2012-06-07 11:00:00,93.78,20.1,10.5,54,7,48.3,101.02,Mainly Clear
3804,2012-06-07 12:00:00,95.03999999999999,20.8,10.1,50,13,48.3,100.98,Mainly Clear
3805,2012-06-07 13:00:00,96.48,21.6,10.9,51,11,48.3,100.92,Mainly Clear
3806,2012-06-07 14:00:00,98.46000000000001,22.7,9.4,43,11,48.3,100.86,Mainly Clear
3807,2012-06-07 15:00:00,97.74,22.3,9.3,43,13,48.3,100.8,Mainly Clear
3808,2012-06-07 16:00:00,98.64,22.8,9.2,42,15,48.3,100.74,Mainly Clear
3809,2012-06-07 17:00:00,98.28,22.6,8.9,42,11,48.3,100.69,Mostly Cloudy
3810,2012-06-07 18:00:00,97.2,22.0,7.9,40,9,48.3,100.67,Mostly Cloudy
3811,2012-06-07 19:00:00,97.56,22.2,9.0,43,11,48.3,100.67,Mostly Cloudy
3812,2012-06-07 20:00:00,96.66000000000001,21.7,9.4,45,11,24.1,100.66,Mostly Cloudy
3813,2012-06-07 21:00:00,91.08,18.6,10.4,59,30,25.0,100.74,Mostly Cloudy
3814,2012-06-07 22:00:00,87.12,16.4,11.6,73,17,25.0,100.74,Rain Showers
3815,2012-06-07 23:00:00,86.94,16.3,12.2,77,17,25.0,100.78,Rain
3816,2012-06-08 00:00:00,86.22,15.9,13.1,83,13,25.0,100.68,Mostly Cloudy
3817,2012-06-08 01:00:00,85.86000000000001,15.7,12.9,83,7,25.0,100.65,Clear
3818,2012-06-08 02:00:00,85.14,15.3,12.9,86,11,25.0,100.6,Clear
3819,2012-06-08 03:00:00,82.98,14.1,11.7,85,7,25.0,100.56,Mainly Clear
3820,2012-06-08 04:00:00,82.62,13.9,11.0,83,7,24.1,100.58,Mainly Clear
3821,2012-06-08 05:00:00,83.52,14.4,11.2,81,7,48.3,100.58,Mainly Clear
3822,2012-06-08 06:00:00,86.76,16.2,11.7,75,17,48.3,100.58,Mostly Cloudy
3823,2012-06-08 07:00:00,87.66000000000001,16.7,11.3,70,22,48.3,100.56,Mostly Cloudy
3824,2012-06-08 08:00:00,88.74,17.3,11.5,69,22,48.3,100.54,Mostly Cloudy
3825,2012-06-08 09:00:00,89.46000000000001,17.7,12.6,72,17,24.1,100.53,Cloudy
3826,2012-06-08 10:00:00,90.53999999999999,18.3,12.7,70,13,24.1,100.53,Cloudy
3827,2012-06-08 11:00:00,91.08,18.6,12.9,69,17,24.1,100.53,Cloudy
3828,2012-06-08 12:00:00,92.7,19.5,13.7,69,17,24.1,100.46,Cloudy
3829,2012-06-08 13:00:00,94.5,20.5,14.4,68,20,24.1,100.33,Mostly Cloudy
3830,2012-06-08 14:00:00,93.96000000000001,20.2,12.8,62,17,24.1,100.25,Cloudy
3831,2012-06-08 15:00:00,92.52,19.4,12.8,66,20,12.9,100.33,Rain Showers
3832,2012-06-08 16:00:00,90.72,18.4,13.4,73,4,24.1,100.22,Mostly Cloudy
3833,2012-06-08 17:00:00,93.60000000000001,20.0,14.3,70,7,24.1,100.22,Mostly Cloudy
3834,2012-06-08 18:00:00,91.8,19.0,14.4,75,0,24.1,100.17,Mostly Cloudy
3835,2012-06-08 19:00:00,91.8,19.0,12.0,64,15,24.1,100.28,Mainly Clear
3836,2012-06-08 20:00:00,86.4,16.0,9.9,67,9,24.1,100.34,Mainly Clear
3837,2012-06-08 21:00:00,82.98,14.1,8.3,68,9,25.0,100.41,Clear
3838,2012-06-08 22:00:00,81.9,13.5,7.8,68,6,25.0,100.48,Clear
3839,2012-06-08 23:00:00,79.2,12.0,7.6,74,9,25.0,100.5,Clear
3840,2012-06-09 00:00:00,80.64,12.8,8.0,73,6,25.0,100.51,Clear
3841,2012-06-09 01:00:00,80.82,12.9,8.0,72,0,25.0,100.53,Clear
3842,2012-06-09 02:00:00,79.56,12.2,7.8,74,0,25.0,100.54,Clear
3843,2012-06-09 03:00:00,78.3,11.5,7.3,75,0,25.0,100.56,Clear
3844,2012-06-09 04:00:00,75.60000000000001,10.0,6.9,81,0,25.0,100.6,Mainly Clear
3845,2012-06-09 05:00:00,77.58,11.1,8.0,81,6,48.3,100.68,Mainly Clear
3846,2012-06-09 06:00:00,83.16000000000001,14.2,9.4,73,0,48.3,100.71,Mainly Clear
3847,2012-06-09 07:00:00,86.4,16.0,9.7,66,6,48.3,100.76,Mainly Clear
3848,2012-06-09 08:00:00,90.72,18.4,8.9,54,4,48.3,100.79,Mainly Clear
3849,2012-06-09 09:00:00,92.34,19.3,7.8,47,0,48.3,100.81,Mainly Clear
3850,2012-06-09 10:00:00,95.4,21.0,10.1,50,4,48.3,100.78,Mainly Clear
3851,2012-06-09 11:00:00,95.76,21.2,9.5,47,15,48.3,100.76,Mostly Cloudy
3852,2012-06-09 12:00:00,97.56,22.2,9.2,43,17,48.3,100.73,Cloudy
3853,2012-06-09 13:00:00,99.0,23.0,7.6,37,19,48.3,100.71,Cloudy
3854,2012-06-09 14:00:00,99.36000000000001,23.2,7.2,36,7,48.3,100.68,Mostly Cloudy
3855,2012-06-09 15:00:00,100.44,23.8,5.6,31,20,48.3,100.67,Mainly Clear
3856,2012-06-09 16:00:00,100.62,23.9,6.5,33,17,48.3,100.68,Cloudy
3857,2012-06-09 17:00:00,100.44,23.8,7.2,34,17,48.3,100.69,Cloudy
3858,2012-06-09 18:00:00,100.08,23.6,7.1,35,11,48.3,100.73,Mainly Clear
3859,2012-06-09 19:00:00,96.84,21.8,7.6,40,9,48.3,100.75,Mostly Cloudy
3860,2012-06-09 20:00:00,90.9,18.5,8.2,51,6,48.3,100.8,Mainly Clear
3861,2012-06-09 21:00:00,92.52,19.4,6.8,44,6,25.0,100.87,Mainly Clear
3862,2012-06-09 22:00:00,88.2,17.0,6.6,50,4,25.0,100.93,Clear
3863,2012-06-09 23:00:00,88.02,16.9,7.8,55,4,25.0,100.97,Mainly Clear
3864,2012-06-10 00:00:00,86.03999999999999,15.8,9.2,65,6,25.0,101.03,Mainly Clear
3865,2012-06-10 01:00:00,85.68,15.6,9.3,66,4,25.0,101.07,Clear
3866,2012-06-10 02:00:00,82.26,13.7,9.9,78,0,25.0,101.08,Clear
3867,2012-06-10 03:00:00,83.34,14.3,11.6,84,4,25.0,101.11,Mainly Clear
3868,2012-06-10 04:00:00,79.92,12.4,10.3,87,4,25.0,101.15,Clear
3869,2012-06-10 05:00:00,82.62,13.9,9.1,73,6,48.3,101.24,Mainly Clear
3870,2012-06-10 06:00:00,87.48,16.6,9.6,63,0,48.3,101.36,Mainly Clear
3871,2012-06-10 07:00:00,90.0,18.0,8.8,55,4,48.3,101.42,Mainly Clear
3872,2012-06-10 08:00:00,93.96000000000001,20.2,9.5,50,6,48.3,101.45,Mainly Clear
3873,2012-06-10 09:00:00,95.76,21.2,10.3,50,6,48.3,101.45,Mainly Clear
3874,2012-06-10 10:00:00,99.9,23.5,11.8,48,7,48.3,101.42,Mainly Clear
3875,2012-06-10 11:00:00,101.88000000000001,24.6,7.4,33,7,48.3,101.45,Mostly Cloudy
3876,2012-06-10 12:00:00,103.32,25.4,7.8,33,7,48.3,101.41,Mainly Clear
3877,2012-06-10 13:00:00,103.5,25.5,5.8,28,11,48.3,101.38,Mostly Cloudy
3878,2012-06-10 14:00:00,105.3,26.5,5.9,27,6,48.3,101.4,Mostly Cloudy
3879,2012-06-10 15:00:00,105.3,26.5,9.2,34,6,48.3,101.42,Mainly Clear
3880,2012-06-10 16:00:00,105.84,26.8,10.7,37,6,48.3,101.41,Mainly Clear
3881,2012-06-10 17:00:00,105.48,26.6,10.0,35,6,48.3,101.37,Cloudy
3882,2012-06-10 18:00:00,105.3,26.5,9.3,34,15,48.3,101.39,Cloudy
3883,2012-06-10 19:00:00,104.4,26.0,9.0,34,9,48.3,101.47,Mostly Cloudy
3884,2012-06-10 20:00:00,103.14,25.3,7.5,32,9,48.3,101.47,Mostly Cloudy
3885,2012-06-10 21:00:00,98.64,22.8,8.4,40,7,25.0,101.51,Clear
3886,2012-06-10 22:00:00,98.46000000000001,22.7,8.9,41,9,25.0,101.5,Mainly Clear
3887,2012-06-10 23:00:00,99.0,23.0,8.9,41,11,25.0,101.5,Clear
3888,2012-06-11 00:00:00,96.66000000000001,21.7,9.0,44,6,25.0,101.49,Clear
3889,2012-06-11 01:00:00,94.32,20.4,9.2,49,0,25.0,101.45,Mainly Clear
3890,2012-06-11 02:00:00,91.62,18.9,10.5,58,7,25.0,101.47,Mainly Clear
3891,2012-06-11 03:00:00,90.9,18.5,10.9,61,9,25.0,101.45,Mostly Cloudy
3892,2012-06-11 04:00:00,90.18,18.1,10.7,62,11,24.1,101.47,Mostly Cloudy
3893,2012-06-11 05:00:00,89.10000000000001,17.5,11.8,69,11,24.1,101.54,Mainly Clear
3894,2012-06-11 06:00:00,92.7,19.5,12.7,65,7,48.3,101.58,Mainly Clear
3895,2012-06-11 07:00:00,92.52,19.4,13.8,70,11,48.3,101.63,Mostly Cloudy
3896,2012-06-11 08:00:00,93.96000000000001,20.2,14.5,70,9,48.3,101.64,Mostly Cloudy
3897,2012-06-11 09:00:00,97.92,22.4,15.6,65,7,24.1,101.63,Mostly Cloudy
3898,2012-06-11 10:00:00,102.24,24.8,16.3,59,4,24.1,101.58,Mostly Cloudy
3899,2012-06-11 11:00:00,105.48,26.6,17.2,56,4,24.1,101.54,Mostly Cloudy
3900,2012-06-11 12:00:00,106.74,27.3,17.5,55,7,24.1,101.47,Mostly Cloudy
3901,2012-06-11 13:00:00,109.26,28.7,18.3,53,15,24.1,101.4,Cloudy
3902,2012-06-11 14:00:00,110.52,29.4,18.3,51,17,48.3,101.32,Mainly Clear
3903,2012-06-11 15:00:00,111.78,30.1,18.4,50,17,48.3,101.27,Mainly Clear
3904,2012-06-11 16:00:00,110.88000000000001,29.6,17.4,48,22,48.3,101.2,Mainly Clear
3905,2012-06-11 17:00:00,109.98,29.1,18.0,51,22,48.3,101.16,Mainly Clear
3906,2012-06-11 18:00:00,108.36000000000001,28.2,18.1,54,19,48.3,101.16,Mainly Clear
3907,2012-06-11 19:00:00,106.38000000000001,27.1,17.6,56,19,48.3,101.11,Mostly Cloudy
3908,2012-06-11 20:00:00,104.22,25.9,16.7,57,20,24.1,101.09,Cloudy
3909,2012-06-11 21:00:00,103.14,25.3,16.6,59,20,25.0,101.09,Mostly Cloudy
3910,2012-06-11 22:00:00,102.06,24.7,16.6,61,22,25.0,101.08,Mostly Cloudy
3911,2012-06-11 23:00:00,100.44,23.8,16.5,64,17,25.0,101.09,Mostly Cloudy
3912,2012-06-12 00:00:00,98.46000000000001,22.7,16.3,67,19,25.0,101.08,Mostly Cloudy
3913,2012-06-12 01:00:00,96.66000000000001,21.7,15.5,68,17,25.0,101.07,Mostly Cloudy
3914,2012-06-12 02:00:00,95.22,20.9,15.0,69,19,25.0,101.04,Mainly Clear
3915,2012-06-12 03:00:00,93.96000000000001,20.2,14.3,69,17,25.0,101.0,Mostly Cloudy
3916,2012-06-12 04:00:00,92.7,19.5,13.4,68,19,24.1,101.0,Mostly Cloudy
3917,2012-06-12 05:00:00,92.34,19.3,13.1,67,17,24.1,101.01,Mostly Cloudy
3918,2012-06-12 06:00:00,92.7,19.5,13.2,67,15,24.1,100.98,Mostly Cloudy
3919,2012-06-12 07:00:00,95.58,21.1,14.1,64,22,24.1,100.95,Mostly Cloudy
3920,2012-06-12 08:00:00,96.84,21.8,14.4,63,19,24.1,100.92,Cloudy
3921,2012-06-12 09:00:00,98.64,22.8,14.9,61,19,24.1,100.86,Cloudy
3922,2012-06-12 10:00:00,100.62,23.9,15.5,59,15,24.1,100.8,Mostly Cloudy
3923,2012-06-12 11:00:00,102.06,24.7,15.5,57,24,24.1,100.74,Cloudy
3924,2012-06-12 12:00:00,101.52,24.4,15.8,59,17,16.1,100.71,Rain Showers
3925,2012-06-12 13:00:00,93.24,19.8,16.7,82,19,6.4,100.73,Rain Showers
3926,2012-06-12 14:00:00,91.8,19.0,17.3,90,19,6.4,100.71,"Rain,Fog"
3927,2012-06-12 15:00:00,91.98,19.1,17.3,89,15,6.4,100.67,"Rain,Fog"
3928,2012-06-12 16:00:00,90.72,18.4,16.7,90,22,8.0,100.6,"Rain,Fog"
3929,2012-06-12 17:00:00,90.36000000000001,18.2,16.3,89,20,12.9,100.57,Rain
3930,2012-06-12 18:00:00,90.36000000000001,18.2,16.3,89,20,9.7,100.55,"Rain,Fog"
3931,2012-06-12 19:00:00,89.82,17.9,16.1,89,20,11.3,100.52,Rain
3932,2012-06-12 20:00:00,90.9,18.5,16.2,86,19,19.3,100.47,Cloudy
3933,2012-06-12 21:00:00,90.72,18.4,16.1,86,19,25.0,100.46,Cloudy
3934,2012-06-12 22:00:00,91.08,18.6,16.1,85,17,25.0,100.45,Cloudy
3935,2012-06-12 23:00:00,91.08,18.6,16.1,85,13,25.0,100.44,Mostly Cloudy
3936,2012-06-13 00:00:00,90.9,18.5,16.1,86,11,25.0,100.46,Mostly Cloudy
3937,2012-06-13 01:00:00,92.88000000000001,19.6,16.6,83,15,25.0,100.44,Cloudy
3938,2012-06-13 02:00:00,92.88000000000001,19.6,16.5,82,19,25.0,100.4,Cloudy
3939,2012-06-13 03:00:00,92.34,19.3,16.4,83,22,25.0,100.46,Cloudy
3940,2012-06-13 04:00:00,91.26,18.7,15.6,82,22,24.1,100.54,Mostly Cloudy
3941,2012-06-13 05:00:00,88.56,17.2,13.9,81,22,24.1,100.62,Mainly Clear
3942,2012-06-13 06:00:00,89.46000000000001,17.7,14.1,79,22,24.1,100.75,Mainly Clear
3943,2012-06-13 07:00:00,90.18,18.1,14.1,77,20,24.1,100.86,Mostly Cloudy
3944,2012-06-13 08:00:00,89.82,17.9,12.6,71,32,24.1,100.96,Mostly Cloudy
3945,2012-06-13 09:00:00,88.2,17.0,11.7,71,24,24.1,101.09,Mostly Cloudy
3946,2012-06-13 10:00:00,89.82,17.9,11.0,64,19,24.1,101.18,Mostly Cloudy
3947,2012-06-13 11:00:00,92.7,19.5,11.6,60,13,24.1,101.28,Mainly Clear
3948,2012-06-13 12:00:00,92.88000000000001,19.6,10.6,56,13,48.3,101.3,Mainly Clear
3949,2012-06-13 13:00:00,94.32,20.4,10.6,53,15,48.3,101.32,Mainly Clear
3950,2012-06-13 14:00:00,94.86000000000001,20.7,9.8,50,9,48.3,101.36,Mainly Clear
3951,2012-06-13 15:00:00,97.02,21.9,10.7,49,17,48.3,101.39,Mainly Clear
3952,2012-06-13 16:00:00,96.84,21.8,9.3,45,17,48.3,101.42,Mainly Clear
3953,2012-06-13 17:00:00,97.56,22.2,9.8,45,19,48.3,101.44,Mainly Clear
3954,2012-06-13 18:00:00,96.48,21.6,9.8,47,20,48.3,101.48,Mainly Clear
3955,2012-06-13 19:00:00,93.60000000000001,20.0,8.5,47,17,48.3,101.57,Clear
3956,2012-06-13 20:00:00,89.28,17.6,8.0,53,11,48.3,101.62,Clear
3957,2012-06-13 21:00:00,84.78,15.1,8.1,63,7,25.0,101.7,Clear
3958,2012-06-13 22:00:00,83.88000000000001,14.6,7.9,64,11,25.0,101.74,Clear
3959,2012-06-13 23:00:00,84.96000000000001,15.2,6.2,55,11,25.0,101.79,Clear
3960,2012-06-14 00:00:00,83.7,14.5,5.4,54,11,25.0,101.85,Clear
3961,2012-06-14 01:00:00,81.72,13.4,5.2,58,9,25.0,101.88,Clear
3962,2012-06-14 02:00:00,81.0,13.0,5.4,60,9,25.0,101.93,Clear
3963,2012-06-14 03:00:00,79.74,12.3,5.3,62,13,25.0,101.96,Clear
3964,2012-06-14 04:00:00,79.92,12.4,4.9,60,15,48.3,102.04,Clear
3965,2012-06-14 05:00:00,79.92,12.4,5.7,64,9,48.3,102.14,Clear
3966,2012-06-14 06:00:00,84.06,14.7,6.3,57,9,48.3,102.2,Clear
3967,2012-06-14 07:00:00,87.3,16.5,7.5,55,13,48.3,102.28,Clear
3968,2012-06-14 08:00:00,90.9,18.5,7.9,50,11,48.3,102.33,Clear
3969,2012-06-14 09:00:00,93.60000000000001,20.0,5.5,39,19,48.3,102.32,Clear
3970,2012-06-14 10:00:00,93.60000000000001,20.0,3.8,34,17,48.3,102.31,Clear
3971,2012-06-14 11:00:00,95.76,21.2,6.5,38,9,48.3,102.27,Clear
3972,2012-06-14 12:00:00,95.94,21.3,4.7,34,24,48.3,102.26,Clear
3973,2012-06-14 13:00:00,97.56,22.2,5.5,34,19,48.3,102.22,Clear
3974,2012-06-14 14:00:00,97.92,22.4,5.5,33,15,48.3,102.17,Clear
3975,2012-06-14 15:00:00,98.82,22.9,6.7,35,11,48.3,102.12,Clear
3976,2012-06-14 16:00:00,98.10000000000001,22.5,6.9,36,7,48.3,102.15,Clear
3977,2012-06-14 17:00:00,98.82,22.9,6.9,36,15,48.3,102.17,Clear
3978,2012-06-14 18:00:00,98.46000000000001,22.7,7.5,38,17,48.3,102.16,Clear
3979,2012-06-14 19:00:00,98.10000000000001,22.5,6.5,36,13,48.3,102.17,Clear
3980,2012-06-14 20:00:00,96.66000000000001,21.7,5.7,35,15,48.3,102.16,Clear
3981,2012-06-14 21:00:00,95.4,21.0,6.0,38,11,25.0,102.16,Clear
3982,2012-06-14 22:00:00,93.96000000000001,20.2,6.0,39,9,25.0,102.2,Clear
3983,2012-06-14 23:00:00,92.88000000000001,19.6,5.8,40,6,25.0,102.21,Clear
3984,2012-06-15 00:00:00,91.62,18.9,5.5,41,6,25.0,102.18,Clear
3985,2012-06-15 01:00:00,88.38000000000001,17.1,6.1,48,6,25.0,102.17,Clear
3986,2012-06-15 02:00:00,83.16000000000001,14.2,7.9,66,13,25.0,102.19,Clear
3987,2012-06-15 03:00:00,82.44,13.8,9.1,73,13,25.0,102.17,Clear
3988,2012-06-15 04:00:00,81.0,13.0,9.0,77,15,24.1,102.19,Clear
3989,2012-06-15 05:00:00,81.53999999999999,13.3,8.9,75,15,48.3,102.27,Clear
3990,2012-06-15 06:00:00,85.68,15.6,8.5,63,17,48.3,102.32,Clear
3991,2012-06-15 07:00:00,87.84,16.8,8.8,59,19,48.3,102.38,Clear
3992,2012-06-15 08:00:00,91.08,18.6,9.5,55,17,48.3,102.4,Mainly Clear
3993,2012-06-15 09:00:00,94.14,20.3,7.9,45,17,48.3,102.39,Mainly Clear
3994,2012-06-15 10:00:00,96.12,21.4,6.3,37,13,48.3,102.37,Mostly Cloudy
3995,2012-06-15 11:00:00,97.56,22.2,7.9,40,15,48.3,102.35,Mostly Cloudy
3996,2012-06-15 12:00:00,99.9,23.5,7.0,35,11,48.3,102.3,Mainly Clear
3997,2012-06-15 13:00:00,101.52,24.4,6.7,32,15,48.3,102.22,Mostly Cloudy
3998,2012-06-15 14:00:00,101.34,24.3,5.6,30,11,48.3,102.17,Cloudy
3999,2012-06-15 15:00:00,102.42,24.9,5.7,29,17,48.3,102.13,Cloudy
4000,2012-06-15 16:00:00,102.60000000000001,25.0,5.1,28,15,48.3,102.08,Cloudy
4001,2012-06-15 17:00:00,102.24,24.8,5.3,28,11,48.3,102.06,Cloudy
4002,2012-06-15 18:00:00,101.7,24.5,6.0,30,9,48.3,102.08,Cloudy
4003,2012-06-15 19:00:00,99.36000000000001,23.2,8.8,40,15,48.3,102.07,Cloudy
4004,2012-06-15 20:00:00,97.2,22.0,8.7,43,15,48.3,102.06,Mostly Cloudy
4005,2012-06-15 21:00:00,97.38000000000001,22.1,7.8,40,11,25.0,102.06,Mainly Clear
4006,2012-06-15 22:00:00,95.94,21.3,8.6,44,13,25.0,102.06,Mainly Clear
4007,2012-06-15 23:00:00,93.78,20.1,9.5,50,11,25.0,102.06,Clear
4008,2012-06-16 00:00:00,89.10000000000001,17.5,9.9,61,9,25.0,102.05,Clear
4009,2012-06-16 01:00:00,86.58,16.1,10.4,69,11,25.0,102.02,Mainly Clear
4010,2012-06-16 02:00:00,85.14,15.3,10.3,72,13,25.0,102.03,Clear
4011,2012-06-16 03:00:00,84.06,14.7,9.6,71,17,25.0,102.03,Mainly Clear
4012,2012-06-16 04:00:00,82.44,13.8,8.8,72,19,25.0,102.11,Mainly Clear
4013,2012-06-16 05:00:00,82.62,13.9,8.5,70,13,24.1,102.16,Mostly Cloudy
4014,2012-06-16 06:00:00,84.96000000000001,15.2,8.8,66,17,24.1,102.18,Mostly Cloudy
4015,2012-06-16 07:00:00,86.76,16.2,9.3,64,15,48.3,102.25,Mostly Cloudy
4016,2012-06-16 08:00:00,88.92,17.4,9.5,60,9,48.3,102.23,Mostly Cloudy
4017,2012-06-16 09:00:00,91.62,18.9,10.7,59,11,48.3,102.2,Cloudy
4018,2012-06-16 10:00:00,96.48,21.6,12.0,54,4,48.3,102.15,Cloudy
4019,2012-06-16 11:00:00,97.02,21.9,11.6,52,6,48.3,102.1,Cloudy
4020,2012-06-16 12:00:00,100.44,23.8,13.1,51,6,48.3,102.04,Mostly Cloudy
4021,2012-06-16 13:00:00,101.88000000000001,24.6,12.5,47,9,48.3,101.96,Cloudy
4022,2012-06-16 14:00:00,102.42,24.9,13.5,49,6,48.3,101.91,Mostly Cloudy
4023,2012-06-16 15:00:00,104.4,26.0,13.6,46,6,48.3,101.84,Mostly Cloudy
4024,2012-06-16 16:00:00,105.3,26.5,11.0,38,7,48.3,101.77,Mostly Cloudy
4025,2012-06-16 17:00:00,105.3,26.5,11.3,39,4,48.3,101.73,Mostly Cloudy
4026,2012-06-16 18:00:00,104.76,26.2,12.1,41,6,48.3,101.71,Mainly Clear
4027,2012-06-16 19:00:00,102.60000000000001,25.0,13.0,47,7,48.3,101.66,Mainly Clear
4028,2012-06-16 20:00:00,99.18,23.1,11.8,49,4,48.3,101.62,Mainly Clear
4029,2012-06-16 21:00:00,95.03999999999999,20.8,12.3,58,0,25.0,101.6,Clear
4030,2012-06-16 22:00:00,96.3,21.5,11.9,54,9,25.0,101.6,Mainly Clear
4031,2012-06-16 23:00:00,95.22,20.9,12.9,60,0,25.0,101.58,Mainly Clear
4032,2012-06-17 00:00:00,92.34,19.3,12.6,65,0,25.0,101.55,Mainly Clear
4033,2012-06-17 01:00:00,93.24,19.8,13.7,68,7,25.0,101.52,Mainly Clear
4034,2012-06-17 02:00:00,91.08,18.6,13.5,72,11,25.0,101.48,Mainly Clear
4035,2012-06-17 03:00:00,90.72,18.4,13.7,74,13,25.0,101.45,Clear
4036,2012-06-17 04:00:00,88.92,17.4,13.4,77,9,24.1,101.46,Mainly Clear
4037,2012-06-17 05:00:00,88.74,17.3,13.7,79,6,48.3,101.47,Mainly Clear
4038,2012-06-17 06:00:00,91.62,18.9,14.1,74,9,48.3,101.51,Mainly Clear
4039,2012-06-17 07:00:00,93.96000000000001,20.2,14.4,69,11,48.3,101.52,Mainly Clear
4040,2012-06-17 08:00:00,97.56,22.2,15.1,64,9,48.3,101.5,Mainly Clear
4041,2012-06-17 09:00:00,99.72,23.4,15.3,60,9,48.3,101.47,Mainly Clear
4042,2012-06-17 10:00:00,102.60000000000001,25.0,16.1,58,9,48.3,101.43,Mainly Clear
4043,2012-06-17 11:00:00,103.86000000000001,25.7,16.3,56,9,48.3,101.39,Cloudy
4044,2012-06-17 12:00:00,104.4,26.0,16.3,55,6,48.3,101.33,Cloudy
4045,2012-06-17 13:00:00,105.48,26.6,16.7,55,11,48.3,101.23,Mostly Cloudy
4046,2012-06-17 14:00:00,104.58,26.1,16.5,55,17,48.3,101.17,Cloudy
4047,2012-06-17 15:00:00,106.2,27.0,16.8,54,17,48.3,101.1,Cloudy
4048,2012-06-17 16:00:00,106.92,27.4,16.3,51,20,48.3,101.02,Cloudy
4049,2012-06-17 17:00:00,104.76,26.2,14.7,49,19,48.3,100.97,Cloudy
4050,2012-06-17 18:00:00,104.4,26.0,15.9,54,17,48.3,100.92,Cloudy
4051,2012-06-17 19:00:00,103.5,25.5,16.4,57,17,48.3,100.91,Cloudy
4052,2012-06-17 20:00:00,101.7,24.5,15.1,56,15,48.3,100.95,Cloudy
4053,2012-06-17 21:00:00,100.98,24.1,14.1,54,19,25.0,100.99,Mostly Cloudy
4054,2012-06-17 22:00:00,99.72,23.4,13.8,55,22,25.0,101.0,Mostly Cloudy
4055,2012-06-17 23:00:00,99.36000000000001,23.2,13.7,55,13,25.0,101.03,Mostly Cloudy
4056,2012-06-18 00:00:00,96.66000000000001,21.7,13.4,59,15,25.0,101.04,Mainly Clear
4057,2012-06-18 01:00:00,94.5,20.5,13.4,64,13,25.0,101.07,Mainly Clear
4058,2012-06-18 02:00:00,93.06,19.7,13.5,67,19,25.0,101.08,Mainly Clear
4059,2012-06-18 03:00:00,92.34,19.3,13.4,69,17,25.0,101.06,Mainly Clear
4060,2012-06-18 04:00:00,90.72,18.4,13.3,72,17,25.0,101.1,Mainly Clear
4061,2012-06-18 05:00:00,89.82,17.9,13.2,74,19,24.1,101.12,Mostly Cloudy
4062,2012-06-18 06:00:00,90.36000000000001,18.2,13.3,73,20,24.1,101.14,Mostly Cloudy
4063,2012-06-18 07:00:00,92.34,19.3,13.4,69,17,48.3,101.16,Mostly Cloudy
4064,2012-06-18 08:00:00,94.68,20.6,14.0,66,17,48.3,101.17,Mostly Cloudy
4065,2012-06-18 09:00:00,97.2,22.0,14.4,62,17,48.3,101.15,Mostly Cloudy
4066,2012-06-18 10:00:00,98.28,22.6,14.2,59,19,48.3,101.15,Mostly Cloudy
4067,2012-06-18 11:00:00,100.8,24.0,14.9,57,19,24.1,101.14,Mostly Cloudy
4068,2012-06-18 12:00:00,103.14,25.3,14.8,52,19,24.1,101.13,Mostly Cloudy
4069,2012-06-18 13:00:00,103.14,25.3,14.2,50,20,24.1,101.06,Mostly Cloudy
4070,2012-06-18 14:00:00,104.58,26.1,14.0,47,22,24.1,101.06,Mostly Cloudy
4071,2012-06-18 15:00:00,104.03999999999999,25.8,13.4,46,24,24.1,101.02,Mostly Cloudy
4072,2012-06-18 16:00:00,103.68,25.6,13.6,47,24,24.1,100.98,Mainly Clear
4073,2012-06-18 17:00:00,102.96000000000001,25.2,13.5,48,20,24.1,100.95,Mainly Clear
4074,2012-06-18 18:00:00,100.98,24.1,13.1,50,22,24.1,100.96,Mostly Cloudy
4075,2012-06-18 19:00:00,99.36000000000001,23.2,13.1,53,20,24.1,100.97,Mostly Cloudy
4076,2012-06-18 20:00:00,97.74,22.3,13.2,56,7,24.1,100.99,Cloudy
4077,2012-06-18 21:00:00,96.84,21.8,13.4,59,9,25.0,101.02,Mainly Clear
4078,2012-06-18 22:00:00,96.3,21.5,14.0,62,13,25.0,101.02,Mainly Clear
4079,2012-06-18 23:00:00,96.3,21.5,14.7,65,13,25.0,101.13,Mostly Cloudy
4080,2012-06-19 00:00:00,95.03999999999999,20.8,14.7,68,13,25.0,101.14,Mostly Cloudy
4081,2012-06-19 01:00:00,93.60000000000001,20.0,14.6,71,9,25.0,101.17,Mostly Cloudy
4082,2012-06-19 02:00:00,91.98,19.1,14.3,74,9,25.0,101.11,Clear
4083,2012-06-19 03:00:00,90.53999999999999,18.3,14.1,76,9,25.0,101.12,Clear
4084,2012-06-19 04:00:00,90.18,18.1,13.6,75,9,24.1,101.13,Mostly Cloudy
4085,2012-06-19 05:00:00,90.0,18.0,13.7,76,6,25.0,101.19,Mostly Cloudy
4086,2012-06-19 06:00:00,91.44,18.8,14.1,74,9,24.1,101.19,Cloudy
4087,2012-06-19 07:00:00,92.88000000000001,19.6,14.3,71,22,24.1,101.01,Mostly Cloudy
4088,2012-06-19 08:00:00,94.86000000000001,20.7,14.8,69,6,24.1,101.12,Cloudy
4089,2012-06-19 09:00:00,97.2,22.0,15.5,67,15,24.1,101.03,Cloudy
4090,2012-06-19 10:00:00,99.36000000000001,23.2,16.0,64,13,24.1,100.98,Cloudy
4091,2012-06-19 11:00:00,101.34,24.3,16.3,61,11,24.1,101.0,Cloudy
4092,2012-06-19 12:00:00,103.14,25.3,17.0,60,9,24.1,100.99,Cloudy
4093,2012-06-19 13:00:00,104.03999999999999,25.8,17.9,62,15,24.1,100.99,Cloudy
4094,2012-06-19 14:00:00,105.3,26.5,18.9,63,11,24.1,101.01,Cloudy
4095,2012-06-19 15:00:00,108.18,28.1,19.2,58,20,24.1,100.92,Mostly Cloudy
4096,2012-06-19 16:00:00,107.46000000000001,27.7,19.0,59,17,24.1,100.87,Mostly Cloudy
4097,2012-06-19 17:00:00,108.0,28.0,19.4,60,19,24.1,100.91,Mostly Cloudy
4098,2012-06-19 18:00:00,107.82,27.9,19.1,59,19,24.1,100.93,Cloudy
4099,2012-06-19 19:00:00,106.2,27.0,19.0,62,20,24.1,100.94,Mostly Cloudy
4100,2012-06-19 20:00:00,104.58,26.1,19.2,66,19,24.1,100.85,Cloudy
4101,2012-06-19 21:00:00,104.22,25.9,19.3,67,11,25.0,100.81,Cloudy
4102,2012-06-19 22:00:00,103.5,25.5,19.3,69,9,25.0,100.86,Mostly Cloudy
4103,2012-06-19 23:00:00,103.14,25.3,19.3,69,13,25.0,100.89,Cloudy
4104,2012-06-20 00:00:00,102.60000000000001,25.0,18.8,68,17,25.0,100.82,Mostly Cloudy
4105,2012-06-20 01:00:00,102.60000000000001,25.0,18.5,67,19,25.0,100.87,Mainly Clear
4106,2012-06-20 02:00:00,100.98,24.1,18.3,70,24,25.0,100.88,Clear
4107,2012-06-20 03:00:00,100.26,23.7,18.4,72,20,25.0,100.9,Mainly Clear
4108,2012-06-20 04:00:00,99.18,23.1,18.2,74,13,24.1,100.97,Mainly Clear
4109,2012-06-20 05:00:00,99.0,23.0,18.1,74,19,24.1,101.01,Mainly Clear
4110,2012-06-20 06:00:00,101.16000000000001,24.2,18.2,69,22,48.3,101.04,Mainly Clear
4111,2012-06-20 07:00:00,103.32,25.4,18.1,64,24,48.3,101.07,Mostly Cloudy
4112,2012-06-20 08:00:00,103.14,25.3,18.0,64,19,48.3,101.1,Mostly Cloudy
4113,2012-06-20 09:00:00,104.94,26.3,18.5,62,17,24.1,101.09,Mostly Cloudy
4114,2012-06-20 10:00:00,106.92,27.4,19.3,61,9,24.1,101.06,Mostly Cloudy
4115,2012-06-20 11:00:00,108.9,28.5,19.8,59,17,24.1,101.06,Mainly Clear
4116,2012-06-20 12:00:00,109.98,29.1,20.0,58,20,24.1,101.0,Mainly Clear
4117,2012-06-20 13:00:00,111.06,29.7,20.0,56,19,24.1,100.91,Clear
4118,2012-06-20 14:00:00,114.66000000000001,31.7,20.4,51,17,24.1,100.83,Clear
4119,2012-06-20 15:00:00,115.56,32.2,19.6,47,22,24.1,100.75,Mainly Clear
4120,2012-06-20 16:00:00,115.56,32.2,20.0,49,26,24.1,100.74,Mainly Clear
4121,2012-06-20 17:00:00,115.74,32.3,20.3,49,15,24.1,100.69,Mainly Clear
4122,2012-06-20 18:00:00,115.92000000000002,32.4,19.9,48,17,24.1,100.61,Mostly Cloudy
4123,2012-06-20 19:00:00,112.68,30.6,21.1,57,11,24.1,100.63,Mostly Cloudy
4124,2012-06-20 20:00:00,111.06,29.7,21.1,60,17,24.1,100.61,Mostly Cloudy
4125,2012-06-20 21:00:00,108.0,28.0,21.0,66,15,25.0,100.61,Mainly Clear
4126,2012-06-20 22:00:00,108.18,28.1,20.2,62,24,25.0,100.57,Clear
4127,2012-06-20 23:00:00,106.74,27.3,20.1,65,19,25.0,100.6,Mainly Clear
4128,2012-06-21 00:00:00,105.3,26.5,19.9,67,20,25.0,100.61,Mainly Clear
4129,2012-06-21 01:00:00,104.22,25.9,19.6,68,22,25.0,100.6,Clear
4130,2012-06-21 02:00:00,102.78,25.1,19.3,70,11,25.0,100.6,Mainly Clear
4131,2012-06-21 03:00:00,101.88000000000001,24.6,18.9,71,11,25.0,100.58,Mainly Clear
4132,2012-06-21 04:00:00,100.8,24.0,18.5,71,11,25.0,100.57,Mainly Clear
4133,2012-06-21 05:00:00,100.98,24.1,18.2,70,17,24.1,100.6,Mainly Clear
4134,2012-06-21 06:00:00,101.7,24.5,18.2,68,17,24.1,100.6,Mainly Clear
4135,2012-06-21 07:00:00,103.68,25.6,18.6,65,17,24.1,100.6,Mainly Clear
4136,2012-06-21 08:00:00,104.4,26.0,18.5,63,11,24.1,100.59,Mainly Clear
4137,2012-06-21 09:00:00,108.18,28.1,19.0,58,19,24.1,100.52,Mainly Clear
4138,2012-06-21 10:00:00,110.52,29.4,19.3,55,17,24.1,100.47,Clear
4139,2012-06-21 11:00:00,113.03999999999999,30.8,20.0,53,13,24.1,100.42,Mainly Clear
4140,2012-06-21 12:00:00,114.84,31.8,20.8,52,15,24.1,100.36,Mainly Clear
4141,2012-06-21 13:00:00,114.48,31.6,20.6,52,24,24.1,100.32,Mostly Cloudy
4142,2012-06-21 14:00:00,116.27999999999999,32.6,20.4,49,20,24.1,100.25,Mainly Clear
4143,2012-06-21 15:00:00,117.0,33.0,19.0,44,24,24.1,100.2,Mainly Clear
4144,2012-06-21 16:00:00,116.10000000000001,32.5,17.9,42,24,24.1,100.14,Mainly Clear
4145,2012-06-21 17:00:00,115.38,32.1,17.9,43,30,24.1,100.09,Mainly Clear
4146,2012-06-21 18:00:00,113.58,31.1,18.5,47,22,24.1,100.06,Clear
4147,2012-06-21 19:00:00,112.14,30.3,17.3,46,30,24.1,100.08,Clear
4148,2012-06-21 20:00:00,109.62,28.9,17.6,51,22,24.1,100.1,Mainly Clear
4149,2012-06-21 21:00:00,108.18,28.1,17.7,53,20,25.0,100.13,Mainly Clear
4150,2012-06-21 22:00:00,107.10000000000001,27.5,17.8,55,17,25.0,100.14,Mainly Clear
4151,2012-06-21 23:00:00,105.66000000000001,26.7,17.7,58,17,25.0,100.09,Clear
4152,2012-06-22 00:00:00,104.03999999999999,25.8,18.1,63,9,25.0,100.07,Clear
4153,2012-06-22 01:00:00,102.24,24.8,18.1,66,9,25.0,100.11,Mainly Clear
4154,2012-06-22 02:00:00,102.06,24.7,16.9,62,15,25.0,100.1,Mainly Clear
4155,2012-06-22 03:00:00,100.8,24.0,16.7,64,22,25.0,100.12,Mainly Clear
4156,2012-06-22 04:00:00,99.0,23.0,16.7,68,19,24.1,100.14,Mainly Clear
4157,2012-06-22 05:00:00,98.28,22.6,16.9,70,20,24.1,100.21,Mainly Clear
4158,2012-06-22 06:00:00,98.46000000000001,22.7,17.2,71,19,24.1,100.28,Mostly Cloudy
4159,2012-06-22 07:00:00,99.72,23.4,17.3,69,19,24.1,100.33,Mostly Cloudy
4160,2012-06-22 08:00:00,99.0,23.0,17.3,70,17,24.1,100.37,Mostly Cloudy
4161,2012-06-22 09:00:00,101.88000000000001,24.6,17.6,65,17,24.1,100.4,Mostly Cloudy
4162,2012-06-22 10:00:00,101.52,24.4,16.9,63,19,24.1,100.4,Mostly Cloudy
4163,2012-06-22 11:00:00,102.06,24.7,17.3,63,22,24.1,100.41,Mostly Cloudy
4164,2012-06-22 12:00:00,105.84,26.8,17.8,58,22,24.1,100.41,Mostly Cloudy
4165,2012-06-22 13:00:00,108.0,28.0,14.8,45,20,24.1,100.39,Mostly Cloudy
4166,2012-06-22 14:00:00,109.98,29.1,14.0,40,22,48.3,100.37,Mostly Cloudy
4167,2012-06-22 15:00:00,109.8,29.0,13.8,39,20,48.3,100.32,Mainly Clear
4168,2012-06-22 16:00:00,108.9,28.5,12.7,38,22,48.3,100.29,Mainly Clear
4169,2012-06-22 17:00:00,107.82,27.9,12.4,38,24,48.3,100.29,Mainly Clear
4170,2012-06-22 18:00:00,106.56,27.2,11.7,38,17,48.3,100.31,Mainly Clear
4171,2012-06-22 19:00:00,103.86000000000001,25.7,11.7,42,11,48.3,100.38,Mostly Cloudy
4172,2012-06-22 20:00:00,99.36000000000001,23.2,10.9,46,7,24.1,100.42,Mostly Cloudy
4173,2012-06-22 21:00:00,98.64,22.8,11.8,50,9,25.0,100.47,Mostly Cloudy
4174,2012-06-22 22:00:00,95.58,21.1,11.7,55,9,25.0,100.48,Mainly Clear
4175,2012-06-22 23:00:00,93.60000000000001,20.0,11.7,59,9,25.0,100.52,Mainly Clear
4176,2012-06-23 00:00:00,92.88000000000001,19.6,12.1,62,7,25.0,100.56,Mostly Cloudy
4177,2012-06-23 01:00:00,95.03999999999999,20.8,11.9,57,9,25.0,100.6,Mainly Clear
4178,2012-06-23 02:00:00,93.78,20.1,12.0,60,13,25.0,100.62,Mainly Clear
4179,2012-06-23 03:00:00,92.7,19.5,12.3,63,13,25.0,100.65,Mainly Clear
4180,2012-06-23 04:00:00,92.7,19.5,12.3,63,15,24.1,100.7,Mainly Clear
4181,2012-06-23 05:00:00,92.34,19.3,12.4,64,15,48.3,100.82,Mostly Cloudy
4182,2012-06-23 06:00:00,88.92,17.4,12.7,74,15,24.1,100.8,Rain Showers
4183,2012-06-23 07:00:00,91.08,18.6,13.7,73,11,48.3,100.84,Mostly Cloudy
4184,2012-06-23 08:00:00,93.60000000000001,20.0,12.6,62,15,48.3,100.89,Mostly Cloudy
4185,2012-06-23 09:00:00,96.3,21.5,11.8,54,15,48.3,100.9,Mostly Cloudy
4186,2012-06-23 10:00:00,97.56,22.2,11.7,51,7,48.3,100.91,Mostly Cloudy
4187,2012-06-23 11:00:00,100.44,23.8,11.4,46,11,48.3,100.89,Mostly Cloudy
4188,2012-06-23 12:00:00,102.78,25.1,9.8,38,13,48.3,100.85,Mostly Cloudy
4189,2012-06-23 13:00:00,103.68,25.6,9.6,36,19,48.3,100.84,Mainly Clear
4190,2012-06-23 14:00:00,104.58,26.1,7.1,30,15,48.3,100.82,Mainly Clear
4191,2012-06-23 15:00:00,105.12,26.4,5.7,27,13,48.3,100.86,Mostly Cloudy
4192,2012-06-23 16:00:00,105.3,26.5,5.9,27,22,48.3,100.84,Mostly Cloudy
4193,2012-06-23 17:00:00,105.12,26.4,4.4,24,15,48.3,100.83,Mainly Clear
4194,2012-06-23 18:00:00,104.03999999999999,25.8,3.6,24,20,48.3,100.82,Mainly Clear
4195,2012-06-23 19:00:00,104.03999999999999,25.8,3.5,24,13,48.3,100.84,Mainly Clear
4196,2012-06-23 20:00:00,99.9,23.5,5.4,31,6,48.3,100.88,Clear
4197,2012-06-23 21:00:00,93.78,20.1,7.3,43,0,25.0,100.95,Clear
4198,2012-06-23 22:00:00,92.88000000000001,19.6,7.5,45,0,25.0,100.99,Mainly Clear
4199,2012-06-23 23:00:00,91.44,18.8,8.5,51,0,25.0,101.01,Clear
4200,2012-06-24 00:00:00,90.53999999999999,18.3,8.4,52,0,25.0,101.0,Clear
4201,2012-06-24 01:00:00,89.28,17.6,8.7,56,6,25.0,101.02,Clear
4202,2012-06-24 02:00:00,82.98,14.1,8.7,70,4,25.0,101.01,Clear
4203,2012-06-24 03:00:00,84.42,14.9,9.1,68,0,25.0,101.02,Clear
4204,2012-06-24 04:00:00,83.52,14.4,9.0,70,11,48.3,101.04,Clear
4205,2012-06-24 05:00:00,82.8,14.0,9.2,73,6,48.3,101.04,Clear
4206,2012-06-24 06:00:00,89.64,17.8,10.5,62,4,48.3,101.04,Clear
4207,2012-06-24 07:00:00,93.60000000000001,20.0,12.2,61,7,48.3,101.03,Clear
4208,2012-06-24 08:00:00,97.56,22.2,10.6,48,7,48.3,101.03,Clear
4209,2012-06-24 09:00:00,99.36000000000001,23.2,12.7,52,11,48.3,101.0,Clear
4210,2012-06-24 10:00:00,101.34,24.3,13.0,49,15,48.3,100.97,Clear
4211,2012-06-24 11:00:00,104.94,26.3,12.0,41,17,48.3,100.91,Mainly Clear
4212,2012-06-24 12:00:00,106.38000000000001,27.1,8.4,31,9,48.3,100.82,Mainly Clear
4213,2012-06-24 13:00:00,106.74,27.3,9.9,34,17,48.3,100.75,Mostly Cloudy
4214,2012-06-24 14:00:00,105.84,26.8,9.4,33,19,48.3,100.67,Mostly Cloudy
4215,2012-06-24 15:00:00,105.66000000000001,26.7,8.9,33,22,48.3,100.63,Mostly Cloudy
4216,2012-06-24 16:00:00,105.12,26.4,8.7,33,19,24.1,100.61,Cloudy
4217,2012-06-24 17:00:00,96.3,21.5,11.8,54,32,24.1,100.69,Cloudy
4218,2012-06-24 18:00:00,92.52,19.4,12.7,65,26,24.1,100.71,Rain Showers
4219,2012-06-24 19:00:00,91.8,19.0,14.0,73,20,24.1,100.74,Rain
4220,2012-06-24 20:00:00,91.26,18.7,14.5,77,24,24.1,100.69,Rain
4221,2012-06-24 21:00:00,91.08,18.6,13.6,73,19,25.0,100.67,Cloudy
4222,2012-06-24 22:00:00,90.53999999999999,18.3,13.1,72,9,25.0,100.6,Cloudy
4223,2012-06-24 23:00:00,89.64,17.8,13.2,74,13,25.0,100.57,Cloudy
4224,2012-06-25 00:00:00,87.66000000000001,16.7,13.6,82,9,19.3,100.51,Rain Showers
4225,2012-06-25 01:00:00,85.86000000000001,15.7,13.6,87,9,19.3,100.41,Rain
4226,2012-06-25 02:00:00,85.86000000000001,15.7,13.8,88,7,12.9,100.32,Drizzle
4227,2012-06-25 03:00:00,86.22,15.9,14.2,90,9,11.3,100.26,Rain
4228,2012-06-25 04:00:00,86.58,16.1,14.1,88,15,19.3,100.21,Rain
4229,2012-06-25 05:00:00,87.12,16.4,14.3,87,15,19.3,100.21,Cloudy
4230,2012-06-25 06:00:00,87.66000000000001,16.7,14.3,86,15,24.1,100.19,Mostly Cloudy
4231,2012-06-25 07:00:00,88.56,17.2,13.8,80,15,24.1,100.18,Cloudy
4232,2012-06-25 08:00:00,91.26,18.7,13.9,74,17,24.1,100.16,Mainly Clear
4233,2012-06-25 09:00:00,91.44,18.8,13.0,69,26,24.1,100.13,Mostly Cloudy
4234,2012-06-25 10:00:00,89.82,17.9,12.8,72,24,24.1,100.12,Rain Showers
4235,2012-06-25 11:00:00,93.24,19.8,13.1,65,22,24.1,100.1,Mostly Cloudy
4236,2012-06-25 12:00:00,91.8,19.0,11.9,63,26,24.1,100.12,Mostly Cloudy
4237,2012-06-25 13:00:00,93.06,19.7,12.4,63,19,24.1,100.12,Mostly Cloudy
4238,2012-06-25 14:00:00,93.96000000000001,20.2,12.2,60,26,24.1,100.13,Mostly Cloudy
4239,2012-06-25 15:00:00,91.44,18.8,10.8,60,28,24.1,100.09,Mostly Cloudy
4240,2012-06-25 16:00:00,90.18,18.1,10.8,62,26,24.1,100.12,Mostly Cloudy
4241,2012-06-25 17:00:00,87.3,16.5,10.8,69,26,24.1,100.14,Cloudy
4242,2012-06-25 18:00:00,86.4,16.0,10.7,71,28,24.1,100.12,Cloudy
4243,2012-06-25 19:00:00,84.60000000000001,15.0,10.9,76,22,24.1,100.14,Cloudy
4244,2012-06-25 20:00:00,84.96000000000001,15.2,11.3,78,11,24.1,100.12,Cloudy
4245,2012-06-25 21:00:00,87.48,16.6,12.3,76,13,25.0,100.13,Cloudy
4246,2012-06-25 22:00:00,88.38000000000001,17.1,11.8,71,24,25.0,100.13,Cloudy
4247,2012-06-25 23:00:00,87.66000000000001,16.7,11.6,72,22,25.0,100.14,Cloudy
4248,2012-06-26 00:00:00,87.48,16.6,11.3,71,26,25.0,100.12,Cloudy
4249,2012-06-26 01:00:00,86.76,16.2,10.9,71,24,25.0,100.13,Cloudy
4250,2012-06-26 02:00:00,85.86000000000001,15.7,10.6,72,11,25.0,100.11,Cloudy
4251,2012-06-26 03:00:00,86.03999999999999,15.8,10.5,71,13,25.0,100.12,Cloudy
4252,2012-06-26 04:00:00,85.68,15.6,10.2,70,13,24.1,100.12,Cloudy
4253,2012-06-26 05:00:00,85.32,15.4,10.2,71,17,24.1,100.16,Cloudy
4254,2012-06-26 06:00:00,85.68,15.6,10.2,70,17,24.1,100.18,Mostly Cloudy
4255,2012-06-26 07:00:00,86.4,16.0,10.4,69,11,24.1,100.19,Mostly Cloudy
4256,2012-06-26 08:00:00,87.12,16.4,10.3,67,17,24.1,100.18,Cloudy
4257,2012-06-26 09:00:00,88.02,16.9,10.5,66,9,24.1,100.16,Cloudy
4258,2012-06-26 10:00:00,88.2,17.0,10.4,65,13,24.1,100.15,Cloudy
4259,2012-06-26 11:00:00,89.28,17.6,10.8,64,11,24.1,100.12,Cloudy
4260,2012-06-26 12:00:00,88.02,16.9,11.5,70,15,24.1,100.12,Rain
4261,2012-06-26 13:00:00,86.76,16.2,10.9,71,26,19.3,100.1,Cloudy
4262,2012-06-26 14:00:00,86.94,16.3,11.6,74,20,19.3,100.07,Drizzle
4263,2012-06-26 15:00:00,87.48,16.6,11.4,71,20,24.1,100.03,Cloudy
4264,2012-06-26 16:00:00,86.03999999999999,15.8,12.4,80,17,24.1,100.0,Cloudy
4265,2012-06-26 17:00:00,86.58,16.1,12.5,79,13,24.1,99.99,Rain Showers
4266,2012-06-26 18:00:00,85.68,15.6,12.6,82,13,19.3,99.99,Rain
4267,2012-06-26 19:00:00,85.32,15.4,12.6,83,15,19.3,99.93,Rain
4268,2012-06-26 20:00:00,85.14,15.3,12.8,85,15,24.1,99.9,Rain
4269,2012-06-26 21:00:00,85.32,15.4,12.9,85,15,12.9,99.9,Rain
4270,2012-06-26 22:00:00,85.32,15.4,12.8,84,15,16.1,99.85,Rain
4271,2012-06-26 23:00:00,85.32,15.4,12.8,84,15,19.3,99.8,Rain
4272,2012-06-27 00:00:00,85.86000000000001,15.7,12.9,83,17,19.3,99.75,Rain
4273,2012-06-27 01:00:00,85.86000000000001,15.7,12.9,83,13,19.3,99.72,Rain
4274,2012-06-27 02:00:00,85.68,15.6,12.7,83,11,19.3,99.69,Rain
4275,2012-06-27 03:00:00,85.14,15.3,12.7,84,9,19.3,99.69,Rain
4276,2012-06-27 04:00:00,84.96000000000001,15.2,12.4,83,13,19.3,99.72,Rain
4277,2012-06-27 05:00:00,84.96000000000001,15.2,12.2,82,17,24.1,99.76,Rain
4278,2012-06-27 06:00:00,85.32,15.4,12.2,81,15,24.1,99.79,Rain
4279,2012-06-27 07:00:00,86.94,16.3,12.2,77,20,24.1,99.81,Rain
4280,2012-06-27 08:00:00,90.0,18.0,12.9,72,28,24.1,99.83,Mostly Cloudy
4281,2012-06-27 09:00:00,90.0,18.0,12.0,68,20,24.1,99.86,Cloudy
4282,2012-06-27 10:00:00,91.26,18.7,13.0,69,20,24.1,99.89,Rain
4283,2012-06-27 11:00:00,89.64,17.8,13.5,76,24,24.1,99.93,Rain
4284,2012-06-27 12:00:00,93.24,19.8,13.5,67,20,19.3,99.92,Rain
4285,2012-06-27 13:00:00,92.34,19.3,14.4,73,13,19.3,99.96,Rain
4286,2012-06-27 14:00:00,91.98,19.1,14.7,76,19,19.3,99.99,Rain
4287,2012-06-27 15:00:00,92.88000000000001,19.6,15.1,75,19,24.1,100.02,Mostly Cloudy
4288,2012-06-27 16:00:00,94.14,20.3,14.2,68,20,24.1,100.03,Rain
4289,2012-06-27 17:00:00,93.42,19.9,14.3,70,20,24.1,100.05,Mostly Cloudy
4290,2012-06-27 18:00:00,95.58,21.1,14.1,64,15,24.1,100.06,Mostly Cloudy
4291,2012-06-27 19:00:00,92.52,19.4,13.8,70,17,24.1,100.09,Rain
4292,2012-06-27 20:00:00,92.34,19.3,13.2,68,11,24.1,100.13,Cloudy
4293,2012-06-27 21:00:00,92.34,19.3,12.7,66,13,25.0,100.19,Mostly Cloudy
4294,2012-06-27 22:00:00,91.26,18.7,13.4,71,11,25.0,100.19,Cloudy
4295,2012-06-27 23:00:00,89.10000000000001,17.5,14.1,80,9,25.0,100.17,Cloudy
4296,2012-06-28 00:00:00,88.56,17.2,14.0,81,6,25.0,100.17,Cloudy
4297,2012-06-28 01:00:00,89.46000000000001,17.7,13.3,75,11,25.0,100.15,Cloudy
4298,2012-06-28 02:00:00,89.28,17.6,13.4,76,7,25.0,100.16,Cloudy
4299,2012-06-28 03:00:00,89.10000000000001,17.5,13.3,76,6,25.0,100.18,Rain
4300,2012-06-28 04:00:00,89.46000000000001,17.7,13.9,78,11,25.0,100.2,Rain Showers
4301,2012-06-28 05:00:00,89.28,17.6,13.7,78,9,48.3,100.25,Mostly Cloudy
4302,2012-06-28 06:00:00,89.46000000000001,17.7,13.7,77,11,48.3,100.27,Mostly Cloudy
4303,2012-06-28 07:00:00,91.08,18.6,14.2,76,11,48.3,100.29,Mostly Cloudy
4304,2012-06-28 08:00:00,92.52,19.4,14.2,72,9,48.3,100.28,Mostly Cloudy
4305,2012-06-28 09:00:00,94.32,20.4,14.1,67,11,48.3,100.27,Mostly Cloudy
4306,2012-06-28 10:00:00,96.66000000000001,21.7,14.7,64,11,48.3,100.23,Mostly Cloudy
4307,2012-06-28 11:00:00,99.0,23.0,14.7,60,13,48.3,100.21,Mostly Cloudy
4308,2012-06-28 12:00:00,101.88000000000001,24.6,15.3,56,9,48.3,100.19,Mostly Cloudy
4309,2012-06-28 13:00:00,102.42,24.9,15.0,54,17,48.3,100.11,Mainly Clear
4310,2012-06-28 14:00:00,103.5,25.5,15.3,53,22,48.3,100.08,Mainly Clear
4311,2012-06-28 15:00:00,106.2,27.0,14.8,47,22,48.3,100.03,Mainly Clear
4312,2012-06-28 16:00:00,106.38000000000001,27.1,14.0,45,22,48.3,100.01,Mainly Clear
4313,2012-06-28 17:00:00,106.56,27.2,12.6,40,19,48.3,99.92,Mostly Cloudy
4314,2012-06-28 18:00:00,105.12,26.4,12.1,41,19,48.3,99.9,Mostly Cloudy
4315,2012-06-28 19:00:00,103.32,25.4,12.9,46,13,48.3,99.91,Mostly Cloudy
4316,2012-06-28 20:00:00,100.98,24.1,13.5,52,11,24.1,99.89,Mainly Clear
4317,2012-06-28 21:00:00,100.08,23.6,14.3,56,11,25.0,99.95,Mainly Clear
4318,2012-06-28 22:00:00,98.10000000000001,22.5,15.0,63,11,25.0,99.88,Mostly Cloudy
4319,2012-06-28 23:00:00,97.02,21.9,15.4,67,15,25.0,99.85,Mostly Cloudy
4320,2012-06-29 00:00:00,97.56,22.2,14.0,60,15,25.0,99.83,Rain Showers
4321,2012-06-29 01:00:00,95.58,21.1,14.7,67,4,25.0,99.75,Cloudy
4322,2012-06-29 02:00:00,94.14,20.3,15.3,73,7,25.0,99.71,Cloudy
4323,2012-06-29 03:00:00,92.7,19.5,16.1,81,7,9.7,99.71,"Thunderstorms,Rain Showers,Fog"
4324,2012-06-29 04:00:00,91.44,18.8,16.5,86,9,24.1,99.68,Cloudy
4325,2012-06-29 05:00:00,91.62,18.9,16.4,85,13,24.1,99.71,Mostly Cloudy
4326,2012-06-29 06:00:00,93.06,19.7,16.7,83,17,24.1,99.72,Mostly Cloudy
4327,2012-06-29 07:00:00,96.12,21.4,16.7,75,20,24.1,99.65,Mainly Clear
4328,2012-06-29 08:00:00,98.64,22.8,17.4,72,24,24.1,99.61,Mainly Clear
4329,2012-06-29 09:00:00,102.24,24.8,18.0,66,24,24.1,99.55,Mainly Clear
4330,2012-06-29 10:00:00,103.5,25.5,18.3,64,26,48.3,99.52,Clear
4331,2012-06-29 11:00:00,105.3,26.5,19.2,64,26,24.1,99.51,Mainly Clear
4332,2012-06-29 12:00:00,106.74,27.3,18.5,59,32,24.1,99.47,Mostly Cloudy
4333,2012-06-29 13:00:00,109.08,28.6,18.2,53,37,48.3,99.46,Mainly Clear
4334,2012-06-29 14:00:00,111.24,29.8,17.1,46,33,48.3,99.44,Mainly Clear
4335,2012-06-29 15:00:00,112.86000000000001,30.7,14.6,38,32,48.3,99.42,Mainly Clear
4336,2012-06-29 16:00:00,113.58,31.1,13.0,33,28,48.3,99.39,Mainly Clear
4337,2012-06-29 17:00:00,111.96000000000001,30.2,12.2,33,30,48.3,99.43,Mainly Clear
4338,2012-06-29 18:00:00,111.24,29.8,12.5,35,24,48.3,99.45,Mainly Clear
4339,2012-06-29 19:00:00,108.9,28.5,12.3,37,17,48.3,99.45,Mainly Clear
4340,2012-06-29 20:00:00,107.28,27.6,13.4,42,9,25.0,99.51,Mainly Clear
4341,2012-06-29 21:00:00,105.3,26.5,15.3,50,22,25.0,99.58,Mainly Clear
4342,2012-06-29 22:00:00,103.86000000000001,25.7,14.0,48,22,25.0,99.59,Mostly Cloudy
4343,2012-06-29 23:00:00,101.7,24.5,13.5,50,17,25.0,99.61,Mainly Clear
4344,2012-06-30 00:00:00,99.18,23.1,11.9,49,20,25.0,99.63,Clear
4345,2012-06-30 01:00:00,98.28,22.6,11.4,49,15,25.0,99.68,Clear
4346,2012-06-30 02:00:00,97.2,22.0,11.5,51,17,25.0,99.67,Clear
4347,2012-06-30 03:00:00,95.76,21.2,12.3,57,17,25.0,99.66,Clear
4348,2012-06-30 04:00:00,94.5,20.5,13.0,62,20,48.3,99.7,Clear
4349,2012-06-30 05:00:00,95.03999999999999,20.8,12.4,59,26,48.3,99.83,Mostly Cloudy
4350,2012-06-30 06:00:00,96.48,21.6,13.2,59,28,48.3,99.85,Mostly Cloudy
4351,2012-06-30 07:00:00,97.38000000000001,22.1,13.8,59,20,48.3,99.86,Mostly Cloudy
4352,2012-06-30 08:00:00,99.72,23.4,14.4,57,26,48.3,99.88,Mostly Cloudy
4353,2012-06-30 09:00:00,101.16000000000001,24.2,13.9,53,26,48.3,99.83,Mainly Clear
4354,2012-06-30 10:00:00,102.78,25.1,14.5,52,30,48.3,99.83,Mainly Clear
4355,2012-06-30 11:00:00,104.94,26.3,14.9,50,26,48.3,99.79,Mainly Clear
4356,2012-06-30 12:00:00,107.28,27.6,15.5,48,26,48.3,99.74,Mainly Clear
4357,2012-06-30 13:00:00,108.0,28.0,14.8,45,30,48.3,99.68,Mainly Clear
4358,2012-06-30 14:00:00,111.42,29.9,13.8,37,33,48.3,99.67,Mainly Clear
4359,2012-06-30 15:00:00,109.44,28.8,13.2,38,28,24.1,99.66,Mostly Cloudy
4360,2012-06-30 16:00:00,109.8,29.0,13.1,38,26,48.3,99.65,Mostly Cloudy
4361,2012-06-30 17:00:00,102.24,24.8,17.6,64,11,48.3,99.69,Mostly Cloudy
4362,2012-06-30 18:00:00,101.34,24.3,16.2,61,22,24.1,99.79,Mostly Cloudy
4363,2012-06-30 19:00:00,100.62,23.9,16.6,64,7,48.3,99.86,Mostly Cloudy
4364,2012-06-30 20:00:00,98.82,22.9,16.2,66,6,25.0,99.92,Mostly Cloudy
4365,2012-06-30 21:00:00,100.08,23.6,16.3,64,13,25.0,100.02,Mostly Cloudy
4366,2012-06-30 22:00:00,99.53999999999999,23.3,15.3,61,7,25.0,100.04,Mostly Cloudy
4367,2012-06-30 23:00:00,97.74,22.3,15.6,66,4,25.0,100.07,Mostly Cloudy
4368,2012-07-01 00:00:00,97.2,22.0,15.7,67,0,25.0,100.1,Mostly Cloudy
4369,2012-07-01 01:00:00,95.58,21.1,16.8,76,6,25.0,100.14,Mostly Cloudy
4370,2012-07-01 02:00:00,94.32,20.4,16.1,76,9,24.1,100.16,Mostly Cloudy
4371,2012-07-01 03:00:00,93.96000000000001,20.2,13.8,67,7,25.0,100.22,Mostly Cloudy
4372,2012-07-01 04:00:00,93.60000000000001,20.0,12.3,61,6,24.1,100.27,Mostly Cloudy
4373,2012-07-01 05:00:00,93.96000000000001,20.2,12.3,60,0,24.1,100.32,Mostly Cloudy
4374,2012-07-01 06:00:00,95.4,21.0,12.9,60,7,24.1,100.41,Mostly Cloudy
4375,2012-07-01 07:00:00,95.94,21.3,13.4,61,11,24.1,100.46,Mostly Cloudy
4376,2012-07-01 08:00:00,96.48,21.6,13.1,58,6,24.1,100.5,Mainly Clear
4377,2012-07-01 09:00:00,98.82,22.9,13.0,54,4,48.3,100.51,Mainly Clear
4378,2012-07-01 10:00:00,99.72,23.4,13.5,54,13,48.3,100.5,Mainly Clear
4379,2012-07-01 11:00:00,101.88000000000001,24.6,14.4,53,19,48.3,100.5,Mainly Clear
4380,2012-07-01 12:00:00,101.16000000000001,24.2,13.4,51,22,48.3,100.54,Mainly Clear
4381,2012-07-01 13:00:00,103.32,25.4,14.0,49,22,48.3,100.55,Mainly Clear
4382,2012-07-01 14:00:00,102.78,25.1,13.9,50,17,48.3,100.56,Mainly Clear
4383,2012-07-01 15:00:00,102.06,24.7,14.0,51,15,48.3,100.56,Mostly Cloudy
4384,2012-07-01 16:00:00,102.06,24.7,13.8,51,15,48.3,100.55,Mostly Cloudy
4385,2012-07-01 17:00:00,103.14,25.3,14.5,51,11,48.3,100.52,Mainly Clear
4386,2012-07-01 18:00:00,101.7,24.5,13.9,52,17,48.3,100.52,Mainly Clear
4387,2012-07-01 19:00:00,100.08,23.6,13.0,51,15,48.3,100.51,Mainly Clear
4388,2012-07-01 20:00:00,97.02,21.9,12.9,57,11,25.0,100.55,Mainly Clear
4389,2012-07-01 21:00:00,95.94,21.3,12.9,59,7,25.0,100.63,Mainly Clear
4390,2012-07-01 22:00:00,92.88000000000001,19.6,13.0,66,11,25.0,100.63,Mainly Clear
4391,2012-07-01 23:00:00,91.98,19.1,12.9,67,9,25.0,100.67,Mainly Clear
4392,2012-07-02 00:00:00,90.18,18.1,13.0,72,13,25.0,100.69,Mainly Clear
4393,2012-07-02 01:00:00,88.74,17.3,12.6,74,7,25.0,100.71,Mainly Clear
4394,2012-07-02 02:00:00,87.48,16.6,12.5,77,7,25.0,100.72,Mainly Clear
4395,2012-07-02 03:00:00,87.48,16.6,12.5,77,6,25.0,100.72,Mainly Clear
4396,2012-07-02 04:00:00,87.84,16.8,12.4,75,0,24.1,100.75,Mainly Clear
4397,2012-07-02 05:00:00,87.48,16.6,12.7,78,6,24.1,100.76,Mainly Clear
4398,2012-07-02 06:00:00,92.7,19.5,14.0,71,6,48.3,100.79,Mainly Clear
4399,2012-07-02 07:00:00,96.3,21.5,14.6,65,9,48.3,100.81,Mainly Clear
4400,2012-07-02 08:00:00,97.56,22.2,14.8,63,15,48.3,100.84,Mostly Cloudy
4401,2012-07-02 09:00:00,99.72,23.4,15.0,59,15,48.3,100.83,Mainly Clear
4402,2012-07-02 10:00:00,100.08,23.6,15.1,59,13,48.3,100.81,Mainly Clear
4403,2012-07-02 11:00:00,102.96000000000001,25.2,15.6,55,19,48.3,100.78,Mainly Clear
4404,2012-07-02 12:00:00,104.22,25.9,15.6,53,15,48.3,100.73,Mainly Clear
4405,2012-07-02 13:00:00,105.3,26.5,13.7,45,17,48.3,100.66,Mainly Clear
4406,2012-07-02 14:00:00,105.66000000000001,26.7,12.8,42,19,48.3,100.61,Mostly Cloudy
4407,2012-07-02 15:00:00,108.53999999999999,28.3,12.3,37,30,48.3,100.55,Mainly Clear
4408,2012-07-02 16:00:00,108.0,28.0,11.6,36,22,48.3,100.54,Mainly Clear
4409,2012-07-02 17:00:00,104.94,26.3,9.7,35,26,48.3,100.62,Mostly Cloudy
4410,2012-07-02 18:00:00,104.22,25.9,10.0,37,20,48.3,100.66,Mostly Cloudy
4411,2012-07-02 19:00:00,101.7,24.5,9.7,39,15,48.3,100.69,Mostly Cloudy
4412,2012-07-02 20:00:00,96.66000000000001,21.7,10.0,47,9,25.0,100.75,Mainly Clear
4413,2012-07-02 21:00:00,93.60000000000001,20.0,10.4,54,6,25.0,100.81,Mainly Clear
4414,2012-07-02 22:00:00,91.98,19.1,10.5,57,6,25.0,100.82,Mainly Clear
4415,2012-07-02 23:00:00,91.8,19.0,10.8,59,7,25.0,100.81,Mainly Clear
4416,2012-07-03 00:00:00,90.36000000000001,18.2,10.8,62,7,25.0,100.83,Mainly Clear
4417,2012-07-03 01:00:00,87.66000000000001,16.7,10.5,67,4,25.0,100.84,Clear
4418,2012-07-03 02:00:00,88.56,17.2,11.1,67,4,25.0,100.83,Clear
4419,2012-07-03 03:00:00,88.02,16.9,10.4,66,0,25.0,100.83,Clear
4420,2012-07-03 04:00:00,83.34,14.3,10.5,78,6,24.1,100.89,Clear
4421,2012-07-03 05:00:00,89.28,17.6,10.8,64,6,48.3,100.84,Clear
4422,2012-07-03 06:00:00,90.9,18.5,11.1,62,9,48.3,100.98,Clear
4423,2012-07-03 07:00:00,94.14,20.3,10.3,53,6,48.3,100.97,Clear
4424,2012-07-03 08:00:00,96.3,21.5,10.9,51,0,48.3,100.96,Clear
4425,2012-07-03 09:00:00,97.02,21.9,11.1,50,9,48.3,100.94,Mainly Clear
4426,2012-07-03 10:00:00,99.0,23.0,11.6,49,4,48.3,100.89,Mainly Clear
4427,2012-07-03 11:00:00,100.98,24.1,12.0,47,9,48.3,100.85,Mostly Cloudy
4428,2012-07-03 12:00:00,102.96000000000001,25.2,12.3,45,11,48.3,100.79,Mostly Cloudy
4429,2012-07-03 13:00:00,106.02,26.9,13.1,43,13,48.3,100.74,Cloudy
4430,2012-07-03 14:00:00,106.74,27.3,13.0,41,9,48.3,100.66,Cloudy
4431,2012-07-03 15:00:00,106.02,26.9,12.3,40,15,48.3,100.58,Cloudy
4432,2012-07-03 16:00:00,106.92,27.4,11.4,37,15,48.3,100.55,Cloudy
4433,2012-07-03 17:00:00,107.10000000000001,27.5,10.4,34,15,48.3,100.49,Cloudy
4434,2012-07-03 18:00:00,106.2,27.0,10.7,36,11,48.3,100.44,Cloudy
4435,2012-07-03 19:00:00,103.14,25.3,14.4,51,17,48.3,100.41,Cloudy
4436,2012-07-03 20:00:00,102.24,24.8,12.8,47,17,48.3,100.36,Cloudy
4437,2012-07-03 21:00:00,102.60000000000001,25.0,13.9,50,13,25.0,100.37,Rain Showers
4438,2012-07-03 22:00:00,96.3,21.5,14.8,66,17,25.0,100.35,Rain Showers
4439,2012-07-03 23:00:00,95.03999999999999,20.8,14.8,69,0,25.0,100.32,Rain Showers
4440,2012-07-04 00:00:00,93.24,19.8,15.9,78,6,16.1,100.34,Rain
4441,2012-07-04 01:00:00,92.52,19.4,16.6,84,6,25.0,100.25,Cloudy
4442,2012-07-04 02:00:00,92.34,19.3,16.5,84,13,25.0,100.21,Cloudy
4443,2012-07-04 03:00:00,92.34,19.3,16.4,83,13,25.0,100.19,Cloudy
4444,2012-07-04 04:00:00,93.42,19.9,16.9,83,13,19.3,100.21,Cloudy
4445,2012-07-04 05:00:00,94.14,20.3,17.1,82,15,12.9,100.25,Cloudy
4446,2012-07-04 06:00:00,94.5,20.5,17.3,82,15,16.1,100.24,Cloudy
4447,2012-07-04 07:00:00,95.58,21.1,17.7,81,15,16.1,100.24,Cloudy
4448,2012-07-04 08:00:00,97.74,22.3,18.1,77,17,16.1,100.23,Cloudy
4449,2012-07-04 09:00:00,99.36000000000001,23.2,18.4,74,17,16.1,100.2,Mostly Cloudy
4450,2012-07-04 10:00:00,101.88000000000001,24.6,18.9,71,19,19.3,100.16,Cloudy
4451,2012-07-04 11:00:00,102.24,24.8,18.9,70,24,19.3,100.13,Cloudy
4452,2012-07-04 12:00:00,104.58,26.1,20.2,70,24,19.3,100.14,Cloudy
4453,2012-07-04 13:00:00,106.2,27.0,20.1,66,24,19.3,100.07,Mostly Cloudy
4454,2012-07-04 14:00:00,107.10000000000001,27.5,19.9,63,24,19.3,100.04,Mostly Cloudy
4455,2012-07-04 15:00:00,108.72,28.4,19.9,60,19,19.3,99.98,Mostly Cloudy
4456,2012-07-04 16:00:00,105.66000000000001,26.7,20.1,67,15,24.1,99.84,Thunderstorms
4457,2012-07-04 17:00:00,96.48,21.6,20.0,91,11,24.1,100.02,"Thunderstorms,Rain Showers"
4458,2012-07-04 18:00:00,99.72,23.4,20.7,85,9,24.1,100.06,Mainly Clear
4459,2012-07-04 19:00:00,99.53999999999999,23.3,20.2,83,6,24.1,100.09,Mainly Clear
4460,2012-07-04 20:00:00,96.84,21.8,19.1,85,9,24.1,100.15,Mainly Clear
4461,2012-07-04 21:00:00,95.76,21.2,18.3,84,9,25.0,100.25,Mainly Clear
4462,2012-07-04 22:00:00,95.58,21.1,16.9,77,17,25.0,100.31,Clear
4463,2012-07-04 23:00:00,91.98,19.1,15.9,82,11,25.0,100.37,Clear
4464,2012-07-05 00:00:00,89.82,17.9,14.8,82,9,25.0,100.38,Clear
4465,2012-07-05 01:00:00,88.56,17.2,14.8,86,6,25.0,100.45,Mainly Clear
4466,2012-07-05 02:00:00,87.48,16.6,14.6,88,11,25.0,100.43,Mainly Clear
4467,2012-07-05 03:00:00,87.84,16.8,14.6,87,11,25.0,100.46,Mainly Clear
4468,2012-07-05 04:00:00,86.03999999999999,15.8,14.1,90,7,24.1,100.47,Mainly Clear
4469,2012-07-05 05:00:00,86.58,16.1,14.5,90,9,24.1,100.56,Mainly Clear
4470,2012-07-05 06:00:00,90.53999999999999,18.3,14.5,79,13,24.1,100.62,Mainly Clear
4471,2012-07-05 07:00:00,92.52,19.4,14.7,74,17,24.1,100.68,Mainly Clear
4472,2012-07-05 08:00:00,94.32,20.4,15.0,71,7,24.1,100.73,Mainly Clear
4473,2012-07-05 09:00:00,95.58,21.1,15.3,69,6,48.3,100.74,Mostly Cloudy
4474,2012-07-05 10:00:00,97.2,22.0,15.6,67,9,48.3,100.72,Mostly Cloudy
4475,2012-07-05 11:00:00,99.53999999999999,23.3,16.3,65,7,48.3,100.69,Cloudy
4476,2012-07-05 12:00:00,99.53999999999999,23.3,16.3,65,6,48.3,100.68,Cloudy
4477,2012-07-05 13:00:00,101.34,24.3,16.8,63,9,48.3,100.66,Cloudy
4478,2012-07-05 14:00:00,101.7,24.5,16.1,59,11,48.3,100.66,Mostly Cloudy
4479,2012-07-05 15:00:00,101.34,24.3,16.7,63,11,48.3,100.69,Mostly Cloudy
4480,2012-07-05 16:00:00,102.24,24.8,17.9,66,17,48.3,100.66,Mostly Cloudy
4481,2012-07-05 17:00:00,104.03999999999999,25.8,17.5,60,17,48.3,100.65,Mainly Clear
4482,2012-07-05 18:00:00,102.60000000000001,25.0,17.2,62,19,48.3,100.64,Mainly Clear
4483,2012-07-05 19:00:00,101.7,24.5,17.4,65,15,48.3,100.65,Mainly Clear
4484,2012-07-05 20:00:00,99.72,23.4,17.2,68,13,48.3,100.69,Clear
4485,2012-07-05 21:00:00,99.18,23.1,17.1,69,9,25.0,100.76,Clear
4486,2012-07-05 22:00:00,97.02,21.9,17.6,77,9,25.0,100.76,Clear
4487,2012-07-05 23:00:00,95.03999999999999,20.8,17.6,82,7,25.0,100.74,Clear
4488,2012-07-06 00:00:00,94.5,20.5,17.2,81,7,25.0,100.73,Mainly Clear
4489,2012-07-06 01:00:00,94.86000000000001,20.7,17.4,81,0,25.0,100.75,Mainly Clear
4490,2012-07-06 02:00:00,93.42,19.9,16.9,83,4,25.0,100.74,Clear
4491,2012-07-06 03:00:00,91.98,19.1,16.1,83,7,25.0,100.76,Clear
4492,2012-07-06 04:00:00,92.34,19.3,16.2,82,7,25.0,100.75,Clear
4493,2012-07-06 05:00:00,92.34,19.3,16.3,83,6,48.3,100.78,Mainly Clear
4494,2012-07-06 06:00:00,94.86000000000001,20.7,17.5,82,9,48.3,100.79,Mostly Cloudy
4495,2012-07-06 07:00:00,94.68,20.6,16.8,79,13,48.3,100.79,Mostly Cloudy
4496,2012-07-06 08:00:00,97.38000000000001,22.1,16.7,71,15,48.3,100.76,Mostly Cloudy
4497,2012-07-06 09:00:00,100.44,23.8,16.9,65,19,48.3,100.69,Cloudy
4498,2012-07-06 10:00:00,103.86000000000001,25.7,18.3,64,15,48.3,100.65,Cloudy
4499,2012-07-06 11:00:00,106.02,26.9,18.1,59,15,48.3,100.61,Cloudy
4500,2012-07-06 12:00:00,107.46000000000001,27.7,17.6,54,22,48.3,100.52,Cloudy
4501,2012-07-06 13:00:00,108.9,28.5,18.5,55,22,24.1,100.5,Cloudy
4502,2012-07-06 14:00:00,109.8,29.0,18.5,53,22,24.1,100.45,Cloudy
4503,2012-07-06 15:00:00,110.88000000000001,29.6,19.7,55,20,24.1,100.47,Cloudy
4504,2012-07-06 16:00:00,112.5,30.5,20.4,55,20,24.1,100.41,Cloudy
4505,2012-07-06 17:00:00,110.7,29.5,20.2,57,15,24.1,100.38,Cloudy
4506,2012-07-06 18:00:00,111.06,29.7,20.8,59,11,24.1,100.33,Cloudy
4507,2012-07-06 19:00:00,109.98,29.1,20.9,61,15,24.1,100.36,Cloudy
4508,2012-07-06 20:00:00,109.26,28.7,21.2,64,13,24.1,100.33,Cloudy
4509,2012-07-06 21:00:00,108.53999999999999,28.3,21.7,67,7,25.0,100.36,Cloudy
4510,2012-07-06 22:00:00,105.84,26.8,21.9,75,9,25.0,100.39,Cloudy
4511,2012-07-06 23:00:00,104.94,26.3,21.0,73,11,25.0,100.46,Rain Showers
4512,2012-07-07 00:00:00,104.03999999999999,25.8,20.8,74,6,25.0,100.44,Cloudy
4513,2012-07-07 01:00:00,102.78,25.1,17.2,62,11,25.0,100.4,Cloudy
4514,2012-07-07 02:00:00,100.8,24.0,16.3,62,7,25.0,100.33,Cloudy
4515,2012-07-07 03:00:00,100.98,24.1,16.0,61,9,25.0,100.38,Cloudy
4516,2012-07-07 04:00:00,100.62,23.9,16.0,61,13,25.0,100.47,Cloudy
4517,2012-07-07 05:00:00,97.56,22.2,17.0,72,11,25.0,100.52,Rain
4518,2012-07-07 06:00:00,99.36000000000001,23.2,17.4,70,9,24.1,100.45,Cloudy
4519,2012-07-07 07:00:00,99.9,23.5,17.1,67,19,24.1,100.42,Mostly Cloudy
4520,2012-07-07 08:00:00,99.53999999999999,23.3,16.3,65,17,24.1,100.4,Cloudy
4521,2012-07-07 09:00:00,99.18,23.1,16.1,65,15,24.1,100.42,Mostly Cloudy
4522,2012-07-07 10:00:00,100.98,24.1,16.0,61,19,24.1,100.43,Mostly Cloudy
4523,2012-07-07 11:00:00,101.52,24.4,16.2,60,17,24.1,100.44,Mostly Cloudy
4524,2012-07-07 12:00:00,105.3,26.5,16.5,54,22,24.1,100.42,Mainly Clear
4525,2012-07-07 13:00:00,107.64,27.8,16.4,50,20,48.3,100.37,Mainly Clear
4526,2012-07-07 14:00:00,109.44,28.8,16.5,47,17,48.3,100.32,Mainly Clear
4527,2012-07-07 15:00:00,109.62,28.9,16.4,47,22,48.3,100.28,Mostly Cloudy
4528,2012-07-07 16:00:00,109.98,29.1,15.7,44,17,48.3,100.28,Mostly Cloudy
4529,2012-07-07 17:00:00,109.26,28.7,14.5,42,20,48.3,100.28,Mainly Clear
4530,2012-07-07 18:00:00,107.46000000000001,27.7,15.3,47,15,48.3,100.33,Mainly Clear
4531,2012-07-07 19:00:00,105.12,26.4,15.1,50,13,48.3,100.4,Mostly Cloudy
4532,2012-07-07 20:00:00,103.5,25.5,14.5,51,9,48.3,100.43,Mostly Cloudy
4533,2012-07-07 21:00:00,101.7,24.5,14.7,54,11,25.0,100.48,Mostly Cloudy
4534,2012-07-07 22:00:00,99.36000000000001,23.2,15.1,60,9,25.0,100.49,Mainly Clear
4535,2012-07-07 23:00:00,100.44,23.8,13.9,54,17,25.0,100.53,Mainly Clear
4536,2012-07-08 00:00:00,97.2,22.0,13.6,59,17,25.0,100.56,Mainly Clear
4537,2012-07-08 01:00:00,95.4,21.0,12.9,60,15,25.0,100.59,Mainly Clear
4538,2012-07-08 02:00:00,93.60000000000001,20.0,12.7,63,11,25.0,100.62,Mainly Clear
4539,2012-07-08 03:00:00,89.46000000000001,17.7,11.7,68,7,25.0,100.64,Mainly Clear
4540,2012-07-08 04:00:00,86.94,16.3,12.2,77,7,24.1,100.7,Clear
4541,2012-07-08 05:00:00,87.48,16.6,13.1,80,9,24.1,100.76,Mainly Clear
4542,2012-07-08 06:00:00,91.08,18.6,12.5,68,15,48.3,100.8,Mainly Clear
4543,2012-07-08 07:00:00,91.44,18.8,12.2,65,20,48.3,100.83,Mainly Clear
4544,2012-07-08 08:00:00,92.34,19.3,6.5,43,22,48.3,100.84,Mainly Clear
4545,2012-07-08 09:00:00,94.68,20.6,8.5,46,20,48.3,100.81,Clear
4546,2012-07-08 10:00:00,96.48,21.6,7.8,41,22,48.3,100.82,Clear
4547,2012-07-08 11:00:00,97.2,22.0,7.1,38,19,48.3,100.81,Clear
4548,2012-07-08 12:00:00,99.0,23.0,7.8,38,24,48.3,100.79,Clear
4549,2012-07-08 13:00:00,100.62,23.9,7.7,35,17,48.3,100.76,Mainly Clear
4550,2012-07-08 14:00:00,101.7,24.5,9.6,39,17,48.3,100.72,Mainly Clear
4551,2012-07-08 15:00:00,101.34,24.3,8.5,37,15,48.3,100.72,Mainly Clear
4552,2012-07-08 16:00:00,101.7,24.5,7.7,34,24,48.3,100.72,Mainly Clear
4553,2012-07-08 17:00:00,101.16000000000001,24.2,7.8,35,26,48.3,100.7,Mainly Clear
4554,2012-07-08 18:00:00,100.08,23.6,8.3,38,20,48.3,100.69,Mainly Clear
4555,2012-07-08 19:00:00,97.56,22.2,8.5,41,19,48.3,100.72,Mainly Clear
4556,2012-07-08 20:00:00,94.14,20.3,8.4,46,11,48.3,100.74,Clear
4557,2012-07-08 21:00:00,93.24,19.8,8.0,46,9,25.0,100.8,Clear
4558,2012-07-08 22:00:00,89.82,17.9,8.1,53,7,25.0,100.81,Clear
4559,2012-07-08 23:00:00,88.38000000000001,17.1,8.4,57,9,25.0,100.85,Clear
4560,2012-07-09 00:00:00,86.4,16.0,8.9,63,13,25.0,100.83,Clear
4561,2012-07-09 01:00:00,83.52,14.4,9.0,70,9,25.0,100.84,Clear
4562,2012-07-09 02:00:00,84.42,14.9,9.1,68,9,25.0,100.86,Clear
4563,2012-07-09 03:00:00,81.36000000000001,13.2,9.0,76,9,25.0,100.88,Mainly Clear
4564,2012-07-09 04:00:00,81.9,13.5,8.9,74,9,25.0,100.91,Mainly Clear
4565,2012-07-09 05:00:00,80.64,12.8,9.4,80,7,24.1,100.98,Mainly Clear
4566,2012-07-09 06:00:00,86.58,16.1,9.6,65,13,48.3,101.07,Mainly Clear
4567,2012-07-09 07:00:00,89.64,17.8,8.7,55,11,48.3,101.1,Clear
4568,2012-07-09 08:00:00,90.36000000000001,18.2,8.1,52,11,48.3,101.13,Clear
4569,2012-07-09 09:00:00,92.16000000000001,19.2,7.9,48,9,48.3,101.13,Clear
4570,2012-07-09 10:00:00,93.42,19.9,7.5,45,17,48.3,101.12,Clear
4571,2012-07-09 11:00:00,96.12,21.4,7.9,42,20,48.3,101.09,Clear
4572,2012-07-09 12:00:00,97.56,22.2,7.1,38,13,48.3,101.07,Clear
4573,2012-07-09 13:00:00,99.18,23.1,7.9,38,19,48.3,101.04,Mainly Clear
4574,2012-07-09 14:00:00,101.34,24.3,6.5,32,22,48.3,101.01,Mainly Clear
4575,2012-07-09 15:00:00,101.52,24.4,5.3,29,17,48.3,101.0,Mainly Clear
4576,2012-07-09 16:00:00,101.7,24.5,4.7,28,15,48.3,100.99,Mainly Clear
4577,2012-07-09 17:00:00,101.16000000000001,24.2,5.3,29,11,48.3,100.98,Mainly Clear
4578,2012-07-09 18:00:00,100.08,23.6,6.9,34,13,48.3,101.0,Mainly Clear
4579,2012-07-09 19:00:00,97.74,22.3,7.2,38,13,48.3,101.01,Mainly Clear
4580,2012-07-09 20:00:00,92.7,19.5,7.9,47,7,48.3,101.02,Clear
4581,2012-07-09 21:00:00,93.42,19.9,8.1,46,6,25.0,101.05,Mainly Clear
4582,2012-07-09 22:00:00,89.28,17.6,9.0,57,4,25.0,101.04,Clear
4583,2012-07-09 23:00:00,86.94,16.3,9.6,64,6,25.0,101.05,Mainly Clear
4584,2012-07-10 00:00:00,90.36000000000001,18.2,11.2,64,7,25.0,101.04,Clear
4585,2012-07-10 01:00:00,91.26,18.7,9.4,55,13,25.0,101.04,Clear
4586,2012-07-10 02:00:00,88.2,17.0,9.8,63,7,25.0,101.06,Clear
4587,2012-07-10 03:00:00,87.48,16.6,11.0,69,9,25.0,101.06,Clear
4588,2012-07-10 04:00:00,87.12,16.4,12.4,77,11,24.1,101.11,Clear
4589,2012-07-10 05:00:00,87.48,16.6,11.7,73,9,48.3,101.15,Mainly Clear
4590,2012-07-10 06:00:00,88.38000000000001,17.1,12.3,73,9,48.3,101.19,Mainly Clear
4591,2012-07-10 07:00:00,92.34,19.3,11.8,62,9,48.3,101.22,Mainly Clear
4592,2012-07-10 08:00:00,94.32,20.4,13.7,65,15,48.3,101.22,Mainly Clear
4593,2012-07-10 09:00:00,97.74,22.3,12.9,55,9,48.3,101.24,Mainly Clear
4594,2012-07-10 10:00:00,100.08,23.6,11.6,47,9,48.3,101.23,Mainly Clear
4595,2012-07-10 11:00:00,102.60000000000001,25.0,10.7,41,15,48.3,101.21,Mainly Clear
4596,2012-07-10 12:00:00,104.22,25.9,9.4,35,26,48.3,101.15,Mainly Clear
4597,2012-07-10 13:00:00,104.03999999999999,25.8,8.5,33,22,48.3,101.14,Mainly Clear
4598,2012-07-10 14:00:00,106.2,27.0,10.7,36,19,48.3,101.11,Mostly Cloudy
4599,2012-07-10 15:00:00,105.3,26.5,11.2,38,19,48.3,101.09,Mainly Clear
4600,2012-07-10 16:00:00,104.58,26.1,10.6,38,13,48.3,101.09,Mostly Cloudy
4601,2012-07-10 17:00:00,105.3,26.5,10.3,36,13,48.3,101.1,Mainly Clear
4602,2012-07-10 18:00:00,103.68,25.6,9.1,35,19,48.3,101.13,Mainly Clear
4603,2012-07-10 19:00:00,100.62,23.9,10.1,42,13,48.3,101.18,Mainly Clear
4604,2012-07-10 20:00:00,96.3,21.5,9.5,46,11,48.3,101.26,Clear
4605,2012-07-10 21:00:00,97.02,21.9,7.7,40,11,25.0,101.34,Mainly Clear
4606,2012-07-10 22:00:00,93.96000000000001,20.2,6.6,41,7,25.0,101.37,Clear
4607,2012-07-10 23:00:00,89.46000000000001,17.7,7.8,52,9,25.0,101.43,Clear
4608,2012-07-11 00:00:00,90.9,18.5,6.5,45,7,25.0,101.45,Clear
4609,2012-07-11 01:00:00,85.5,15.5,8.2,62,0,25.0,101.5,Clear
4610,2012-07-11 02:00:00,84.42,14.9,8.0,63,4,25.0,101.52,Clear
4611,2012-07-11 03:00:00,84.78,15.1,6.0,54,4,25.0,101.55,Clear
4612,2012-07-11 04:00:00,81.9,13.5,8.6,72,4,24.1,101.6,Clear
4613,2012-07-11 05:00:00,81.18,13.1,8.7,75,4,48.3,101.66,Clear
4614,2012-07-11 06:00:00,85.32,15.4,9.9,70,6,48.3,101.71,Clear
4615,2012-07-11 07:00:00,90.36000000000001,18.2,9.6,57,4,48.3,101.73,Clear
4616,2012-07-11 08:00:00,94.32,20.4,8.9,48,4,48.3,101.75,Clear
4617,2012-07-11 09:00:00,98.10000000000001,22.5,9.5,44,9,48.3,101.73,Clear
4618,2012-07-11 10:00:00,100.62,23.9,9.2,39,7,48.3,101.74,Mainly Clear
4619,2012-07-11 11:00:00,102.42,24.9,10.1,39,9,48.3,101.72,Mainly Clear
4620,2012-07-11 12:00:00,105.12,26.4,8.7,33,13,48.3,101.69,Mainly Clear
4621,2012-07-11 13:00:00,105.66000000000001,26.7,9.3,33,15,48.3,101.66,Mainly Clear
4622,2012-07-11 14:00:00,106.92,27.4,9.4,32,13,48.3,101.61,Mostly Cloudy
4623,2012-07-11 15:00:00,107.64,27.8,8.9,31,19,48.3,101.59,Mostly Cloudy
4624,2012-07-11 16:00:00,107.28,27.6,8.9,31,20,48.3,101.54,Mostly Cloudy
4625,2012-07-11 17:00:00,107.10000000000001,27.5,10.1,34,19,48.3,101.5,Mostly Cloudy
4626,2012-07-11 18:00:00,106.74,27.3,8.0,30,19,48.3,101.48,Mostly Cloudy
4627,2012-07-11 19:00:00,105.3,26.5,8.8,33,13,24.1,101.5,Mostly Cloudy
4628,2012-07-11 20:00:00,103.68,25.6,10.5,39,9,25.0,101.49,Mainly Clear
4629,2012-07-11 21:00:00,98.10000000000001,22.5,11.8,51,13,25.0,101.53,Mainly Clear
4630,2012-07-11 22:00:00,96.84,21.8,11.2,51,9,25.0,101.5,Mainly Clear
4631,2012-07-11 23:00:00,98.64,22.8,11.8,50,17,25.0,101.5,Clear
4632,2012-07-12 00:00:00,96.84,21.8,12.8,57,11,25.0,101.5,Clear
4633,2012-07-12 01:00:00,90.9,18.5,13.3,72,6,25.0,101.5,Clear
4634,2012-07-12 02:00:00,94.68,20.6,12.9,61,6,25.0,101.49,Clear
4635,2012-07-12 03:00:00,94.68,20.6,12.5,60,11,25.0,101.5,Clear
4636,2012-07-12 04:00:00,94.14,20.3,12.6,61,7,24.1,101.52,Mainly Clear
4637,2012-07-12 05:00:00,89.46000000000001,17.7,12.8,73,9,48.3,101.56,Mainly Clear
4638,2012-07-12 06:00:00,93.96000000000001,20.2,12.2,60,17,48.3,101.57,Mainly Clear
4639,2012-07-12 07:00:00,96.48,21.6,12.6,57,15,48.3,101.58,Mainly Clear
4640,2012-07-12 08:00:00,98.28,22.6,13.2,55,13,48.3,101.59,Mainly Clear
4641,2012-07-12 09:00:00,101.16000000000001,24.2,16.1,61,15,48.3,101.56,Mainly Clear
4642,2012-07-12 10:00:00,104.4,26.0,14.8,50,20,48.3,101.57,Mainly Clear
4643,2012-07-12 11:00:00,107.28,27.6,13.5,42,22,48.3,101.54,Mainly Clear
4644,2012-07-12 12:00:00,109.8,29.0,13.9,40,22,48.3,101.5,Mainly Clear
4645,2012-07-12 13:00:00,110.88000000000001,29.6,13.6,38,24,48.3,101.46,Mainly Clear
4646,2012-07-12 14:00:00,113.03999999999999,30.8,13.5,35,24,48.3,101.44,Mostly Cloudy
4647,2012-07-12 15:00:00,112.68,30.6,12.9,34,24,48.3,101.38,Mostly Cloudy
4648,2012-07-12 16:00:00,112.32,30.4,13.0,34,24,48.3,101.37,Mostly Cloudy
4649,2012-07-12 17:00:00,111.24,29.8,13.1,36,19,48.3,101.33,Mostly Cloudy
4650,2012-07-12 18:00:00,109.98,29.1,13.6,39,13,48.3,101.32,Cloudy
4651,2012-07-12 19:00:00,108.36000000000001,28.2,14.0,42,11,24.1,101.34,Cloudy
4652,2012-07-12 20:00:00,106.02,26.9,14.6,47,7,25.0,101.36,Mostly Cloudy
4653,2012-07-12 21:00:00,103.86000000000001,25.7,15.0,52,6,25.0,101.41,Mainly Clear
4654,2012-07-12 22:00:00,101.52,24.4,17.1,64,9,25.0,101.4,Mainly Clear
4655,2012-07-12 23:00:00,99.9,23.5,16.1,63,11,25.0,101.41,Mainly Clear
4656,2012-07-13 00:00:00,96.84,21.8,16.7,73,6,25.0,101.45,Mainly Clear
4657,2012-07-13 01:00:00,98.28,22.6,15.5,64,7,25.0,101.44,Mainly Clear
4658,2012-07-13 02:00:00,97.92,22.4,14.6,61,9,25.0,101.37,Mainly Clear
4659,2012-07-13 03:00:00,95.58,21.1,14.7,67,11,25.0,101.45,Mainly Clear
4660,2012-07-13 04:00:00,95.03999999999999,20.8,14.6,68,13,24.1,101.49,Clear
4661,2012-07-13 05:00:00,94.86000000000001,20.7,14.7,68,15,24.1,101.56,Mainly Clear
4662,2012-07-13 06:00:00,96.66000000000001,21.7,15.7,69,15,24.1,101.57,Mainly Clear
4663,2012-07-13 07:00:00,98.10000000000001,22.5,15.1,63,15,48.3,101.59,Mostly Cloudy
4664,2012-07-13 08:00:00,101.52,24.4,15.1,56,13,24.1,101.61,Mostly Cloudy
4665,2012-07-13 09:00:00,104.22,25.9,16.5,56,15,48.3,101.6,Mostly Cloudy
4666,2012-07-13 10:00:00,106.56,27.2,17.2,54,15,48.3,101.59,Mostly Cloudy
4667,2012-07-13 11:00:00,109.8,29.0,16.1,46,17,48.3,101.57,Mainly Clear
4668,2012-07-13 12:00:00,111.78,30.1,15.2,40,19,48.3,101.54,Mainly Clear
4669,2012-07-13 13:00:00,113.76,31.2,14.6,37,20,48.3,101.51,Mainly Clear
4670,2012-07-13 14:00:00,115.38,32.1,10.2,26,20,48.3,101.49,Mainly Clear
4671,2012-07-13 15:00:00,115.02,31.9,12.3,30,22,48.3,101.46,Clear
4672,2012-07-13 16:00:00,114.48,31.6,11.8,30,22,48.3,101.4,Clear
4673,2012-07-13 17:00:00,114.12,31.4,13.8,34,20,48.3,101.36,Mainly Clear
4674,2012-07-13 18:00:00,113.22,30.9,14.5,37,13,48.3,101.33,Clear
4675,2012-07-13 19:00:00,111.42,29.9,15.4,41,11,24.1,101.33,Mainly Clear
4676,2012-07-13 20:00:00,108.9,28.5,15.8,46,11,25.0,101.35,Mainly Clear
4677,2012-07-13 21:00:00,106.92,27.4,16.4,51,11,25.0,101.38,Mainly Clear
4678,2012-07-13 22:00:00,105.48,26.6,16.4,54,9,25.0,101.37,Clear
4679,2012-07-13 23:00:00,104.4,26.0,16.2,55,7,25.0,101.38,Clear
4680,2012-07-14 00:00:00,102.96000000000001,25.2,16.6,59,11,25.0,101.38,Clear
4681,2012-07-14 01:00:00,102.60000000000001,25.0,15.4,55,15,25.0,101.37,Clear
4682,2012-07-14 02:00:00,101.16000000000001,24.2,15.6,59,11,25.0,101.34,Clear
4683,2012-07-14 03:00:00,99.53999999999999,23.3,15.3,61,13,25.0,101.35,Clear
4684,2012-07-14 04:00:00,99.18,23.1,15.4,62,15,24.1,101.4,Clear
4685,2012-07-14 05:00:00,99.0,23.0,16.7,68,13,24.1,101.45,Mainly Clear
4686,2012-07-14 06:00:00,99.72,23.4,16.8,66,15,24.1,101.47,Mainly Clear
4687,2012-07-14 07:00:00,101.34,24.3,17.0,64,13,24.1,101.49,Mainly Clear
4688,2012-07-14 08:00:00,103.86000000000001,25.7,16.7,58,17,24.1,101.49,Mainly Clear
4689,2012-07-14 09:00:00,106.74,27.3,17.0,53,15,48.3,101.45,Mainly Clear
4690,2012-07-14 10:00:00,111.96000000000001,30.2,17.7,47,17,48.3,101.46,Mainly Clear
4691,2012-07-14 11:00:00,110.88000000000001,29.6,19.8,56,17,48.3,101.44,Mainly Clear
4692,2012-07-14 12:00:00,114.66000000000001,31.7,19.7,49,22,48.3,101.41,Mainly Clear
4693,2012-07-14 13:00:00,115.02,31.9,19.3,47,19,48.3,101.37,Mainly Clear
4694,2012-07-14 14:00:00,116.46000000000001,32.7,15.3,35,28,48.3,101.35,Mainly Clear
4695,2012-07-14 15:00:00,117.0,33.0,16.8,38,22,48.3,101.31,Mainly Clear
4696,2012-07-14 16:00:00,116.82000000000001,32.9,15.3,35,24,48.3,101.26,Mainly Clear
4697,2012-07-14 17:00:00,116.10000000000001,32.5,16.5,38,19,48.3,101.22,Mainly Clear
4698,2012-07-14 18:00:00,114.3,31.5,18.4,46,15,24.1,101.19,Mainly Clear
4699,2012-07-14 19:00:00,113.03999999999999,30.8,18.2,47,11,24.1,101.21,Mainly Clear
4700,2012-07-14 20:00:00,111.24,29.8,17.7,48,9,25.0,101.22,Mainly Clear
4701,2012-07-14 21:00:00,108.53999999999999,28.3,18.8,56,9,25.0,101.28,Clear
4702,2012-07-14 22:00:00,107.64,27.8,18.3,56,11,25.0,101.29,Clear
4703,2012-07-14 23:00:00,104.4,26.0,19.2,66,9,25.0,101.31,Clear
4704,2012-07-15 00:00:00,103.5,25.5,18.9,67,7,25.0,101.32,Clear
4705,2012-07-15 01:00:00,102.96000000000001,25.2,18.7,67,9,25.0,101.29,Clear
4706,2012-07-15 02:00:00,101.7,24.5,18.9,71,9,25.0,101.28,Mainly Clear
4707,2012-07-15 03:00:00,100.98,24.1,18.6,71,11,25.0,101.26,Clear
4708,2012-07-15 04:00:00,96.48,21.6,17.8,79,7,24.1,101.24,Mainly Clear
4709,2012-07-15 05:00:00,99.36000000000001,23.2,18.4,74,9,24.1,101.26,Mostly Cloudy
4710,2012-07-15 06:00:00,100.62,23.9,18.4,71,9,24.1,101.23,Cloudy
4711,2012-07-15 07:00:00,101.7,24.5,18.3,68,9,24.1,101.24,Cloudy
4712,2012-07-15 08:00:00,104.03999999999999,25.8,17.9,62,15,24.1,101.24,Cloudy
4713,2012-07-15 09:00:00,105.3,26.5,18.8,63,13,24.1,101.21,Mostly Cloudy
4714,2012-07-15 10:00:00,108.18,28.1,19.2,58,13,24.1,101.17,Cloudy
4715,2012-07-15 11:00:00,110.34,29.3,20.2,58,15,48.3,101.14,Cloudy
4716,2012-07-15 12:00:00,110.52,29.4,19.7,56,9,48.3,101.06,Cloudy
4717,2012-07-15 13:00:00,112.5,30.5,19.2,51,15,24.1,100.98,Cloudy
4718,2012-07-15 14:00:00,111.96000000000001,30.2,20.3,55,17,24.1,100.92,Cloudy
4719,2012-07-15 15:00:00,98.46000000000001,22.7,20.9,90,24,12.9,100.92,"Thunderstorms,Rain Showers"
4720,2012-07-15 16:00:00,100.8,24.0,20.5,81,0,24.1,100.78,Cloudy
4721,2012-07-15 17:00:00,99.9,23.5,20.6,84,11,24.1,100.78,Cloudy
4722,2012-07-15 18:00:00,101.52,24.4,20.5,79,0,25.0,100.79,Cloudy
4723,2012-07-15 19:00:00,100.44,23.8,21.1,85,20,25.0,100.73,Mostly Cloudy
4724,2012-07-15 20:00:00,99.36000000000001,23.2,19.5,80,6,25.0,100.73,Mostly Cloudy
4725,2012-07-15 21:00:00,99.0,23.0,19.0,78,9,25.0,100.72,Mainly Clear
4726,2012-07-15 22:00:00,97.56,22.2,18.9,82,7,25.0,100.67,Mainly Clear
4727,2012-07-15 23:00:00,96.84,21.8,19.1,85,6,25.0,100.67,Mainly Clear
4728,2012-07-16 00:00:00,95.76,21.2,19.0,87,6,25.0,100.64,Mostly Cloudy
4729,2012-07-16 01:00:00,96.48,21.6,19.4,87,0,25.0,100.62,Thunderstorms
4730,2012-07-16 02:00:00,94.32,20.4,18.6,89,6,19.3,100.52,Rain Showers
4731,2012-07-16 03:00:00,95.03999999999999,20.8,19.2,91,7,25.0,100.52,Cloudy
4732,2012-07-16 04:00:00,94.32,20.4,19.2,93,0,19.3,100.52,Mostly Cloudy
4733,2012-07-16 05:00:00,94.14,20.3,19.6,96,4,9.7,100.55,Fog
4734,2012-07-16 06:00:00,96.84,21.8,19.8,88,6,19.3,100.55,Mainly Clear
4735,2012-07-16 07:00:00,99.0,23.0,19.8,82,6,24.1,100.57,Mostly Cloudy
4736,2012-07-16 08:00:00,101.7,24.5,20.8,80,7,24.1,100.57,Mostly Cloudy
4737,2012-07-16 09:00:00,103.86000000000001,25.7,20.8,74,9,24.1,100.56,Mostly Cloudy
4738,2012-07-16 10:00:00,105.84,26.8,20.9,70,9,24.1,100.55,Mostly Cloudy
4739,2012-07-16 11:00:00,106.92,27.4,20.4,66,13,24.1,100.54,Mostly Cloudy
4740,2012-07-16 12:00:00,106.92,27.4,20.3,65,11,24.1,100.52,Mostly Cloudy
4741,2012-07-16 13:00:00,108.18,28.1,19.9,61,15,24.1,100.45,Mostly Cloudy
4742,2012-07-16 14:00:00,108.18,28.1,20.7,64,13,24.1,100.43,Cloudy
4743,2012-07-16 15:00:00,109.08,28.6,20.0,60,11,24.1,100.39,Cloudy
4744,2012-07-16 16:00:00,109.44,28.8,17.5,50,15,24.1,100.35,Mostly Cloudy
4745,2012-07-16 17:00:00,109.26,28.7,16.1,46,19,24.1,100.35,Mostly Cloudy
4746,2012-07-16 18:00:00,107.28,27.6,16.6,51,15,24.1,100.35,Mostly Cloudy
4747,2012-07-16 19:00:00,105.3,26.5,17.2,57,4,24.1,100.32,Mostly Cloudy
4748,2012-07-16 20:00:00,101.34,24.3,17.9,67,7,24.1,100.3,Mostly Cloudy
4749,2012-07-16 21:00:00,101.7,24.5,18.5,69,4,25.0,100.37,Cloudy
4750,2012-07-16 22:00:00,101.16000000000001,24.2,17.7,67,9,25.0,100.38,Mostly Cloudy
4751,2012-07-16 23:00:00,99.9,23.5,18.0,71,6,25.0,100.36,Cloudy
4752,2012-07-17 00:00:00,100.44,23.8,17.6,68,0,25.0,100.33,Cloudy
4753,2012-07-17 01:00:00,101.52,24.4,17.0,63,6,25.0,100.28,Mostly Cloudy
4754,2012-07-17 02:00:00,100.62,23.9,19.3,75,6,25.0,100.21,Cloudy
4755,2012-07-17 03:00:00,99.53999999999999,23.3,19.9,81,4,25.0,100.14,Cloudy
4756,2012-07-17 04:00:00,98.64,22.8,20.4,86,7,12.9,100.1,Rain
4757,2012-07-17 05:00:00,94.68,20.6,18.6,88,19,4.8,100.08,"Thunderstorms,Rain,Fog"
4758,2012-07-17 06:00:00,92.88000000000001,19.6,18.5,93,15,3.2,100.01,"Thunderstorms,Moderate Rain Showers,Fog"
4759,2012-07-17 07:00:00,93.42,19.9,19.1,95,9,6.4,99.99,"Drizzle,Fog"
4760,2012-07-17 08:00:00,96.3,21.5,20.4,93,19,12.9,99.87,Rain
4761,2012-07-17 09:00:00,98.82,22.9,21.3,91,17,9.7,99.84,"Thunderstorms,Rain Showers,Fog"
4762,2012-07-17 10:00:00,102.06,24.7,20.8,79,19,16.1,99.79,Mostly Cloudy
4763,2012-07-17 11:00:00,106.56,27.2,20.4,66,22,16.1,99.75,Mainly Clear
4764,2012-07-17 12:00:00,108.53999999999999,28.3,21.0,65,17,16.1,99.72,Cloudy
4765,2012-07-17 13:00:00,110.52,29.4,22.3,66,9,19.3,99.66,Cloudy
4766,2012-07-17 14:00:00,103.5,25.5,23.1,87,17,6.4,99.65,"Thunderstorms,Rain Showers"
4767,2012-07-17 15:00:00,104.03999999999999,25.8,22.0,80,4,24.1,99.69,Cloudy
4768,2012-07-17 16:00:00,100.44,23.8,21.7,88,24,16.1,99.81,"Thunderstorms,Rain Showers"
4769,2012-07-17 17:00:00,104.22,25.9,22.2,80,7,24.1,99.83,Cloudy
4770,2012-07-17 18:00:00,104.4,26.0,20.4,71,19,24.1,99.84,Mostly Cloudy
4771,2012-07-17 19:00:00,101.34,24.3,18.9,72,19,24.1,99.94,Mostly Cloudy
4772,2012-07-17 20:00:00,99.36000000000001,23.2,18.6,75,11,24.1,100.0,Mostly Cloudy
4773,2012-07-17 21:00:00,99.0,23.0,18.5,76,9,25.0,100.09,Mostly Cloudy
4774,2012-07-17 22:00:00,97.92,22.4,18.3,78,9,25.0,100.19,Mostly Cloudy
4775,2012-07-17 23:00:00,96.48,21.6,18.1,80,13,25.0,100.25,Mostly Cloudy
4776,2012-07-18 00:00:00,94.86000000000001,20.7,17.6,82,9,25.0,100.28,Mostly Cloudy
4777,2012-07-18 01:00:00,95.94,21.3,17.6,79,11,25.0,100.37,Cloudy
4778,2012-07-18 02:00:00,93.42,19.9,17.6,87,7,25.0,100.35,Mostly Cloudy
4779,2012-07-18 03:00:00,92.34,19.3,17.2,88,9,25.0,100.33,Clear
4780,2012-07-18 04:00:00,91.8,19.0,16.6,86,6,24.1,100.38,Mainly Clear
4781,2012-07-18 05:00:00,91.44,18.8,16.7,88,0,48.3,100.44,Mainly Clear
4782,2012-07-18 06:00:00,93.60000000000001,20.0,17.2,84,6,24.1,100.56,Mostly Cloudy
4783,2012-07-18 07:00:00,94.5,20.5,16.6,78,11,24.1,100.6,Mostly Cloudy
4784,2012-07-18 08:00:00,95.58,21.1,14.4,66,22,24.1,100.66,Mainly Clear
4785,2012-07-18 09:00:00,98.28,22.6,13.1,55,24,24.1,100.73,Mainly Clear
4786,2012-07-18 10:00:00,97.74,22.3,10.3,47,26,24.1,100.77,Mainly Clear
4787,2012-07-18 11:00:00,98.28,22.6,10.9,48,24,48.3,100.8,Mainly Clear
4788,2012-07-18 12:00:00,99.36000000000001,23.2,10.2,44,24,48.3,100.8,Mainly Clear
4789,2012-07-18 13:00:00,100.62,23.9,10.6,43,24,48.3,100.83,Mostly Cloudy
4790,2012-07-18 14:00:00,99.53999999999999,23.3,10.2,43,19,48.3,100.87,Mostly Cloudy
4791,2012-07-18 15:00:00,100.8,24.0,10.1,41,26,48.3,100.83,Mainly Clear
4792,2012-07-18 16:00:00,100.98,24.1,9.6,40,24,48.3,100.77,Mainly Clear
4793,2012-07-18 17:00:00,99.9,23.5,9.8,42,15,48.3,100.78,Mainly Clear
4794,2012-07-18 18:00:00,98.28,22.6,10.9,48,17,48.3,100.88,Mainly Clear
4795,2012-07-18 19:00:00,96.3,21.5,10.7,50,17,48.3,100.98,Mainly Clear
4796,2012-07-18 20:00:00,93.60000000000001,20.0,10.2,53,13,24.1,101.03,Mainly Clear
4797,2012-07-18 21:00:00,92.52,19.4,9.9,54,11,25.0,101.06,Clear
4798,2012-07-18 22:00:00,89.10000000000001,17.5,10.3,63,11,25.0,101.06,Clear
4799,2012-07-18 23:00:00,85.86000000000001,15.7,10.7,72,7,25.0,101.09,Clear
4800,2012-07-19 00:00:00,83.52,14.4,10.9,79,4,25.0,101.14,Clear
4801,2012-07-19 01:00:00,83.16000000000001,14.2,11.1,82,7,25.0,101.11,Clear
4802,2012-07-19 02:00:00,83.88000000000001,14.6,10.6,77,6,25.0,101.11,Clear
4803,2012-07-19 03:00:00,82.44,13.8,10.5,80,7,25.0,101.09,Clear
4804,2012-07-19 04:00:00,79.92,12.4,10.4,88,6,25.0,101.11,Mainly Clear
4805,2012-07-19 05:00:00,80.46000000000001,12.7,10.5,86,0,48.3,101.2,Mainly Clear
4806,2012-07-19 06:00:00,84.96000000000001,15.2,11.0,76,6,48.3,101.25,Mainly Clear
4807,2012-07-19 07:00:00,87.66000000000001,16.7,9.7,63,11,48.3,101.27,Clear
4808,2012-07-19 08:00:00,90.72,18.4,9.4,56,6,48.3,101.28,Mainly Clear
4809,2012-07-19 09:00:00,92.34,19.3,9.7,54,6,48.3,101.29,Mainly Clear
4810,2012-07-19 10:00:00,92.16000000000001,19.2,8.9,51,9,48.3,101.3,Mostly Cloudy
4811,2012-07-19 11:00:00,94.14,20.3,10.2,52,7,48.3,101.33,Mostly Cloudy
4812,2012-07-19 12:00:00,96.3,21.5,10.0,48,6,48.3,101.29,Mostly Cloudy
4813,2012-07-19 13:00:00,95.94,21.3,8.8,45,7,48.3,101.27,Mostly Cloudy
4814,2012-07-19 14:00:00,98.28,22.6,9.0,42,4,48.3,101.22,Mostly Cloudy
4815,2012-07-19 15:00:00,98.82,22.9,9.0,41,13,48.3,101.21,Mostly Cloudy
4816,2012-07-19 16:00:00,98.64,22.8,7.9,38,11,48.3,101.21,Mainly Clear
4817,2012-07-19 17:00:00,98.82,22.9,8.2,39,15,48.3,101.21,Mainly Clear
4818,2012-07-19 18:00:00,97.02,21.9,8.0,41,15,48.3,101.2,Mainly Clear
4819,2012-07-19 19:00:00,96.12,21.4,8.5,44,11,48.3,101.25,Mainly Clear
4820,2012-07-19 20:00:00,93.60000000000001,20.0,8.5,47,7,48.3,101.28,Mainly Clear
4821,2012-07-19 21:00:00,92.16000000000001,19.2,9.2,52,13,25.0,101.34,Mainly Clear
4822,2012-07-19 22:00:00,91.26,18.7,9.9,57,11,25.0,101.39,Mainly Clear
4823,2012-07-19 23:00:00,92.7,19.5,8.1,48,15,25.0,101.41,Mainly Clear
4824,2012-07-20 00:00:00,88.56,17.2,9.3,60,11,25.0,101.45,Clear
4825,2012-07-20 01:00:00,86.4,16.0,9.5,65,15,25.0,101.48,Clear
4826,2012-07-20 02:00:00,83.88000000000001,14.6,9.8,73,11,25.0,101.46,Clear
4827,2012-07-20 03:00:00,83.16000000000001,14.2,9.8,75,11,25.0,101.44,Clear
4828,2012-07-20 04:00:00,83.52,14.4,9.3,71,11,48.3,101.49,Clear
4829,2012-07-20 05:00:00,83.7,14.5,9.3,71,13,48.3,101.51,Clear
4830,2012-07-20 06:00:00,85.5,15.5,9.6,68,13,48.3,101.55,Mainly Clear
4831,2012-07-20 07:00:00,88.38000000000001,17.1,9.9,63,9,48.3,101.56,Mainly Clear
4832,2012-07-20 08:00:00,92.34,19.3,10.1,55,9,48.3,101.57,Mainly Clear
4833,2012-07-20 09:00:00,94.14,20.3,9.7,51,11,48.3,101.58,Mainly Clear
4834,2012-07-20 10:00:00,95.94,21.3,10.8,51,13,48.3,101.57,Mainly Clear
4835,2012-07-20 11:00:00,95.94,21.3,10.7,51,9,48.3,101.57,Mainly Clear
4836,2012-07-20 12:00:00,98.28,22.6,9.5,43,6,48.3,101.51,Mainly Clear
4837,2012-07-20 13:00:00,99.36000000000001,23.2,10.4,44,9,48.3,101.45,Mainly Clear
4838,2012-07-20 14:00:00,100.62,23.9,10.0,41,13,48.3,101.42,Mainly Clear
4839,2012-07-20 15:00:00,101.16000000000001,24.2,9.9,40,4,48.3,101.37,Mainly Clear
4840,2012-07-20 16:00:00,101.52,24.4,9.7,39,11,48.3,101.34,Mainly Clear
4841,2012-07-20 17:00:00,101.16000000000001,24.2,9.8,40,4,48.3,101.34,Mainly Clear
4842,2012-07-20 18:00:00,101.88000000000001,24.6,9.6,39,4,48.3,101.35,Mainly Clear
4843,2012-07-20 19:00:00,99.9,23.5,7.6,36,7,48.3,101.33,Mainly Clear
4844,2012-07-20 20:00:00,97.56,22.2,9.5,44,6,48.3,101.34,Mainly Clear
4845,2012-07-20 21:00:00,92.88000000000001,19.6,12.0,61,0,25.0,101.36,Clear
4846,2012-07-20 22:00:00,90.18,18.1,12.3,69,0,25.0,101.37,Clear
4847,2012-07-20 23:00:00,90.36000000000001,18.2,12.3,68,0,25.0,101.36,Clear
4848,2012-07-21 00:00:00,88.56,17.2,12.6,74,4,25.0,101.4,Clear
4849,2012-07-21 01:00:00,88.56,17.2,12.4,73,0,25.0,101.4,Clear
4850,2012-07-21 02:00:00,84.78,15.1,12.4,84,0,25.0,101.39,Clear
4851,2012-07-21 03:00:00,82.8,14.0,12.3,89,0,25.0,101.37,Clear
4852,2012-07-21 04:00:00,83.88000000000001,14.6,12.9,90,0,24.1,101.4,Clear
4853,2012-07-21 05:00:00,83.7,14.5,12.5,88,4,48.3,101.38,Clear
4854,2012-07-21 06:00:00,88.02,16.9,13.7,81,4,48.3,101.4,Clear
4855,2012-07-21 07:00:00,93.60000000000001,20.0,15.0,73,0,48.3,101.43,Clear
4856,2012-07-21 08:00:00,95.58,21.1,14.2,65,0,48.3,101.47,Mainly Clear
4857,2012-07-21 09:00:00,97.74,22.3,14.5,61,7,48.3,101.44,Mainly Clear
4858,2012-07-21 10:00:00,99.36000000000001,23.2,14.1,57,9,48.3,101.4,Mainly Clear
4859,2012-07-21 11:00:00,102.06,24.7,13.7,50,9,48.3,101.39,Mainly Clear
4860,2012-07-21 12:00:00,102.42,24.9,12.3,45,6,48.3,101.36,Mainly Clear
4861,2012-07-21 13:00:00,103.5,25.5,12.1,43,11,48.3,101.3,Mainly Clear
4862,2012-07-21 14:00:00,104.76,26.2,13.5,45,17,48.3,101.26,Mostly Cloudy
4863,2012-07-21 15:00:00,104.94,26.3,12.3,42,17,48.3,101.22,Mostly Cloudy
4864,2012-07-21 16:00:00,104.76,26.2,13.1,44,15,48.3,101.19,Mostly Cloudy
4865,2012-07-21 17:00:00,106.02,26.9,12.1,40,15,48.3,101.13,Mainly Clear
4866,2012-07-21 18:00:00,104.58,26.1,10.8,38,15,48.3,101.11,Mainly Clear
4867,2012-07-21 19:00:00,103.32,25.4,11.7,42,13,24.1,101.06,Mostly Cloudy
4868,2012-07-21 20:00:00,101.88000000000001,24.6,13.5,50,13,25.0,101.08,Mostly Cloudy
4869,2012-07-21 21:00:00,99.72,23.4,12.9,52,4,25.0,101.18,Mostly Cloudy
4870,2012-07-21 22:00:00,99.0,23.0,15.3,62,4,25.0,101.19,Mostly Cloudy
4871,2012-07-21 23:00:00,98.82,22.9,14.4,59,9,25.0,101.19,Cloudy
4872,2012-07-22 00:00:00,98.46000000000001,22.7,14.9,61,11,25.0,101.19,Cloudy
4873,2012-07-22 01:00:00,98.10000000000001,22.5,15.4,64,13,25.0,101.17,Mostly Cloudy
4874,2012-07-22 02:00:00,97.92,22.4,15.9,67,15,25.0,101.13,Mostly Cloudy
4875,2012-07-22 03:00:00,97.92,22.4,14.8,62,15,25.0,101.12,Mostly Cloudy
4876,2012-07-22 04:00:00,97.02,21.9,15.3,66,15,25.0,101.15,Mainly Clear
4877,2012-07-22 05:00:00,96.84,21.8,14.8,64,15,48.3,101.18,Mostly Cloudy
4878,2012-07-22 06:00:00,97.56,22.2,15.1,64,17,48.3,101.22,Mainly Clear
4879,2012-07-22 07:00:00,98.10000000000001,22.5,15.6,65,19,48.3,101.24,Mostly Cloudy
4880,2012-07-22 08:00:00,99.53999999999999,23.3,17.2,69,19,48.3,101.26,Mainly Clear
4881,2012-07-22 09:00:00,102.96000000000001,25.2,17.9,64,26,48.3,101.23,Mainly Clear
4882,2012-07-22 10:00:00,103.86000000000001,25.7,18.5,64,22,48.3,101.2,Mainly Clear
4883,2012-07-22 11:00:00,105.84,26.8,18.6,61,24,48.3,101.16,Mainly Clear
4884,2012-07-22 12:00:00,107.64,27.8,18.3,56,22,48.3,101.15,Mainly Clear
4885,2012-07-22 13:00:00,108.53999999999999,28.3,18.8,56,20,48.3,101.11,Mainly Clear
4886,2012-07-22 14:00:00,108.53999999999999,28.3,18.5,55,20,48.3,101.09,Mostly Cloudy
4887,2012-07-22 15:00:00,111.78,30.1,19.2,52,20,48.3,101.06,Mostly Cloudy
4888,2012-07-22 16:00:00,111.42,29.9,17.8,48,24,48.3,101.02,Mostly Cloudy
4889,2012-07-22 17:00:00,109.98,29.1,17.9,51,17,24.1,101.02,Mostly Cloudy
4890,2012-07-22 18:00:00,110.16000000000001,29.2,16.9,47,20,48.3,100.99,Mostly Cloudy
4891,2012-07-22 19:00:00,109.08,28.6,16.1,47,20,24.1,100.99,Mostly Cloudy
4892,2012-07-22 20:00:00,106.74,27.3,17.5,55,13,25.0,101.05,Mainly Clear
4893,2012-07-22 21:00:00,106.02,26.9,17.0,55,15,25.0,101.07,Mostly Cloudy
4894,2012-07-22 22:00:00,104.03999999999999,25.8,17.4,60,11,25.0,101.01,Clear
4895,2012-07-22 23:00:00,102.60000000000001,25.0,17.8,64,9,25.0,101.03,Mainly Clear
4896,2012-07-23 00:00:00,101.34,24.3,17.7,67,11,25.0,101.01,Mainly Clear
4897,2012-07-23 01:00:00,101.34,24.3,17.6,66,11,25.0,101.0,Mainly Clear
4898,2012-07-23 02:00:00,100.44,23.8,17.8,69,9,25.0,100.98,Mostly Cloudy
4899,2012-07-23 03:00:00,99.72,23.4,18.0,72,9,25.0,100.97,Mainly Clear
4900,2012-07-23 04:00:00,99.0,23.0,18.1,74,11,24.1,100.94,Mostly Cloudy
4901,2012-07-23 05:00:00,99.18,23.1,17.8,72,13,24.1,100.94,Cloudy
4902,2012-07-23 06:00:00,99.9,23.5,18.3,73,13,24.1,100.94,Cloudy
4903,2012-07-23 07:00:00,100.98,24.1,18.9,73,17,24.1,100.89,Cloudy
4904,2012-07-23 08:00:00,102.24,24.8,19.5,72,19,24.1,100.86,Cloudy
4905,2012-07-23 09:00:00,104.94,26.3,19.8,67,19,48.3,100.76,Mainly Clear
4906,2012-07-23 10:00:00,107.28,27.6,20.9,67,20,48.3,100.7,Mainly Clear
4907,2012-07-23 11:00:00,107.64,27.8,20.7,65,15,48.3,100.64,Mainly Clear
4908,2012-07-23 12:00:00,109.44,28.8,20.3,60,13,48.3,100.57,Mainly Clear
4909,2012-07-23 13:00:00,111.78,30.1,20.4,56,11,48.3,100.46,Mainly Clear
4910,2012-07-23 14:00:00,112.86000000000001,30.7,19.7,52,17,48.3,100.35,Mostly Cloudy
4911,2012-07-23 15:00:00,111.78,30.1,19.4,53,11,24.1,100.19,Cloudy
4912,2012-07-23 16:00:00,111.42,29.9,19.1,52,9,24.1,100.15,Cloudy
4913,2012-07-23 17:00:00,92.52,19.4,18.2,93,4,24.1,100.24,"Thunderstorms,Rain"
4914,2012-07-23 18:00:00,94.68,20.6,19.1,91,30,19.3,100.19,"Thunderstorms,Rain"
4915,2012-07-23 19:00:00,94.86000000000001,20.7,18.5,87,20,24.1,100.08,Rain
4916,2012-07-23 20:00:00,95.4,21.0,18.5,86,9,25.0,99.98,Cloudy
4917,2012-07-23 21:00:00,90.18,18.1,17.7,98,11,6.4,100.27,"Thunderstorms,Rain Showers"
4918,2012-07-23 22:00:00,91.26,18.7,18.0,96,7,6.4,100.04,"Thunderstorms,Rain Showers"
4919,2012-07-23 23:00:00,92.88000000000001,19.6,18.7,95,11,25.0,99.93,Cloudy
4920,2012-07-24 00:00:00,92.34,19.3,18.3,94,6,25.0,99.84,Cloudy
4921,2012-07-24 01:00:00,92.52,19.4,18.3,93,11,25.0,99.76,Mostly Cloudy
4922,2012-07-24 02:00:00,92.34,19.3,18.3,94,0,25.0,99.75,Cloudy
4923,2012-07-24 03:00:00,90.36000000000001,18.2,17.9,98,4,25.0,99.73,Mainly Clear
4924,2012-07-24 04:00:00,91.62,18.9,18.5,98,7,16.1,99.75,Mostly Cloudy
4925,2012-07-24 05:00:00,92.7,19.5,18.6,95,6,24.1,99.78,Mostly Cloudy
4926,2012-07-24 06:00:00,94.5,20.5,18.9,91,7,24.1,99.8,Mainly Clear
4927,2012-07-24 07:00:00,96.48,21.6,19.3,87,13,24.1,99.85,Mainly Clear
4928,2012-07-24 08:00:00,98.46000000000001,22.7,19.2,81,13,24.1,99.89,Mainly Clear
4929,2012-07-24 09:00:00,99.9,23.5,17.8,70,19,24.1,99.93,Mostly Cloudy
4930,2012-07-24 10:00:00,100.8,24.0,16.2,62,19,24.1,99.95,Mostly Cloudy
4931,2012-07-24 11:00:00,99.72,23.4,16.9,67,17,24.1,99.96,Cloudy
4932,2012-07-24 12:00:00,99.9,23.5,16.9,66,22,24.1,99.98,Mostly Cloudy
4933,2012-07-24 13:00:00,100.44,23.8,14.6,56,30,24.1,100.04,Mainly Clear
4934,2012-07-24 14:00:00,101.7,24.5,12.2,46,28,48.3,100.11,Mostly Cloudy
4935,2012-07-24 15:00:00,99.0,23.0,10.4,45,24,48.3,100.14,Mostly Cloudy
4936,2012-07-24 16:00:00,100.44,23.8,11.7,47,20,48.3,100.15,Mostly Cloudy
4937,2012-07-24 17:00:00,99.0,23.0,11.5,48,24,48.3,100.19,Mostly Cloudy
4938,2012-07-24 18:00:00,97.38000000000001,22.1,11.8,52,15,24.1,100.25,Mostly Cloudy
4939,2012-07-24 19:00:00,96.12,21.4,11.5,53,15,25.0,100.29,Mostly Cloudy
4940,2012-07-24 20:00:00,94.86000000000001,20.7,12.2,58,17,25.0,100.34,Mostly Cloudy
4941,2012-07-24 21:00:00,92.88000000000001,19.6,12.2,62,17,25.0,100.41,Mostly Cloudy
4942,2012-07-24 22:00:00,91.8,19.0,12.3,65,19,25.0,100.45,Mainly Clear
4943,2012-07-24 23:00:00,90.0,18.0,12.5,70,17,25.0,100.5,Clear
4944,2012-07-25 00:00:00,87.48,16.6,12.4,76,11,25.0,100.55,Clear
4945,2012-07-25 01:00:00,86.03999999999999,15.8,12.0,78,4,25.0,100.56,Clear
4946,2012-07-25 02:00:00,85.32,15.4,12.5,83,9,25.0,100.59,Clear
4947,2012-07-25 03:00:00,85.32,15.4,12.5,83,11,25.0,100.65,Clear
4948,2012-07-25 04:00:00,83.7,14.5,12.2,86,7,25.0,100.69,Clear
4949,2012-07-25 05:00:00,82.44,13.8,12.1,89,7,24.1,100.71,Clear
4950,2012-07-25 06:00:00,86.76,16.2,13.2,82,11,24.1,100.76,Clear
4951,2012-07-25 07:00:00,89.10000000000001,17.5,12.2,71,13,24.1,100.81,Clear
4952,2012-07-25 08:00:00,91.44,18.8,12.8,68,13,24.1,100.8,Clear
4953,2012-07-25 09:00:00,92.88000000000001,19.6,12.9,65,11,48.3,100.79,Clear
4954,2012-07-25 10:00:00,95.58,21.1,12.6,58,11,48.3,100.88,Clear
4955,2012-07-25 11:00:00,97.74,22.3,13.5,57,13,48.3,100.76,Mainly Clear
4956,2012-07-25 12:00:00,99.36000000000001,23.2,12.7,52,9,48.3,100.76,Mainly Clear
4957,2012-07-25 13:00:00,99.72,23.4,13.1,52,19,48.3,100.66,Mostly Cloudy
4958,2012-07-25 14:00:00,100.08,23.6,13.6,53,22,48.3,100.61,Mostly Cloudy
4959,2012-07-25 15:00:00,102.24,24.8,13.6,50,19,48.3,100.58,Mostly Cloudy
4960,2012-07-25 16:00:00,102.06,24.7,13.8,51,22,48.3,100.51,Cloudy
4961,2012-07-25 17:00:00,100.98,24.1,12.3,48,28,48.3,100.46,Cloudy
4962,2012-07-25 18:00:00,100.26,23.7,13.1,51,20,24.1,100.44,Cloudy
4963,2012-07-25 19:00:00,99.72,23.4,12.9,52,17,25.0,100.37,Cloudy
4964,2012-07-25 20:00:00,99.36000000000001,23.2,12.0,49,15,25.0,100.34,Cloudy
4965,2012-07-25 21:00:00,96.84,21.8,13.6,60,13,25.0,100.31,Cloudy
4966,2012-07-25 22:00:00,95.76,21.2,13.8,63,13,25.0,100.29,Cloudy
4967,2012-07-25 23:00:00,95.03999999999999,20.8,13.4,63,11,25.0,100.29,Rain Showers
4968,2012-07-26 00:00:00,95.94,21.3,14.4,65,13,25.0,100.23,Rain Showers
4969,2012-07-26 01:00:00,94.32,20.4,13.9,66,13,25.0,100.18,Mostly Cloudy
4970,2012-07-26 02:00:00,94.14,20.3,13.8,66,11,25.0,100.12,Mostly Cloudy
4971,2012-07-26 03:00:00,94.68,20.6,14.4,68,9,25.0,100.07,Cloudy
4972,2012-07-26 04:00:00,94.68,20.6,14.2,67,6,25.0,100.0,Cloudy
4973,2012-07-26 05:00:00,93.60000000000001,20.0,14.8,72,7,24.1,99.98,Cloudy
4974,2012-07-26 06:00:00,92.88000000000001,19.6,15.5,77,9,16.1,100.01,Rain
4975,2012-07-26 07:00:00,92.52,19.4,16.0,81,7,24.1,100.0,Cloudy
4976,2012-07-26 08:00:00,94.32,20.4,15.0,71,4,24.1,99.99,Cloudy
4977,2012-07-26 09:00:00,94.68,20.6,15.3,72,9,24.1,99.97,Cloudy
4978,2012-07-26 10:00:00,94.68,20.6,16.3,76,11,24.1,99.96,Cloudy
4979,2012-07-26 11:00:00,97.02,21.9,17.5,76,7,24.1,99.93,Mostly Cloudy
4980,2012-07-26 12:00:00,95.58,21.1,16.2,74,6,24.1,99.91,Cloudy
4981,2012-07-26 13:00:00,95.94,21.3,16.2,73,4,24.1,99.9,Cloudy
4982,2012-07-26 14:00:00,96.48,21.6,16.8,74,6,24.1,99.86,Cloudy
4983,2012-07-26 15:00:00,95.94,21.3,16.7,75,4,24.1,99.86,Cloudy
4984,2012-07-26 16:00:00,97.02,21.9,16.7,72,7,24.1,99.83,Cloudy
4985,2012-07-26 17:00:00,96.66000000000001,21.7,16.4,72,7,24.1,99.86,Cloudy
4986,2012-07-26 18:00:00,96.48,21.6,16.5,73,11,24.1,99.89,Cloudy
4987,2012-07-26 19:00:00,95.4,21.0,17.5,80,11,24.1,99.92,Cloudy
4988,2012-07-26 20:00:00,94.5,20.5,17.6,83,4,24.1,99.94,Mostly Cloudy
4989,2012-07-26 21:00:00,94.14,20.3,17.5,84,4,25.0,99.97,Mostly Cloudy
4990,2012-07-26 22:00:00,91.44,18.8,17.5,92,0,25.0,99.94,Mainly Clear
4991,2012-07-26 23:00:00,91.08,18.6,17.5,93,0,25.0,99.99,Mostly Cloudy
4992,2012-07-27 00:00:00,90.18,18.1,17.2,94,0,25.0,100.01,Mainly Clear
4993,2012-07-27 01:00:00,88.56,17.2,16.5,96,0,25.0,100.05,Mostly Cloudy
4994,2012-07-27 02:00:00,88.02,16.9,16.3,96,4,25.0,100.08,Mainly Clear
4995,2012-07-27 03:00:00,86.22,15.9,15.3,96,4,25.0,100.1,Mostly Cloudy
4996,2012-07-27 04:00:00,89.10000000000001,17.5,16.2,92,0,25.0,100.19,Mainly Clear
4997,2012-07-27 05:00:00,86.76,16.2,15.6,96,7,24.1,100.33,Mostly Cloudy
4998,2012-07-27 06:00:00,90.72,18.4,15.3,82,17,24.1,100.34,Mostly Cloudy
4999,2012-07-27 07:00:00,91.8,19.0,14.3,74,24,24.1,100.44,Mostly Cloudy
5000,2012-07-27 08:00:00,93.96000000000001,20.2,14.3,69,13,24.1,100.46,Mostly Cloudy
5001,2012-07-27 09:00:00,95.58,21.1,14.5,66,7,24.1,100.51,Mostly Cloudy
5002,2012-07-27 10:00:00,97.2,22.0,15.3,66,6,24.1,100.53,Mainly Clear
5003,2012-07-27 11:00:00,99.72,23.4,16.5,65,4,24.1,100.55,Mainly Clear
5004,2012-07-27 12:00:00,100.98,24.1,15.6,59,6,24.1,100.56,Mainly Clear
5005,2012-07-27 13:00:00,102.24,24.8,16.1,58,0,24.1,100.55,Mainly Clear
5006,2012-07-27 14:00:00,105.48,26.6,16.8,55,0,24.1,100.57,Mainly Clear
5007,2012-07-27 15:00:00,104.58,26.1,17.0,57,11,24.1,100.6,Mostly Cloudy
5008,2012-07-27 16:00:00,103.68,25.6,16.0,55,6,24.1,100.63,Mostly Cloudy
5009,2012-07-27 17:00:00,104.03999999999999,25.8,15.8,54,6,24.1,100.66,Mostly Cloudy
5010,2012-07-27 18:00:00,104.58,26.1,15.2,51,7,24.1,100.71,Mostly Cloudy
5011,2012-07-27 19:00:00,100.26,23.7,17.0,66,4,24.1,100.74,Mainly Clear
5012,2012-07-27 20:00:00,98.10000000000001,22.5,16.6,69,6,24.1,100.8,Mainly Clear
5013,2012-07-27 21:00:00,96.12,21.4,16.6,74,4,25.0,100.86,Mainly Clear
5014,2012-07-27 22:00:00,95.94,21.3,16.0,72,0,25.0,100.88,Mainly Clear
5015,2012-07-27 23:00:00,95.58,21.1,16.7,76,0,25.0,100.92,Mostly Cloudy
5016,2012-07-28 00:00:00,98.64,22.8,16.8,69,9,25.0,100.95,Mostly Cloudy
5017,2012-07-28 01:00:00,97.74,22.3,11.4,50,4,25.0,101.01,Mainly Clear
5018,2012-07-28 02:00:00,95.03999999999999,20.8,11.9,57,13,25.0,101.06,Mostly Cloudy
5019,2012-07-28 03:00:00,91.26,18.7,14.3,76,11,25.0,101.09,Mostly Cloudy
5020,2012-07-28 04:00:00,89.28,17.6,12.1,70,13,25.0,101.14,Mostly Cloudy
5021,2012-07-28 05:00:00,88.92,17.4,11.2,67,15,48.3,101.18,Mostly Cloudy
5022,2012-07-28 06:00:00,90.18,18.1,11.5,65,17,48.3,101.2,Mostly Cloudy
5023,2012-07-28 07:00:00,92.7,19.5,11.1,58,15,48.3,101.22,Mostly Cloudy
5024,2012-07-28 08:00:00,94.14,20.3,11.5,57,17,48.3,101.25,Mostly Cloudy
5025,2012-07-28 09:00:00,94.86000000000001,20.7,12.3,59,19,48.3,101.25,Mostly Cloudy
5026,2012-07-28 10:00:00,96.48,21.6,12.8,57,15,48.3,101.29,Mostly Cloudy
5027,2012-07-28 11:00:00,100.62,23.9,14.0,54,20,48.3,101.26,Cloudy
5028,2012-07-28 12:00:00,100.62,23.9,14.2,55,13,48.3,101.19,Cloudy
5029,2012-07-28 13:00:00,103.5,25.5,12.2,44,13,48.3,101.15,Cloudy
5030,2012-07-28 14:00:00,105.12,26.4,11.1,38,13,48.3,101.13,Mostly Cloudy
5031,2012-07-28 15:00:00,105.66000000000001,26.7,11.2,38,22,48.3,101.12,Mostly Cloudy
5032,2012-07-28 16:00:00,104.03999999999999,25.8,11.9,42,17,48.3,101.1,Mostly Cloudy
5033,2012-07-28 17:00:00,104.76,26.2,10.6,38,17,48.3,101.1,Mostly Cloudy
5034,2012-07-28 18:00:00,104.76,26.2,10.3,37,15,48.3,101.15,Mostly Cloudy
5035,2012-07-28 19:00:00,103.68,25.6,10.2,38,13,48.3,101.15,Mostly Cloudy
5036,2012-07-28 20:00:00,101.88000000000001,24.6,10.8,42,9,24.1,101.14,Mostly Cloudy
5037,2012-07-28 21:00:00,98.64,22.8,11.8,50,4,25.0,101.14,Mainly Clear
5038,2012-07-28 22:00:00,92.7,19.5,13.1,66,7,25.0,101.16,Mainly Clear
5039,2012-07-28 23:00:00,91.62,18.9,13.8,72,9,25.0,101.18,Mainly Clear
5040,2012-07-29 00:00:00,90.9,18.5,13.7,74,9,25.0,101.18,Clear
5041,2012-07-29 01:00:00,90.72,18.4,13.7,74,13,25.0,101.16,Clear
5042,2012-07-29 02:00:00,89.46000000000001,17.7,12.9,73,15,25.0,101.16,Clear
5043,2012-07-29 03:00:00,88.38000000000001,17.1,10.8,66,15,25.0,101.14,Mainly Clear
5044,2012-07-29 04:00:00,87.84,16.8,10.7,67,13,25.0,101.15,Mainly Clear
5045,2012-07-29 05:00:00,87.48,16.6,10.8,69,13,48.3,101.23,Mainly Clear
5046,2012-07-29 06:00:00,89.28,17.6,11.2,66,15,48.3,101.27,Mainly Clear
5047,2012-07-29 07:00:00,92.16000000000001,19.2,12.3,64,15,24.1,101.29,Mainly Clear
5048,2012-07-29 08:00:00,94.5,20.5,13.3,63,13,24.1,101.31,Mainly Clear
5049,2012-07-29 09:00:00,97.56,22.2,14.8,63,9,48.3,101.3,Mainly Clear
5050,2012-07-29 10:00:00,100.8,24.0,16.9,65,7,48.3,101.28,Mainly Clear
5051,2012-07-29 11:00:00,102.06,24.7,16.7,61,11,48.3,101.26,Mainly Clear
5052,2012-07-29 12:00:00,105.48,26.6,17.5,57,6,48.3,101.21,Mainly Clear
5053,2012-07-29 13:00:00,105.48,26.6,17.5,57,9,48.3,101.17,Mainly Clear
5054,2012-07-29 14:00:00,106.74,27.3,17.4,55,4,48.3,101.12,Mainly Clear
5055,2012-07-29 15:00:00,107.64,27.8,17.7,54,11,48.3,101.09,Mainly Clear
5056,2012-07-29 16:00:00,107.10000000000001,27.5,17.5,54,0,48.3,101.06,Mainly Clear
5057,2012-07-29 17:00:00,106.2,27.0,16.9,54,7,48.3,101.03,Mainly Clear
5058,2012-07-29 18:00:00,105.84,26.8,16.9,55,6,48.3,101.05,Mainly Clear
5059,2012-07-29 19:00:00,105.3,26.5,17.4,57,6,48.3,101.08,Mostly Cloudy
5060,2012-07-29 20:00:00,104.03999999999999,25.8,17.3,59,9,24.1,101.12,Mostly Cloudy
5061,2012-07-29 21:00:00,103.14,25.3,18.3,65,11,25.0,101.15,Mainly Clear
5062,2012-07-29 22:00:00,98.10000000000001,22.5,19.5,83,4,25.0,101.16,Mainly Clear
5063,2012-07-29 23:00:00,95.76,21.2,18.6,85,4,25.0,101.18,Clear
5064,2012-07-30 00:00:00,97.02,21.9,17.6,77,0,25.0,101.17,Mainly Clear
5065,2012-07-30 01:00:00,93.06,19.7,17.2,85,6,25.0,101.16,Mainly Clear
5066,2012-07-30 02:00:00,94.68,20.6,18.6,88,6,25.0,101.15,Clear
5067,2012-07-30 03:00:00,94.5,20.5,18.3,87,4,25.0,101.13,Clear
5068,2012-07-30 04:00:00,91.8,19.0,15.6,81,6,25.0,101.22,Mainly Clear
5069,2012-07-30 05:00:00,89.82,17.9,16.7,93,0,24.1,101.27,Mainly Clear
5070,2012-07-30 06:00:00,94.5,20.5,16.9,80,6,24.1,101.28,Mainly Clear
5071,2012-07-30 07:00:00,96.48,21.6,17.2,76,6,48.3,101.31,Mainly Clear
5072,2012-07-30 08:00:00,97.92,22.4,16.7,70,7,48.3,101.31,Clear
5073,2012-07-30 09:00:00,100.98,24.1,16.9,64,7,48.3,101.31,Mainly Clear
5074,2012-07-30 10:00:00,102.60000000000001,25.0,15.8,57,15,48.3,101.29,Mainly Clear
5075,2012-07-30 11:00:00,104.4,26.0,15.0,51,15,48.3,101.27,Mainly Clear
5076,2012-07-30 12:00:00,106.56,27.2,15.8,50,19,48.3,101.22,Mainly Clear
5077,2012-07-30 13:00:00,108.9,28.5,15.5,45,15,48.3,101.17,Mostly Cloudy
5078,2012-07-30 14:00:00,110.34,29.3,15.9,44,17,48.3,101.13,Cloudy
5079,2012-07-30 15:00:00,109.8,29.0,13.5,39,17,48.3,101.1,Cloudy
5080,2012-07-30 16:00:00,111.42,29.9,14.3,39,9,48.3,101.04,Cloudy
5081,2012-07-30 17:00:00,110.52,29.4,12.9,36,9,48.3,101.03,Cloudy
5082,2012-07-30 18:00:00,108.36000000000001,28.2,15.4,46,13,48.3,101.01,Mainly Clear
5083,2012-07-30 19:00:00,106.02,26.9,16.4,53,11,48.3,101.01,Mainly Clear
5084,2012-07-30 20:00:00,102.96000000000001,25.2,16.5,59,7,48.3,101.01,Mainly Clear
5085,2012-07-30 21:00:00,101.34,24.3,16.9,63,11,25.0,101.0,Clear
5086,2012-07-30 22:00:00,100.44,23.8,17.6,68,9,25.0,101.0,Clear
5087,2012-07-30 23:00:00,98.82,22.9,17.7,73,6,25.0,101.02,Mainly Clear
5088,2012-07-31 00:00:00,97.56,22.2,19.0,82,6,25.0,101.03,Mainly Clear
5089,2012-07-31 01:00:00,95.94,21.3,18.0,81,9,25.0,101.03,Mainly Clear
5090,2012-07-31 02:00:00,96.3,21.5,16.6,74,13,25.0,101.02,Mainly Clear
5091,2012-07-31 03:00:00,93.78,20.1,16.1,78,13,25.0,101.02,Clear
5092,2012-07-31 04:00:00,92.52,19.4,15.8,80,9,25.0,101.03,Mainly Clear
5093,2012-07-31 05:00:00,93.24,19.8,17.1,84,11,25.0,101.04,Mainly Clear
5094,2012-07-31 06:00:00,95.58,21.1,17.7,81,7,48.3,101.05,Mainly Clear
5095,2012-07-31 07:00:00,98.28,22.6,18.2,76,9,48.3,101.03,Clear
5096,2012-07-31 08:00:00,101.16000000000001,24.2,18.5,71,9,48.3,101.02,Clear
5097,2012-07-31 09:00:00,104.22,25.9,19.5,68,7,24.1,100.98,Mainly Clear
5098,2012-07-31 10:00:00,106.74,27.3,19.8,64,11,24.1,100.97,Mainly Clear
5099,2012-07-31 11:00:00,108.72,28.4,20.8,63,13,24.1,100.93,Mainly Clear
5100,2012-07-31 12:00:00,109.62,28.9,20.7,61,19,24.1,100.87,Mainly Clear
5101,2012-07-31 13:00:00,109.26,28.7,19.2,56,19,24.1,100.79,Mainly Clear
5102,2012-07-31 14:00:00,109.44,28.8,18.4,53,20,24.1,100.7,Mainly Clear
5103,2012-07-31 15:00:00,109.44,28.8,18.4,53,19,24.1,100.64,Mainly Clear
5104,2012-07-31 16:00:00,109.44,28.8,19.1,56,22,24.1,100.58,Mostly Cloudy
5105,2012-07-31 17:00:00,108.0,28.0,17.7,54,20,24.1,100.55,Mostly Cloudy
5106,2012-07-31 18:00:00,103.14,25.3,19.3,69,17,24.1,100.53,Mostly Cloudy
5107,2012-07-31 19:00:00,102.24,24.8,18.3,67,22,24.1,100.55,Rain Showers
5108,2012-07-31 20:00:00,97.92,22.4,18.7,80,35,9.7,100.64,"Thunderstorms,Rain Showers,Fog"
5109,2012-07-31 21:00:00,98.64,22.8,18.8,78,13,25.0,100.65,"Thunderstorms,Rain Showers"
5110,2012-07-31 22:00:00,98.64,22.8,19.4,81,7,25.0,100.57,Mostly Cloudy
5111,2012-07-31 23:00:00,96.84,21.8,19.2,85,4,25.0,100.52,Mainly Clear
5112,2012-08-01 00:00:00,95.4,21.0,19.8,93,0,25.0,100.53,Mainly Clear
5113,2012-08-01 01:00:00,95.4,21.0,19.6,92,4,25.0,100.54,Clear
5114,2012-08-01 02:00:00,95.94,21.3,19.1,87,9,25.0,100.55,Mostly Cloudy
5115,2012-08-01 03:00:00,95.03999999999999,20.8,19.0,89,9,25.0,100.54,Cloudy
5116,2012-08-01 04:00:00,95.03999999999999,20.8,18.7,88,6,25.0,100.57,Mostly Cloudy
5117,2012-08-01 05:00:00,95.03999999999999,20.8,18.1,85,9,25.0,100.58,Cloudy
5118,2012-08-01 06:00:00,94.32,20.4,18.6,89,7,25.0,100.62,Rain Showers
5119,2012-08-01 07:00:00,95.03999999999999,20.8,18.7,88,11,24.1,100.64,Cloudy
5120,2012-08-01 08:00:00,95.76,21.2,18.9,87,9,24.1,100.65,Cloudy
5121,2012-08-01 09:00:00,97.2,22.0,18.9,83,13,24.1,100.64,Cloudy
5122,2012-08-01 10:00:00,100.98,24.1,19.4,75,13,24.1,100.6,Mostly Cloudy
5123,2012-08-01 11:00:00,100.98,24.1,18.0,69,17,24.1,100.6,Mostly Cloudy
5124,2012-08-01 12:00:00,102.96000000000001,25.2,18.6,67,13,24.1,100.56,Mainly Clear
5125,2012-08-01 13:00:00,103.86000000000001,25.7,18.2,63,15,24.1,100.51,Mainly Clear
5126,2012-08-01 14:00:00,106.02,26.9,19.2,63,15,24.1,100.48,Mainly Clear
5127,2012-08-01 15:00:00,106.74,27.3,18.6,59,13,24.1,100.46,Mainly Clear
5128,2012-08-01 16:00:00,107.64,27.8,18.7,58,9,24.1,100.4,Mainly Clear
5129,2012-08-01 17:00:00,106.92,27.4,19.0,60,13,24.1,100.38,Mainly Clear
5130,2012-08-01 18:00:00,106.2,27.0,18.9,61,15,24.1,100.39,Mainly Clear
5131,2012-08-01 19:00:00,104.94,26.3,19.2,65,13,24.1,100.46,Mostly Cloudy
5132,2012-08-01 20:00:00,103.86000000000001,25.7,19.1,67,15,25.0,100.48,Mostly Cloudy
5133,2012-08-01 21:00:00,99.18,23.1,20.3,84,6,25.0,100.49,Mainly Clear
5134,2012-08-01 22:00:00,101.16000000000001,24.2,20.3,79,7,25.0,100.52,Mainly Clear
5135,2012-08-01 23:00:00,100.62,23.9,19.8,78,6,25.0,100.5,Mainly Clear
5136,2012-08-02 00:00:00,100.62,23.9,19.8,78,7,25.0,100.51,Mostly Cloudy
5137,2012-08-02 01:00:00,98.28,22.6,19.6,83,7,25.0,100.48,Mainly Clear
5138,2012-08-02 02:00:00,96.84,21.8,19.6,87,9,25.0,100.49,Mainly Clear
5139,2012-08-02 03:00:00,97.56,22.2,20.1,88,11,25.0,100.47,Mainly Clear
5140,2012-08-02 04:00:00,96.3,21.5,19.6,89,11,25.0,100.51,Mainly Clear
5141,2012-08-02 05:00:00,95.94,21.3,19.6,90,7,24.1,100.55,Clear
5142,2012-08-02 06:00:00,96.66000000000001,21.7,19.6,88,15,48.3,100.55,Clear
5143,2012-08-02 07:00:00,98.10000000000001,22.5,20.1,86,13,48.3,100.6,Mainly Clear
5144,2012-08-02 08:00:00,100.62,23.9,19.9,78,11,48.3,100.61,Mainly Clear
5145,2012-08-02 09:00:00,101.7,24.5,19.8,75,17,48.3,100.63,Mainly Clear
5146,2012-08-02 10:00:00,104.03999999999999,25.8,19.5,68,11,24.1,100.6,Mainly Clear
5147,2012-08-02 11:00:00,106.74,27.3,20.1,65,17,24.1,100.56,Mainly Clear
5148,2012-08-02 12:00:00,106.92,27.4,18.5,58,13,24.1,100.56,Mainly Clear
5149,2012-08-02 13:00:00,109.98,29.1,18.0,51,20,24.1,100.5,Mainly Clear
5150,2012-08-02 14:00:00,110.88000000000001,29.6,18.8,52,13,24.1,100.44,Mainly Clear
5151,2012-08-02 15:00:00,111.24,29.8,18.9,52,19,24.1,100.43,Mostly Cloudy
5152,2012-08-02 16:00:00,111.60000000000001,30.0,17.8,48,22,24.1,100.4,Mostly Cloudy
5153,2012-08-02 17:00:00,111.42,29.9,16.1,43,20,24.1,100.41,Mostly Cloudy
5154,2012-08-02 18:00:00,108.72,28.4,16.3,48,15,24.1,100.42,Mostly Cloudy
5155,2012-08-02 19:00:00,107.46000000000001,27.7,14.8,45,15,24.1,100.44,Mostly Cloudy
5156,2012-08-02 20:00:00,106.56,27.2,15.4,48,19,25.0,100.52,Cloudy
5157,2012-08-02 21:00:00,105.84,26.8,15.5,50,24,25.0,100.53,Cloudy
5158,2012-08-02 22:00:00,103.86000000000001,25.7,15.9,55,17,25.0,100.52,Cloudy
5159,2012-08-02 23:00:00,102.60000000000001,25.0,17.1,62,24,25.0,100.5,Mostly Cloudy
5160,2012-08-03 00:00:00,101.52,24.4,16.9,63,17,25.0,100.5,Mainly Clear
5161,2012-08-03 01:00:00,100.98,24.1,16.9,64,13,25.0,100.5,Mainly Clear
5162,2012-08-03 02:00:00,99.9,23.5,17.3,68,13,25.0,100.52,Mostly Cloudy
5163,2012-08-03 03:00:00,99.72,23.4,18.0,72,15,25.0,100.54,Mostly Cloudy
5164,2012-08-03 04:00:00,98.82,22.9,17.8,73,15,25.0,100.6,Cloudy
5165,2012-08-03 05:00:00,97.74,22.3,17.9,76,11,24.1,100.68,Mainly Clear
5166,2012-08-03 06:00:00,98.10000000000001,22.5,18.3,77,13,24.1,100.74,Mainly Clear
5167,2012-08-03 07:00:00,99.36000000000001,23.2,18.5,75,17,24.1,100.81,Mainly Clear
5168,2012-08-03 08:00:00,100.98,24.1,18.5,71,13,24.1,100.87,Clear
5169,2012-08-03 09:00:00,103.68,25.6,17.8,62,15,24.1,100.91,Mainly Clear
5170,2012-08-03 10:00:00,104.4,26.0,17.7,60,11,24.1,100.95,Mainly Clear
5171,2012-08-03 11:00:00,106.38000000000001,27.1,17.3,55,13,24.1,100.99,Mainly Clear
5172,2012-08-03 12:00:00,106.38000000000001,27.1,16.7,53,17,24.1,101.03,Mainly Clear
5173,2012-08-03 13:00:00,108.36000000000001,28.2,16.6,49,19,24.1,101.07,Mainly Clear
5174,2012-08-03 14:00:00,107.28,27.6,15.6,48,24,24.1,101.1,Mainly Clear
5175,2012-08-03 15:00:00,110.16000000000001,29.2,16.7,47,17,24.1,101.11,Mainly Clear
5176,2012-08-03 16:00:00,109.62,28.9,15.9,45,20,24.1,101.1,Mainly Clear
5177,2012-08-03 17:00:00,108.0,28.0,16.0,48,20,48.3,101.14,Clear
5178,2012-08-03 18:00:00,106.56,27.2,16.1,51,11,48.3,101.18,Clear
5179,2012-08-03 19:00:00,103.5,25.5,15.6,54,7,48.3,101.24,Clear
5180,2012-08-03 20:00:00,100.62,23.9,15.7,60,6,24.1,101.31,Clear
5181,2012-08-03 21:00:00,97.2,22.0,15.9,68,6,25.0,101.39,Clear
5182,2012-08-03 22:00:00,99.53999999999999,23.3,15.3,61,9,25.0,101.42,Clear
5183,2012-08-03 23:00:00,99.18,23.1,15.2,61,4,25.0,101.49,Clear
5184,2012-08-04 00:00:00,95.94,21.3,15.3,69,9,25.0,101.51,Clear
5185,2012-08-04 01:00:00,97.74,22.3,15.2,64,9,25.0,101.55,Mostly Cloudy
5186,2012-08-04 02:00:00,97.2,22.0,15.0,64,7,25.0,101.59,Mostly Cloudy
5187,2012-08-04 03:00:00,96.84,21.8,14.8,64,6,25.0,101.61,Mostly Cloudy
5188,2012-08-04 04:00:00,97.38000000000001,22.1,14.2,61,7,24.1,101.62,Cloudy
5189,2012-08-04 05:00:00,95.94,21.3,14.3,64,11,48.3,101.65,Cloudy
5190,2012-08-04 06:00:00,93.96000000000001,20.2,16.0,77,9,48.3,101.67,Mostly Cloudy
5191,2012-08-04 07:00:00,96.84,21.8,15.3,67,17,48.3,101.75,Mainly Clear
5192,2012-08-04 08:00:00,99.18,23.1,15.6,63,13,48.3,101.75,Mainly Clear
5193,2012-08-04 09:00:00,102.06,24.7,16.4,60,15,24.1,101.73,Mainly Clear
5194,2012-08-04 10:00:00,106.56,27.2,17.2,54,13,24.1,101.72,Mainly Clear
5195,2012-08-04 11:00:00,108.53999999999999,28.3,18.0,54,17,24.1,101.69,Clear
5196,2012-08-04 12:00:00,111.78,30.1,19.2,52,9,25.0,101.62,Clear
5197,2012-08-04 13:00:00,113.76,31.2,18.1,46,11,24.1,101.56,Clear
5198,2012-08-04 14:00:00,115.2,32.0,18.3,44,17,24.1,101.48,Clear
5199,2012-08-04 15:00:00,116.64,32.8,18.8,44,17,24.1,101.39,Clear
5200,2012-08-04 16:00:00,116.10000000000001,32.5,18.5,44,15,24.1,101.34,Clear
5201,2012-08-04 17:00:00,116.10000000000001,32.5,19.8,47,13,24.1,101.32,Clear
5202,2012-08-04 18:00:00,115.56,32.2,20.1,49,13,24.1,101.29,Mostly Cloudy
5203,2012-08-04 19:00:00,113.03999999999999,30.8,19.2,50,20,24.1,101.23,Mainly Clear
5204,2012-08-04 20:00:00,110.16000000000001,29.2,18.7,53,19,24.1,101.23,Clear
5205,2012-08-04 21:00:00,107.10000000000001,27.5,18.4,58,17,25.0,101.3,Mainly Clear
5206,2012-08-04 22:00:00,105.3,26.5,18.2,60,13,25.0,101.28,Mainly Clear
5207,2012-08-04 23:00:00,104.76,26.2,18.6,63,17,25.0,101.27,Clear
5208,2012-08-05 00:00:00,103.86000000000001,25.7,19.0,67,19,25.0,101.24,Clear
5209,2012-08-05 01:00:00,102.78,25.1,19.2,70,19,25.0,101.19,Clear
5210,2012-08-05 02:00:00,101.16000000000001,24.2,19.3,74,19,25.0,101.16,Clear
5211,2012-08-05 03:00:00,101.52,24.4,19.3,73,22,25.0,101.06,Mainly Clear
5212,2012-08-05 04:00:00,101.34,24.3,19.6,75,19,25.0,101.04,Mainly Clear
5213,2012-08-05 05:00:00,100.98,24.1,19.8,77,22,24.1,101.02,Mostly Cloudy
5214,2012-08-05 06:00:00,101.88000000000001,24.6,20.2,77,19,24.1,100.96,Cloudy
5215,2012-08-05 07:00:00,104.22,25.9,20.7,73,22,24.1,100.89,Cloudy
5216,2012-08-05 08:00:00,105.3,26.5,21.0,72,24,24.1,100.8,Cloudy
5217,2012-08-05 09:00:00,106.02,26.9,21.3,71,24,19.3,100.72,Mostly Cloudy
5218,2012-08-05 10:00:00,102.24,24.8,22.6,88,22,19.3,100.71,Cloudy
5219,2012-08-05 11:00:00,107.82,27.9,23.2,76,24,24.1,100.63,Mostly Cloudy
5220,2012-08-05 12:00:00,111.06,29.7,22.2,64,19,24.1,100.5,Mostly Cloudy
5221,2012-08-05 13:00:00,102.96000000000001,25.2,23.0,88,24,12.9,100.4,Rain Showers
5222,2012-08-05 14:00:00,102.42,24.9,22.9,89,26,16.1,100.42,Rain Showers
5223,2012-08-05 15:00:00,109.8,29.0,24.4,76,13,24.1,100.31,Mostly Cloudy
5224,2012-08-05 16:00:00,113.58,31.1,22.0,58,28,24.1,100.26,Mostly Cloudy
5225,2012-08-05 17:00:00,111.78,30.1,21.1,59,22,24.1,100.2,Cloudy
5226,2012-08-05 18:00:00,102.60000000000001,25.0,22.0,83,22,19.3,100.28,"Thunderstorms,Rain Showers"
5227,2012-08-05 19:00:00,101.16000000000001,24.2,22.2,89,26,16.1,100.29,Rain Showers
5228,2012-08-05 20:00:00,101.34,24.3,21.8,86,32,25.0,100.32,Cloudy
5229,2012-08-05 21:00:00,100.62,23.9,21.2,85,32,25.0,100.43,Mainly Clear
5230,2012-08-05 22:00:00,100.62,23.9,20.0,79,26,25.0,100.5,Mainly Clear
5231,2012-08-05 23:00:00,99.18,23.1,17.4,70,30,25.0,100.58,Clear
5232,2012-08-06 00:00:00,96.66000000000001,21.7,13.7,60,24,25.0,100.67,Clear
5233,2012-08-06 01:00:00,94.86000000000001,20.7,14.3,67,24,25.0,100.7,Mainly Clear
5234,2012-08-06 02:00:00,92.88000000000001,19.6,13.7,69,22,25.0,100.77,Clear
5235,2012-08-06 03:00:00,91.26,18.7,13.2,70,22,25.0,100.79,Clear
5236,2012-08-06 04:00:00,89.46000000000001,17.7,13.3,75,13,25.0,100.86,Clear
5237,2012-08-06 05:00:00,87.48,16.6,13.3,81,9,48.3,100.95,Clear
5238,2012-08-06 06:00:00,90.0,18.0,13.8,76,13,48.3,101.01,Clear
5239,2012-08-06 07:00:00,91.8,19.0,14.0,73,17,48.3,101.06,Mainly Clear
5240,2012-08-06 08:00:00,93.06,19.7,13.6,68,17,48.3,101.09,Mainly Clear
5241,2012-08-06 09:00:00,93.60000000000001,20.0,13.3,65,20,48.3,101.11,Mostly Cloudy
5242,2012-08-06 10:00:00,95.03999999999999,20.8,13.2,62,22,48.3,101.13,Mostly Cloudy
5243,2012-08-06 11:00:00,97.38000000000001,22.1,13.6,59,28,48.3,101.15,Mainly Clear
5244,2012-08-06 12:00:00,97.02,21.9,13.0,57,24,48.3,101.17,Mostly Cloudy
5245,2012-08-06 13:00:00,96.12,21.4,13.7,61,13,48.3,101.18,Mostly Cloudy
5246,2012-08-06 14:00:00,98.10000000000001,22.5,13.0,55,13,48.3,101.15,Mostly Cloudy
5247,2012-08-06 15:00:00,98.28,22.6,13.8,58,22,48.3,101.12,Mainly Clear
5248,2012-08-06 16:00:00,99.0,23.0,12.2,51,19,48.3,101.07,Mainly Clear
5249,2012-08-06 17:00:00,99.0,23.0,12.8,53,24,48.3,101.06,Mainly Clear
5250,2012-08-06 18:00:00,99.0,23.0,12.8,53,15,48.3,101.03,Mainly Clear
5251,2012-08-06 19:00:00,96.48,21.6,12.8,57,9,48.3,101.02,Clear
5252,2012-08-06 20:00:00,97.38000000000001,22.1,13.5,58,9,25.0,101.03,Clear
5253,2012-08-06 21:00:00,96.66000000000001,21.7,14.5,64,9,25.0,101.03,Clear
5254,2012-08-06 22:00:00,93.78,20.1,15.6,75,13,25.0,101.04,Clear
5255,2012-08-06 23:00:00,94.68,20.6,15.1,71,11,25.0,101.05,Clear
5256,2012-08-07 00:00:00,92.88000000000001,19.6,16.0,80,13,25.0,101.04,Clear
5257,2012-08-07 01:00:00,92.34,19.3,15.6,79,17,25.0,101.02,Clear
5258,2012-08-07 02:00:00,91.62,18.9,14.8,77,19,25.0,100.99,Clear
5259,2012-08-07 03:00:00,90.36000000000001,18.2,15.3,83,13,25.0,100.96,Clear
5260,2012-08-07 04:00:00,90.9,18.5,15.5,83,11,25.0,100.95,Clear
5261,2012-08-07 05:00:00,87.48,16.6,15.0,90,7,48.3,100.99,Clear
5262,2012-08-07 06:00:00,89.82,17.9,15.3,85,6,48.3,101.02,Clear
5263,2012-08-07 07:00:00,92.88000000000001,19.6,16.1,80,15,48.3,101.01,Mainly Clear
5264,2012-08-07 08:00:00,95.76,21.2,16.4,74,17,48.3,101.01,Mainly Clear
5265,2012-08-07 09:00:00,98.64,22.8,16.7,68,19,48.3,100.99,Mainly Clear
5266,2012-08-07 10:00:00,100.98,24.1,17.1,65,24,48.3,100.96,Mainly Clear
5267,2012-08-07 11:00:00,103.14,25.3,16.9,60,22,48.3,100.96,Mainly Clear
5268,2012-08-07 12:00:00,105.3,26.5,16.1,53,17,48.3,100.9,Mainly Clear
5269,2012-08-07 13:00:00,107.46000000000001,27.7,15.7,48,20,48.3,100.87,Mainly Clear
5270,2012-08-07 14:00:00,107.28,27.6,14.2,44,20,48.3,100.82,Mainly Clear
5271,2012-08-07 15:00:00,109.26,28.7,13.6,40,24,48.3,100.79,Mostly Cloudy
5272,2012-08-07 16:00:00,106.92,27.4,13.6,43,17,48.3,100.74,Mostly Cloudy
5273,2012-08-07 17:00:00,107.64,27.8,13.1,40,15,48.3,100.74,Mostly Cloudy
5274,2012-08-07 18:00:00,106.2,27.0,13.8,44,15,48.3,100.74,Mostly Cloudy
5275,2012-08-07 19:00:00,104.94,26.3,14.8,49,13,48.3,100.73,Mostly Cloudy
5276,2012-08-07 20:00:00,104.03999999999999,25.8,13.7,47,17,25.0,100.81,Mostly Cloudy
5277,2012-08-07 21:00:00,95.76,21.2,15.0,68,22,25.0,100.9,Cloudy
5278,2012-08-07 22:00:00,93.96000000000001,20.2,16.6,80,0,25.0,100.86,Mostly Cloudy
5279,2012-08-07 23:00:00,93.96000000000001,20.2,17.5,84,9,25.0,100.87,Rain Showers
5280,2012-08-08 00:00:00,92.34,19.3,18.0,92,7,25.0,100.92,Mostly Cloudy
5281,2012-08-08 01:00:00,91.26,18.7,17.8,95,7,25.0,100.94,Mainly Clear
5282,2012-08-08 02:00:00,90.53999999999999,18.3,17.6,96,4,19.3,100.91,Mainly Clear
5283,2012-08-08 03:00:00,88.92,17.4,17.1,98,4,12.9,100.92,Clear
5284,2012-08-08 04:00:00,88.56,17.2,16.9,98,4,16.1,100.97,Clear
5285,2012-08-08 05:00:00,87.84,16.8,16.7,99,0,19.3,101.02,Mainly Clear
5286,2012-08-08 06:00:00,90.18,18.1,17.3,95,0,24.1,101.03,Clear
5287,2012-08-08 07:00:00,92.34,19.3,17.4,89,6,48.3,101.09,Clear
5288,2012-08-08 08:00:00,95.58,21.1,17.5,80,0,48.3,101.12,Mostly Cloudy
5289,2012-08-08 09:00:00,98.10000000000001,22.5,16.6,69,4,48.3,101.11,Mainly Clear
5290,2012-08-08 10:00:00,100.98,24.1,16.0,61,9,48.3,101.11,Mainly Clear
5291,2012-08-08 11:00:00,102.24,24.8,15.2,55,4,48.3,101.08,Mainly Clear
5292,2012-08-08 12:00:00,105.12,26.4,11.9,40,0,48.3,101.05,Mainly Clear
5293,2012-08-08 13:00:00,106.92,27.4,14.1,44,4,48.3,101.0,Mainly Clear
5294,2012-08-08 14:00:00,108.0,28.0,15.6,47,11,24.1,100.98,Mainly Clear
5295,2012-08-08 15:00:00,108.53999999999999,28.3,14.7,43,7,24.1,100.94,Mostly Cloudy
5296,2012-08-08 16:00:00,108.0,28.0,16.1,48,9,24.1,100.92,Mostly Cloudy
5297,2012-08-08 17:00:00,102.24,24.8,17.1,62,19,24.1,100.91,Mostly Cloudy
5298,2012-08-08 18:00:00,102.78,25.1,16.8,60,9,24.1,100.9,Mostly Cloudy
5299,2012-08-08 19:00:00,102.78,25.1,17.0,61,7,24.1,100.9,Rain Showers
5300,2012-08-08 20:00:00,101.34,24.3,17.2,65,11,25.0,100.92,Rain Showers
5301,2012-08-08 21:00:00,99.0,23.0,17.8,73,6,25.0,100.93,Mostly Cloudy
5302,2012-08-08 22:00:00,99.9,23.5,17.1,67,4,25.0,100.89,Mostly Cloudy
5303,2012-08-08 23:00:00,99.18,23.1,17.0,69,6,25.0,100.92,Mostly Cloudy
5304,2012-08-09 00:00:00,98.64,22.8,17.7,73,9,25.0,100.93,Mainly Clear
5305,2012-08-09 01:00:00,98.64,22.8,16.7,68,11,25.0,100.89,Mostly Cloudy
5306,2012-08-09 02:00:00,97.92,22.4,16.7,70,4,25.0,100.91,Cloudy
5307,2012-08-09 03:00:00,96.84,21.8,17.4,76,9,25.0,100.89,Cloudy
5308,2012-08-09 04:00:00,96.12,21.4,17.4,78,11,25.0,100.9,Mostly Cloudy
5309,2012-08-09 05:00:00,95.58,21.1,16.9,77,13,24.1,100.93,Cloudy
5310,2012-08-09 06:00:00,95.22,20.9,17.0,78,15,24.1,100.98,Cloudy
5311,2012-08-09 07:00:00,94.86000000000001,20.7,17.3,81,13,24.1,101.01,Cloudy
5312,2012-08-09 08:00:00,95.58,21.1,17.5,80,19,24.1,101.01,Cloudy
5313,2012-08-09 09:00:00,96.66000000000001,21.7,17.5,77,22,24.1,100.98,Cloudy
5314,2012-08-09 10:00:00,96.66000000000001,21.7,17.0,75,17,24.1,100.98,Cloudy
5315,2012-08-09 11:00:00,99.36000000000001,23.2,17.3,69,13,24.1,100.98,Cloudy
5316,2012-08-09 12:00:00,101.16000000000001,24.2,17.8,67,17,24.1,100.92,Cloudy
5317,2012-08-09 13:00:00,100.08,23.6,17.4,68,19,24.1,100.94,Cloudy
5318,2012-08-09 14:00:00,100.8,24.0,17.8,68,20,24.1,100.86,Rain Showers
5319,2012-08-09 15:00:00,100.26,23.7,17.0,66,17,16.1,100.91,Rain Showers
5320,2012-08-09 16:00:00,97.74,22.3,18.7,80,19,19.3,100.89,Rain
5321,2012-08-09 17:00:00,95.94,21.3,18.7,85,17,12.9,100.93,Rain
5322,2012-08-09 18:00:00,94.32,20.4,18.6,89,20,16.1,100.87,Rain
5323,2012-08-09 19:00:00,93.96000000000001,20.2,18.2,88,13,19.3,100.92,Rain
5324,2012-08-09 20:00:00,93.96000000000001,20.2,17.7,86,15,25.0,100.88,Cloudy
5325,2012-08-09 21:00:00,93.42,19.9,17.5,86,19,25.0,100.87,Cloudy
5326,2012-08-09 22:00:00,93.78,20.1,17.0,82,19,25.0,100.83,Cloudy
5327,2012-08-09 23:00:00,93.24,19.8,17.0,84,20,25.0,100.77,Cloudy
5328,2012-08-10 00:00:00,92.7,19.5,17.0,85,17,25.0,100.74,Cloudy
5329,2012-08-10 01:00:00,92.34,19.3,16.8,85,19,25.0,100.68,Cloudy
5330,2012-08-10 02:00:00,93.78,20.1,17.0,82,13,25.0,100.66,Cloudy
5331,2012-08-10 03:00:00,93.06,19.7,17.3,86,13,25.0,100.65,Cloudy
5332,2012-08-10 04:00:00,92.34,19.3,17.6,90,9,9.7,100.67,Rain
5333,2012-08-10 05:00:00,91.8,19.0,17.7,92,19,12.9,100.58,Rain
5334,2012-08-10 06:00:00,91.8,19.0,17.7,92,9,16.1,100.69,Cloudy
5335,2012-08-10 07:00:00,93.06,19.7,18.2,91,7,12.9,100.66,Cloudy
5336,2012-08-10 08:00:00,95.03999999999999,20.8,18.9,89,9,12.9,100.69,Cloudy
5337,2012-08-10 09:00:00,93.96000000000001,20.2,18.6,91,13,11.3,100.7,Cloudy
5338,2012-08-10 10:00:00,93.96000000000001,20.2,18.5,90,11,11.3,100.75,Cloudy
5339,2012-08-10 11:00:00,93.42,19.9,18.5,92,15,6.4,100.73,Fog
5340,2012-08-10 12:00:00,95.03999999999999,20.8,18.8,88,17,6.4,100.73,Fog
5341,2012-08-10 13:00:00,95.94,21.3,19.2,88,19,6.4,100.7,"Rain,Fog"
5342,2012-08-10 14:00:00,96.66000000000001,21.7,19.3,86,19,8.0,100.64,"Rain,Fog"
5343,2012-08-10 15:00:00,95.4,21.0,19.5,91,20,6.4,100.63,"Rain,Fog"
5344,2012-08-10 16:00:00,94.86000000000001,20.7,19.0,90,20,8.0,100.65,"Rain,Fog"
5345,2012-08-10 17:00:00,94.68,20.6,19.0,91,20,8.0,100.63,"Rain,Fog"
5346,2012-08-10 18:00:00,93.60000000000001,20.0,18.9,93,22,6.4,100.62,"Rain,Fog"
5347,2012-08-10 19:00:00,92.88000000000001,19.6,18.5,93,24,4.8,100.63,"Rain,Fog"
5348,2012-08-10 20:00:00,91.98,19.1,17.9,93,17,12.9,100.65,Rain
5349,2012-08-10 21:00:00,90.9,18.5,17.7,95,22,16.1,100.62,Rain
5350,2012-08-10 22:00:00,90.36000000000001,18.2,17.4,95,20,25.0,100.58,Cloudy
5351,2012-08-10 23:00:00,90.0,18.0,17.2,95,19,25.0,100.56,Cloudy
5352,2012-08-11 00:00:00,89.82,17.9,17.0,94,20,16.1,100.57,Cloudy
5353,2012-08-11 01:00:00,89.10000000000001,17.5,16.7,95,19,16.1,100.57,Cloudy
5354,2012-08-11 02:00:00,89.28,17.6,16.8,95,19,16.1,100.54,Cloudy
5355,2012-08-11 03:00:00,89.10000000000001,17.5,16.7,95,22,16.1,100.53,Cloudy
5356,2012-08-11 04:00:00,88.56,17.2,16.7,97,24,16.1,100.54,Rain Showers
5357,2012-08-11 05:00:00,88.56,17.2,16.7,97,22,12.9,100.57,Cloudy
5358,2012-08-11 06:00:00,88.92,17.4,16.7,96,20,16.1,100.61,Cloudy
5359,2012-08-11 07:00:00,90.72,18.4,17.2,93,17,12.9,100.65,Cloudy
5360,2012-08-11 08:00:00,92.52,19.4,17.8,90,15,12.9,100.66,Cloudy
5361,2012-08-11 09:00:00,94.32,20.4,18.0,86,15,24.1,100.66,Cloudy
5362,2012-08-11 10:00:00,97.74,22.3,19.0,82,11,24.1,100.65,Cloudy
5363,2012-08-11 11:00:00,100.62,23.9,19.8,78,13,24.1,100.61,Mostly Cloudy
5364,2012-08-11 12:00:00,104.58,26.1,20.6,72,9,24.1,100.58,Mostly Cloudy
5365,2012-08-11 13:00:00,106.02,26.9,20.0,66,15,24.1,100.51,Cloudy
5366,2012-08-11 14:00:00,106.74,27.3,20.1,65,17,24.1,100.47,Cloudy
5367,2012-08-11 15:00:00,107.10000000000001,27.5,19.9,63,19,24.1,100.42,Cloudy
5368,2012-08-11 16:00:00,105.84,26.8,20.5,68,9,24.1,100.36,Cloudy
5369,2012-08-11 17:00:00,93.96000000000001,20.2,19.5,96,32,12.9,100.58,"Thunderstorms,Rain Showers"
5370,2012-08-11 18:00:00,92.88000000000001,19.6,18.7,95,19,24.1,100.59,Rain Showers
5371,2012-08-11 19:00:00,94.32,20.4,18.6,89,11,24.1,100.59,Mainly Clear
5372,2012-08-11 20:00:00,93.42,19.9,18.9,94,13,25.0,100.65,Mostly Cloudy
5373,2012-08-11 21:00:00,93.60000000000001,20.0,18.5,91,9,25.0,100.68,Mostly Cloudy
5374,2012-08-11 22:00:00,93.60000000000001,20.0,18.6,92,9,25.0,100.72,Cloudy
5375,2012-08-11 23:00:00,93.60000000000001,20.0,18.8,93,9,25.0,100.71,Mostly Cloudy
5376,2012-08-12 00:00:00,93.78,20.1,18.9,93,4,19.3,100.7,Mostly Cloudy
5377,2012-08-12 01:00:00,93.06,19.7,19.2,97,6,19.3,100.69,Cloudy
5378,2012-08-12 02:00:00,93.06,19.7,19.0,96,4,12.9,100.66,Cloudy
5379,2012-08-12 03:00:00,92.7,19.5,19.0,97,0,12.9,100.65,Mostly Cloudy
5380,2012-08-12 04:00:00,92.7,19.5,18.8,96,4,9.7,100.68,Fog
5381,2012-08-12 05:00:00,92.88000000000001,19.6,18.7,95,4,8.0,100.75,Fog
5382,2012-08-12 06:00:00,93.24,19.8,18.9,95,9,12.9,100.75,Mostly Cloudy
5383,2012-08-12 07:00:00,94.5,20.5,19.0,91,7,24.1,100.79,Mostly Cloudy
5384,2012-08-12 08:00:00,96.48,21.6,17.8,79,15,24.1,100.8,Mostly Cloudy
5385,2012-08-12 09:00:00,97.74,22.3,16.6,70,19,48.3,100.79,Mainly Clear
5386,2012-08-12 10:00:00,98.82,22.9,16.7,68,17,48.3,100.76,Mainly Clear
5387,2012-08-12 11:00:00,100.8,24.0,17.6,67,13,48.3,100.72,Mainly Clear
5388,2012-08-12 12:00:00,101.52,24.4,16.9,63,17,48.3,100.67,Mainly Clear
5389,2012-08-12 13:00:00,103.32,25.4,17.2,60,13,48.3,100.64,Mainly Clear
5390,2012-08-12 14:00:00,105.12,26.4,17.0,56,13,48.3,100.62,Mainly Clear
5391,2012-08-12 15:00:00,104.76,26.2,16.9,57,15,48.3,100.58,Mainly Clear
5392,2012-08-12 16:00:00,105.66000000000001,26.7,16.9,55,17,48.3,100.56,Mainly Clear
5393,2012-08-12 17:00:00,104.4,26.0,16.9,57,17,24.1,100.55,Mostly Cloudy
5394,2012-08-12 18:00:00,99.36000000000001,23.2,18.6,75,15,48.3,100.61,Mainly Clear
5395,2012-08-12 19:00:00,99.36000000000001,23.2,17.8,72,15,24.1,100.63,Mainly Clear
5396,2012-08-12 20:00:00,98.82,22.9,17.5,72,13,25.0,100.69,Mainly Clear
5397,2012-08-12 21:00:00,97.74,22.3,17.8,76,11,25.0,100.71,Mainly Clear
5398,2012-08-12 22:00:00,96.84,21.8,17.7,78,17,25.0,100.7,Mainly Clear
5399,2012-08-12 23:00:00,96.84,21.8,17.8,78,19,25.0,100.69,Mainly Clear
5400,2012-08-13 00:00:00,95.94,21.3,17.3,78,22,25.0,100.68,Clear
5401,2012-08-13 01:00:00,95.22,20.9,17.5,81,15,25.0,100.68,Clear
5402,2012-08-13 02:00:00,94.32,20.4,17.6,84,13,25.0,100.67,Mainly Clear
5403,2012-08-13 03:00:00,93.96000000000001,20.2,18.0,87,9,25.0,100.7,Mainly Clear
5404,2012-08-13 04:00:00,92.7,19.5,17.3,87,9,25.0,100.74,Mainly Clear
5405,2012-08-13 05:00:00,92.7,19.5,17.5,88,13,24.1,100.78,Mainly Clear
5406,2012-08-13 06:00:00,93.06,19.7,17.6,88,13,24.1,100.81,Mainly Clear
5407,2012-08-13 07:00:00,93.42,19.9,17.5,86,19,19.3,100.87,Cloudy
5408,2012-08-13 08:00:00,95.22,20.9,18.0,83,13,19.3,100.89,Mostly Cloudy
5409,2012-08-13 09:00:00,97.02,21.9,18.0,79,15,19.3,100.88,Mostly Cloudy
5410,2012-08-13 10:00:00,97.92,22.4,17.8,75,22,19.3,100.88,Mostly Cloudy
5411,2012-08-13 11:00:00,98.10000000000001,22.5,17.8,75,20,24.1,100.87,Mostly Cloudy
5412,2012-08-13 12:00:00,100.44,23.8,17.4,67,17,24.1,100.85,Mostly Cloudy
5413,2012-08-13 13:00:00,102.96000000000001,25.2,17.9,64,20,24.1,100.82,Mostly Cloudy
5414,2012-08-13 14:00:00,102.78,25.1,17.4,62,19,24.1,100.79,Mostly Cloudy
5415,2012-08-13 15:00:00,103.32,25.4,17.4,61,13,24.1,100.74,Mostly Cloudy
5416,2012-08-13 16:00:00,102.96000000000001,25.2,17.1,61,19,24.1,100.76,Mostly Cloudy
5417,2012-08-13 17:00:00,101.7,24.5,18.0,67,11,24.1,100.78,Mostly Cloudy
5418,2012-08-13 18:00:00,101.88000000000001,24.6,16.9,62,11,24.1,100.8,Mostly Cloudy
5419,2012-08-13 19:00:00,101.52,24.4,17.4,65,7,24.1,100.8,Mainly Clear
5420,2012-08-13 20:00:00,99.36000000000001,23.2,17.6,71,7,25.0,100.83,Mainly Clear
5421,2012-08-13 21:00:00,97.92,22.4,17.8,75,6,25.0,100.87,Mainly Clear
5422,2012-08-13 22:00:00,97.56,22.2,17.7,76,9,25.0,100.88,Mainly Clear
5423,2012-08-13 23:00:00,96.66000000000001,21.7,17.3,76,9,25.0,100.86,Mainly Clear
5424,2012-08-14 00:00:00,95.76,21.2,17.4,79,7,25.0,100.85,Mainly Clear
5425,2012-08-14 01:00:00,95.58,21.1,17.7,81,9,25.0,100.85,Mainly Clear
5426,2012-08-14 02:00:00,95.22,20.9,18.2,85,11,25.0,100.83,Mostly Cloudy
5427,2012-08-14 03:00:00,94.86000000000001,20.7,17.6,82,11,25.0,100.82,Mainly Clear
5428,2012-08-14 04:00:00,92.7,19.5,17.4,88,6,25.0,100.83,Mostly Cloudy
5429,2012-08-14 05:00:00,93.24,19.8,17.3,86,7,24.1,100.84,Mainly Clear
5430,2012-08-14 06:00:00,95.22,20.9,17.2,79,9,24.1,100.83,Mostly Cloudy
5431,2012-08-14 07:00:00,95.4,21.0,16.7,76,13,24.1,100.88,Mostly Cloudy
5432,2012-08-14 08:00:00,97.02,21.9,17.1,74,9,24.1,100.87,Mostly Cloudy
5433,2012-08-14 09:00:00,97.02,21.9,17.8,78,11,24.1,100.89,Cloudy
5434,2012-08-14 10:00:00,97.02,21.9,18.1,79,15,24.1,100.88,Cloudy
5435,2012-08-14 11:00:00,97.02,21.9,18.2,80,15,24.1,100.86,Cloudy
5436,2012-08-14 12:00:00,98.28,22.6,18.5,78,9,24.1,100.84,Cloudy
5437,2012-08-14 13:00:00,100.26,23.7,19.2,76,15,24.1,100.79,Mostly Cloudy
5438,2012-08-14 14:00:00,101.16000000000001,24.2,18.5,71,13,24.1,100.75,Mostly Cloudy
5439,2012-08-14 15:00:00,103.86000000000001,25.7,18.4,64,15,24.1,100.71,Mostly Cloudy
5440,2012-08-14 16:00:00,101.7,24.5,17.2,64,7,24.1,100.69,Mostly Cloudy
5441,2012-08-14 17:00:00,102.42,24.9,17.2,62,7,24.1,100.67,Mostly Cloudy
5442,2012-08-14 18:00:00,101.7,24.5,17.1,63,6,24.1,100.69,Mostly Cloudy
5443,2012-08-14 19:00:00,101.34,24.3,17.2,65,0,24.1,100.67,Mostly Cloudy
5444,2012-08-14 20:00:00,99.53999999999999,23.3,17.8,71,6,25.0,100.68,Mostly Cloudy
5445,2012-08-14 21:00:00,99.0,23.0,18.5,76,6,25.0,100.69,Cloudy
5446,2012-08-14 22:00:00,97.56,22.2,17.7,76,4,25.0,100.66,Cloudy
5447,2012-08-14 23:00:00,96.66000000000001,21.7,17.8,79,4,25.0,100.64,Cloudy
5448,2012-08-15 00:00:00,96.12,21.4,17.4,78,4,25.0,100.61,Cloudy
5449,2012-08-15 01:00:00,95.76,21.2,18.0,82,20,25.0,100.65,Rain Showers
5450,2012-08-15 02:00:00,92.7,19.5,18.7,95,9,25.0,100.63,Rain
5451,2012-08-15 03:00:00,91.98,19.1,18.0,93,9,25.0,100.58,Cloudy
5452,2012-08-15 04:00:00,91.44,18.8,17.7,93,4,19.3,100.56,Cloudy
5453,2012-08-15 05:00:00,91.62,18.9,17.6,92,4,24.1,100.62,Cloudy
5454,2012-08-15 06:00:00,92.34,19.3,17.5,89,0,24.1,100.65,Cloudy
5455,2012-08-15 07:00:00,91.44,18.8,17.7,93,0,24.1,100.69,Drizzle
5456,2012-08-15 08:00:00,93.78,20.1,18.2,89,0,24.1,100.69,Mostly Cloudy
5457,2012-08-15 09:00:00,95.4,21.0,18.4,85,11,24.1,100.73,Mostly Cloudy
5458,2012-08-15 10:00:00,96.3,21.5,18.3,82,13,24.1,100.75,Cloudy
5459,2012-08-15 11:00:00,96.48,21.6,18.2,81,9,24.1,100.78,Mostly Cloudy
5460,2012-08-15 12:00:00,100.26,23.7,17.8,70,7,24.1,100.73,Mostly Cloudy
5461,2012-08-15 13:00:00,103.14,25.3,18.0,64,9,24.1,100.72,Mostly Cloudy
5462,2012-08-15 14:00:00,102.96000000000001,25.2,16.7,59,15,24.1,100.7,Mainly Clear
5463,2012-08-15 15:00:00,103.86000000000001,25.7,17.8,62,15,24.1,100.68,Mainly Clear
5464,2012-08-15 16:00:00,103.86000000000001,25.7,16.4,56,17,24.1,100.69,Mainly Clear
5465,2012-08-15 17:00:00,103.68,25.6,15.7,54,13,24.1,100.67,Mainly Clear
5466,2012-08-15 18:00:00,102.42,24.9,16.0,58,13,24.1,100.68,Mainly Clear
5467,2012-08-15 19:00:00,98.10000000000001,22.5,16.1,67,7,24.1,100.69,Mainly Clear
5468,2012-08-15 20:00:00,96.66000000000001,21.7,16.1,70,6,25.0,100.71,Mainly Clear
5469,2012-08-15 21:00:00,94.32,20.4,15.9,75,6,25.0,100.7,Clear
5470,2012-08-15 22:00:00,93.42,19.9,16.0,78,7,25.0,100.76,Mainly Clear
5471,2012-08-15 23:00:00,94.68,20.6,16.5,77,0,25.0,100.81,Mainly Clear
5472,2012-08-16 00:00:00,91.62,18.9,16.2,84,9,25.0,100.76,Clear
5473,2012-08-16 01:00:00,90.9,18.5,16.0,85,9,25.0,100.76,Mainly Clear
5474,2012-08-16 02:00:00,89.64,17.8,15.7,88,6,25.0,100.75,Mainly Clear
5475,2012-08-16 03:00:00,88.92,17.4,15.6,89,6,25.0,100.76,Mainly Clear
5476,2012-08-16 04:00:00,87.66000000000001,16.7,15.2,91,6,25.0,100.79,Mainly Clear
5477,2012-08-16 05:00:00,87.48,16.6,15.3,92,0,25.0,100.81,Mainly Clear
5478,2012-08-16 06:00:00,90.36000000000001,18.2,15.7,85,0,48.3,100.85,Mainly Clear
5479,2012-08-16 07:00:00,92.34,19.3,16.8,85,9,24.1,100.87,Mostly Cloudy
5480,2012-08-16 08:00:00,94.5,20.5,17.2,81,7,48.3,100.82,Mainly Clear
5481,2012-08-16 09:00:00,96.66000000000001,21.7,17.8,79,0,48.3,100.79,Mostly Cloudy
5482,2012-08-16 10:00:00,100.44,23.8,17.7,69,0,24.1,100.78,Mainly Clear
5483,2012-08-16 11:00:00,100.44,23.8,17.3,67,7,24.1,100.74,Mostly Cloudy
5484,2012-08-16 12:00:00,102.42,24.9,16.7,60,6,24.1,100.71,Mostly Cloudy
5485,2012-08-16 13:00:00,104.03999999999999,25.8,17.3,59,11,24.1,100.71,Mainly Clear
5486,2012-08-16 14:00:00,104.22,25.9,15.7,53,17,24.1,100.71,Mainly Clear
5487,2012-08-16 15:00:00,106.02,26.9,15.6,50,13,24.1,100.63,Mainly Clear
5488,2012-08-16 16:00:00,106.2,27.0,12.6,41,7,24.1,100.54,Mainly Clear
5489,2012-08-16 17:00:00,105.12,26.4,14.7,49,9,24.1,100.53,Mainly Clear
5490,2012-08-16 18:00:00,102.42,24.9,14.4,52,7,24.1,100.49,Clear
5491,2012-08-16 19:00:00,100.26,23.7,13.8,54,4,24.1,100.5,Mainly Clear
5492,2012-08-16 20:00:00,99.9,23.5,15.3,60,6,25.0,100.52,Mainly Clear
5493,2012-08-16 21:00:00,96.48,21.6,17.4,77,6,25.0,100.5,Mainly Clear
5494,2012-08-16 22:00:00,97.2,22.0,17.5,76,4,25.0,100.48,Mainly Clear
5495,2012-08-16 23:00:00,97.74,22.3,17.6,75,9,25.0,100.48,Mainly Clear
5496,2012-08-17 00:00:00,97.02,21.9,17.0,74,7,25.0,100.51,Mainly Clear
5497,2012-08-17 01:00:00,95.58,21.1,17.3,79,11,25.0,100.47,Clear
5498,2012-08-17 02:00:00,91.62,18.9,16.5,86,4,25.0,100.44,Clear
5499,2012-08-17 03:00:00,91.26,18.7,16.3,86,0,25.0,100.37,Clear
5500,2012-08-17 04:00:00,90.36000000000001,18.2,16.1,88,11,25.0,100.32,Mainly Clear
5501,2012-08-17 05:00:00,89.28,17.6,15.3,86,7,25.0,100.3,Clear
5502,2012-08-17 06:00:00,90.36000000000001,18.2,14.9,81,11,24.1,100.28,Mostly Cloudy
5503,2012-08-17 07:00:00,92.7,19.5,16.0,80,15,24.1,100.24,Mostly Cloudy
5504,2012-08-17 08:00:00,95.58,21.1,17.3,79,17,24.1,100.21,Cloudy
5505,2012-08-17 09:00:00,96.12,21.4,17.0,76,17,24.1,100.17,Rain Showers
5506,2012-08-17 10:00:00,96.84,21.8,17.0,74,13,24.1,100.13,Cloudy
5507,2012-08-17 11:00:00,99.9,23.5,17.8,70,11,24.1,100.1,Cloudy
5508,2012-08-17 12:00:00,98.46000000000001,22.7,19.1,80,15,24.1,100.09,Rain Showers
5509,2012-08-17 13:00:00,100.98,24.1,19.2,74,20,24.1,100.06,Cloudy
5510,2012-08-17 14:00:00,102.24,24.8,18.6,68,24,24.1,100.06,Cloudy
5511,2012-08-17 15:00:00,102.42,24.9,15.8,57,30,24.1,100.11,Mostly Cloudy
5512,2012-08-17 16:00:00,101.34,24.3,14.6,55,28,24.1,100.14,Mostly Cloudy
5513,2012-08-17 17:00:00,102.24,24.8,15.7,57,30,24.1,100.15,Mostly Cloudy
5514,2012-08-17 18:00:00,100.62,23.9,16.1,62,24,48.3,100.19,Mostly Cloudy
5515,2012-08-17 19:00:00,99.72,23.4,16.3,64,17,48.3,100.24,Mainly Clear
5516,2012-08-17 20:00:00,97.92,22.4,15.8,66,13,25.0,100.34,Mainly Clear
5517,2012-08-17 21:00:00,96.66000000000001,21.7,14.9,65,9,25.0,100.37,Mainly Clear
5518,2012-08-17 22:00:00,95.58,21.1,14.2,65,13,25.0,100.4,Mainly Clear
5519,2012-08-17 23:00:00,91.08,18.6,13.0,70,13,25.0,100.44,Mainly Clear
5520,2012-08-18 00:00:00,90.18,18.1,11.3,64,11,25.0,100.47,Mainly Clear
5521,2012-08-18 01:00:00,89.46000000000001,17.7,11.3,66,9,25.0,100.51,Clear
5522,2012-08-18 02:00:00,85.14,15.3,11.1,76,7,25.0,100.52,Mainly Clear
5523,2012-08-18 03:00:00,85.86000000000001,15.7,11.2,75,7,25.0,100.54,Mainly Clear
5524,2012-08-18 04:00:00,84.24,14.8,10.9,77,11,25.0,100.57,Mainly Clear
5525,2012-08-18 05:00:00,84.24,14.8,11.1,78,13,24.1,100.64,Mainly Clear
5526,2012-08-18 06:00:00,84.78,15.1,12.0,82,17,48.3,100.69,Mainly Clear
5527,2012-08-18 07:00:00,85.68,15.6,12.2,80,20,48.3,100.77,Mainly Clear
5528,2012-08-18 08:00:00,88.38000000000001,17.1,12.6,75,17,48.3,100.79,Mainly Clear
5529,2012-08-18 09:00:00,90.0,18.0,11.7,67,19,24.1,100.82,Mainly Clear
5530,2012-08-18 10:00:00,90.53999999999999,18.3,11.6,65,17,24.1,100.83,Mostly Cloudy
5531,2012-08-18 11:00:00,91.8,19.0,10.9,59,19,48.3,100.84,Mostly Cloudy
5532,2012-08-18 12:00:00,95.4,21.0,11.2,53,22,48.3,100.83,Mainly Clear
5533,2012-08-18 13:00:00,95.76,21.2,10.4,50,20,48.3,100.85,Mainly Clear
5534,2012-08-18 14:00:00,93.78,20.1,10.2,53,17,48.3,100.81,Mainly Clear
5535,2012-08-18 15:00:00,97.2,22.0,9.3,44,20,48.3,100.79,Mainly Clear
5536,2012-08-18 16:00:00,95.94,21.3,7.8,42,22,48.3,100.78,Mostly Cloudy
5537,2012-08-18 17:00:00,95.94,21.3,8.1,43,13,48.3,100.78,Mostly Cloudy
5538,2012-08-18 18:00:00,95.03999999999999,20.8,6.9,40,15,48.3,100.8,Mostly Cloudy
5539,2012-08-18 19:00:00,90.72,18.4,7.6,49,11,48.3,100.83,Mainly Clear
5540,2012-08-18 20:00:00,91.08,18.6,7.9,50,7,25.0,100.88,Clear
5541,2012-08-18 21:00:00,86.22,15.9,8.6,62,6,25.0,100.88,Clear
5542,2012-08-18 22:00:00,84.96000000000001,15.2,8.9,66,6,25.0,100.89,Mainly Clear
5543,2012-08-18 23:00:00,87.48,16.6,10.2,66,0,25.0,100.91,Clear
5544,2012-08-19 00:00:00,86.4,16.0,11.5,75,9,25.0,100.96,Clear
5545,2012-08-19 01:00:00,87.48,16.6,9.9,65,13,25.0,100.98,Clear
5546,2012-08-19 02:00:00,86.94,16.3,11.2,72,13,25.0,100.96,Clear
5547,2012-08-19 03:00:00,86.03999999999999,15.8,11.2,74,11,25.0,100.94,Clear
5548,2012-08-19 04:00:00,81.53999999999999,13.3,10.9,85,7,25.0,100.94,Clear
5549,2012-08-19 05:00:00,80.64,12.8,11.0,89,9,24.1,100.97,Mainly Clear
5550,2012-08-19 06:00:00,84.96000000000001,15.2,12.2,82,15,48.3,101.02,Mainly Clear
5551,2012-08-19 07:00:00,87.3,16.5,12.6,78,13,48.3,101.06,Mainly Clear
5552,2012-08-19 08:00:00,89.10000000000001,17.5,13.3,76,15,48.3,101.06,Clear
5553,2012-08-19 09:00:00,92.52,19.4,14.3,72,11,48.3,101.06,Mainly Clear
5554,2012-08-19 10:00:00,94.68,20.6,14.5,68,9,48.3,101.02,Mainly Clear
5555,2012-08-19 11:00:00,98.10000000000001,22.5,13.8,58,15,48.3,101.0,Mainly Clear
5556,2012-08-19 12:00:00,99.53999999999999,23.3,12.7,51,15,48.3,100.93,Mostly Cloudy
5557,2012-08-19 13:00:00,99.53999999999999,23.3,11.3,47,13,48.3,100.9,Mostly Cloudy
5558,2012-08-19 14:00:00,101.7,24.5,10.6,42,15,48.3,100.84,Mostly Cloudy
5559,2012-08-19 15:00:00,99.9,23.5,11.3,46,17,48.3,100.77,Mostly Cloudy
5560,2012-08-19 16:00:00,99.9,23.5,11.0,45,13,48.3,100.74,Cloudy
5561,2012-08-19 17:00:00,100.26,23.7,10.6,44,13,48.3,100.73,Mostly Cloudy
5562,2012-08-19 18:00:00,97.38000000000001,22.1,12.3,54,9,48.3,100.74,Mostly Cloudy
5563,2012-08-19 19:00:00,94.86000000000001,20.7,11.7,56,11,48.3,100.75,Mostly Cloudy
5564,2012-08-19 20:00:00,92.7,19.5,12.1,62,6,25.0,100.83,Mainly Clear
5565,2012-08-19 21:00:00,87.66000000000001,16.7,12.2,75,4,25.0,100.81,Mainly Clear
5566,2012-08-19 22:00:00,89.28,17.6,11.6,68,0,25.0,100.79,Clear
5567,2012-08-19 23:00:00,87.84,16.8,11.6,71,0,25.0,100.78,Mainly Clear
5568,2012-08-20 00:00:00,85.32,15.4,11.9,80,0,25.0,100.79,Mainly Clear
5569,2012-08-20 01:00:00,87.3,16.5,13.6,83,0,25.0,100.75,Mainly Clear
5570,2012-08-20 02:00:00,85.14,15.3,13.5,89,0,25.0,100.75,Clear
5571,2012-08-20 03:00:00,85.68,15.6,13.3,86,0,25.0,100.75,Mainly Clear
5572,2012-08-20 04:00:00,85.14,15.3,13.2,87,0,25.0,100.72,Mainly Clear
5573,2012-08-20 05:00:00,83.7,14.5,13.4,93,0,25.0,100.72,Mainly Clear
5574,2012-08-20 06:00:00,86.4,16.0,12.8,81,6,48.3,100.76,Mainly Clear
5575,2012-08-20 07:00:00,89.64,17.8,13.6,76,7,48.3,100.77,Mainly Clear
5576,2012-08-20 08:00:00,91.8,19.0,14.4,75,11,48.3,100.76,Mainly Clear
5577,2012-08-20 09:00:00,93.96000000000001,20.2,13.9,67,11,48.3,100.78,Clear
5578,2012-08-20 10:00:00,96.48,21.6,14.2,63,17,48.3,100.77,Mostly Cloudy
5579,2012-08-20 11:00:00,99.18,23.1,15.7,63,13,48.3,100.74,Mainly Clear
5580,2012-08-20 12:00:00,102.24,24.8,13.5,49,17,24.1,100.69,Mainly Clear
5581,2012-08-20 13:00:00,101.88000000000001,24.6,13.2,49,17,24.1,100.64,Mainly Clear
5582,2012-08-20 14:00:00,102.96000000000001,25.2,11.7,43,11,24.1,100.62,Mainly Clear
5583,2012-08-20 15:00:00,101.88000000000001,24.6,10.5,41,15,24.1,100.6,Mainly Clear
5584,2012-08-20 16:00:00,101.52,24.4,10.4,41,13,24.1,100.56,Clear
5585,2012-08-20 17:00:00,100.44,23.8,10.6,43,13,24.1,100.57,Mainly Clear
5586,2012-08-20 18:00:00,98.10000000000001,22.5,10.0,45,17,24.1,100.64,Mainly Clear
5587,2012-08-20 19:00:00,93.78,20.1,9.0,49,9,24.1,100.69,Mainly Clear
5588,2012-08-20 20:00:00,90.72,18.4,9.4,56,9,25.0,100.75,Clear
5589,2012-08-20 21:00:00,90.36000000000001,18.2,9.9,58,7,25.0,100.77,Mainly Clear
5590,2012-08-20 22:00:00,90.9,18.5,10.0,58,7,25.0,100.78,Mainly Clear
5591,2012-08-20 23:00:00,87.48,16.6,10.8,69,6,25.0,100.8,Mainly Clear
5592,2012-08-21 00:00:00,87.3,16.5,10.4,67,4,25.0,100.82,Mainly Clear
5593,2012-08-21 01:00:00,84.60000000000001,15.0,10.8,76,4,25.0,100.85,Mainly Clear
5594,2012-08-21 02:00:00,86.22,15.9,11.0,73,0,25.0,100.9,Mostly Cloudy
5595,2012-08-21 03:00:00,86.22,15.9,11.3,74,0,25.0,100.92,Mostly Cloudy
5596,2012-08-21 04:00:00,86.58,16.1,11.0,72,6,25.0,100.93,Mainly Clear
5597,2012-08-21 05:00:00,84.60000000000001,15.0,10.3,73,0,24.1,100.99,Mainly Clear
5598,2012-08-21 06:00:00,83.88000000000001,14.6,10.9,78,7,48.3,101.02,Mainly Clear
5599,2012-08-21 07:00:00,88.56,17.2,12.6,74,6,48.3,101.08,Mainly Clear
5600,2012-08-21 08:00:00,92.34,19.3,11.8,62,7,48.3,101.12,Mostly Cloudy
5601,2012-08-21 09:00:00,94.32,20.4,9.1,48,13,48.3,101.15,Mostly Cloudy
5602,2012-08-21 10:00:00,96.84,21.8,10.9,50,13,48.3,101.18,Mainly Clear
5603,2012-08-21 11:00:00,95.58,21.1,9.6,48,11,48.3,101.17,Mainly Clear
5604,2012-08-21 12:00:00,100.26,23.7,10.4,43,17,48.3,101.19,Mainly Clear
5605,2012-08-21 13:00:00,99.36000000000001,23.2,10.3,44,22,48.3,101.19,Mostly Cloudy
5606,2012-08-21 14:00:00,98.28,22.6,10.9,48,15,48.3,101.18,Mostly Cloudy
5607,2012-08-21 15:00:00,99.72,23.4,11.4,47,19,48.3,101.15,Mostly Cloudy
5608,2012-08-21 16:00:00,99.18,23.1,11.9,49,17,48.3,101.14,Mostly Cloudy
5609,2012-08-21 17:00:00,98.28,22.6,10.9,48,19,48.3,101.17,Mostly Cloudy
5610,2012-08-21 18:00:00,97.92,22.4,10.8,48,13,48.3,101.18,Mostly Cloudy
5611,2012-08-21 19:00:00,97.38000000000001,22.1,11.7,52,7,48.3,101.21,Mostly Cloudy
5612,2012-08-21 20:00:00,96.3,21.5,10.7,50,6,25.0,101.25,Mainly Clear
5613,2012-08-21 21:00:00,92.16000000000001,19.2,12.9,67,20,24.1,101.36,Mostly Cloudy
5614,2012-08-21 22:00:00,90.9,18.5,13.3,72,6,25.0,101.33,Mostly Cloudy
5615,2012-08-21 23:00:00,90.18,18.1,13.6,75,4,25.0,101.34,Mostly Cloudy
5616,2012-08-22 00:00:00,91.8,19.0,14.6,76,13,25.0,101.34,Mostly Cloudy
5617,2012-08-22 01:00:00,91.08,18.6,14.7,78,15,25.0,101.33,Rain Showers
5618,2012-08-22 02:00:00,91.44,18.8,13.8,73,11,25.0,101.35,Mostly Cloudy
5619,2012-08-22 03:00:00,91.44,18.8,12.0,65,13,25.0,101.38,Cloudy
5620,2012-08-22 04:00:00,91.08,18.6,12.1,66,9,25.0,101.39,Cloudy
5621,2012-08-22 05:00:00,90.0,18.0,12.4,70,7,48.3,101.41,Mainly Clear
5622,2012-08-22 06:00:00,89.28,17.6,12.6,72,6,48.3,101.45,Mainly Clear
5623,2012-08-22 07:00:00,91.62,18.9,12.1,65,15,48.3,101.46,Mainly Clear
5624,2012-08-22 08:00:00,93.42,19.9,11.7,59,15,48.3,101.48,Mainly Clear
5625,2012-08-22 09:00:00,95.58,21.1,12.9,59,15,48.3,101.5,Mostly Cloudy
5626,2012-08-22 10:00:00,97.2,22.0,14.1,61,17,48.3,101.5,Mainly Clear
5627,2012-08-22 11:00:00,99.36000000000001,23.2,13.9,56,24,48.3,101.46,Mainly Clear
5628,2012-08-22 12:00:00,101.52,24.4,12.9,49,24,48.3,101.44,Mainly Clear
5629,2012-08-22 13:00:00,104.03999999999999,25.8,12.8,44,24,48.3,101.39,Mainly Clear
5630,2012-08-22 14:00:00,103.5,25.5,11.5,42,19,48.3,101.35,Mainly Clear
5631,2012-08-22 15:00:00,103.86000000000001,25.7,10.9,39,20,48.3,101.33,Clear
5632,2012-08-22 16:00:00,103.68,25.6,10.6,39,28,48.3,101.28,Mainly Clear
5633,2012-08-22 17:00:00,103.32,25.4,10.9,40,15,48.3,101.27,Mainly Clear
5634,2012-08-22 18:00:00,102.78,25.1,10.5,40,11,48.3,101.24,Mainly Clear
5635,2012-08-22 19:00:00,100.62,23.9,12.7,49,9,48.3,101.25,Mainly Clear
5636,2012-08-22 20:00:00,99.53999999999999,23.3,14.6,58,13,25.0,101.28,Mainly Clear
5637,2012-08-22 21:00:00,98.10000000000001,22.5,14.2,59,15,25.0,101.29,Clear
5638,2012-08-22 22:00:00,97.02,21.9,14.0,61,17,25.0,101.27,Mainly Clear
5639,2012-08-22 23:00:00,96.3,21.5,12.7,57,19,25.0,101.26,Mainly Clear
5640,2012-08-23 00:00:00,94.86000000000001,20.7,12.0,57,11,24.1,101.29,Mainly Clear
5641,2012-08-23 01:00:00,93.96000000000001,20.2,12.9,63,13,25.0,101.29,Mainly Clear
5642,2012-08-23 02:00:00,92.34,19.3,13.0,67,13,25.0,101.32,Mostly Cloudy
5643,2012-08-23 03:00:00,91.62,18.9,12.8,68,13,25.0,101.31,Mainly Clear
5644,2012-08-23 04:00:00,91.62,18.9,13.5,71,15,25.0,101.31,Mainly Clear
5645,2012-08-23 05:00:00,90.9,18.5,14.3,77,15,25.0,101.33,Mainly Clear
5646,2012-08-23 06:00:00,91.98,19.1,15.2,78,24,24.1,101.36,Mainly Clear
5647,2012-08-23 07:00:00,94.14,20.3,15.9,76,19,24.1,101.37,Clear
5648,2012-08-23 08:00:00,96.84,21.8,15.8,69,22,24.1,101.37,Mainly Clear
5649,2012-08-23 09:00:00,98.82,22.9,16.8,69,24,48.3,101.39,Mainly Clear
5650,2012-08-23 10:00:00,100.62,23.9,15.1,58,22,48.3,101.39,Mainly Clear
5651,2012-08-23 11:00:00,104.4,26.0,16.0,54,24,48.3,101.37,Mainly Clear
5652,2012-08-23 12:00:00,105.3,26.5,15.5,51,28,48.3,101.36,Mostly Cloudy
5653,2012-08-23 13:00:00,106.2,27.0,15.6,50,26,48.3,101.37,Mostly Cloudy
5654,2012-08-23 14:00:00,102.60000000000001,25.0,15.4,55,13,24.1,101.37,Rain Showers
5655,2012-08-23 15:00:00,104.03999999999999,25.8,16.2,55,19,48.3,101.35,Mostly Cloudy
5656,2012-08-23 16:00:00,103.68,25.6,15.5,54,22,48.3,101.34,Mainly Clear
5657,2012-08-23 17:00:00,104.22,25.9,15.7,53,17,48.3,101.33,Mainly Clear
5658,2012-08-23 18:00:00,102.60000000000001,25.0,16.0,57,11,48.3,101.34,Mainly Clear
5659,2012-08-23 19:00:00,98.28,22.6,15.8,65,9,25.0,101.36,Mainly Clear
5660,2012-08-23 20:00:00,96.84,21.8,16.1,70,7,25.0,101.41,Clear
5661,2012-08-23 21:00:00,98.82,22.9,16.6,68,7,25.0,101.47,Mainly Clear
5662,2012-08-23 22:00:00,94.5,20.5,16.3,77,6,25.0,101.53,Mostly Cloudy
5663,2012-08-23 23:00:00,96.84,21.8,16.7,73,6,25.0,101.55,Mainly Clear
5664,2012-08-24 00:00:00,91.98,19.1,16.2,83,4,25.0,101.59,Mainly Clear
5665,2012-08-24 01:00:00,92.16000000000001,19.2,15.6,80,13,25.0,101.62,Mainly Clear
5666,2012-08-24 02:00:00,94.32,20.4,12.4,60,9,25.0,101.63,Mostly Cloudy
5667,2012-08-24 03:00:00,92.88000000000001,19.6,12.4,63,13,25.0,101.64,Mainly Clear
5668,2012-08-24 04:00:00,91.8,19.0,12.6,66,13,25.0,101.65,Mainly Clear
5669,2012-08-24 05:00:00,87.12,16.4,13.7,84,6,48.3,101.72,Mainly Clear
5670,2012-08-24 06:00:00,87.48,16.6,12.9,79,11,48.3,101.76,Mainly Clear
5671,2012-08-24 07:00:00,90.9,18.5,12.4,68,11,24.1,101.78,Mainly Clear
5672,2012-08-24 08:00:00,94.86000000000001,20.7,13.0,61,7,24.1,101.8,Clear
5673,2012-08-24 09:00:00,97.38000000000001,22.1,13.1,57,9,48.3,101.81,Mainly Clear
5674,2012-08-24 10:00:00,101.16000000000001,24.2,13.3,51,13,48.3,101.84,Mainly Clear
5675,2012-08-24 11:00:00,103.32,25.4,13.4,47,0,48.3,101.82,Mainly Clear
5676,2012-08-24 12:00:00,105.3,26.5,13.9,46,6,48.3,101.8,Mainly Clear
5677,2012-08-24 13:00:00,106.74,27.3,14.2,45,4,48.3,101.77,Mainly Clear
5678,2012-08-24 14:00:00,107.46000000000001,27.7,13.5,42,11,48.3,101.71,Mainly Clear
5679,2012-08-24 15:00:00,107.46000000000001,27.7,12.5,39,9,48.3,101.69,Mainly Clear
5680,2012-08-24 16:00:00,107.82,27.9,13.3,41,11,48.3,101.68,Mainly Clear
5681,2012-08-24 17:00:00,106.74,27.3,13.7,43,6,48.3,101.7,Mainly Clear
5682,2012-08-24 18:00:00,104.03999999999999,25.8,14.2,49,6,24.1,101.71,Mainly Clear
5683,2012-08-24 19:00:00,104.58,26.1,13.4,45,11,25.0,101.73,Mostly Cloudy
5684,2012-08-24 20:00:00,104.22,25.9,13.1,45,13,25.0,101.76,Mostly Cloudy
5685,2012-08-24 21:00:00,102.42,24.9,13.3,48,7,25.0,101.77,Mainly Clear
5686,2012-08-24 22:00:00,99.0,23.0,14.3,58,11,25.0,101.77,Mainly Clear
5687,2012-08-24 23:00:00,97.92,22.4,13.8,58,13,25.0,101.79,Mainly Clear
5688,2012-08-25 00:00:00,97.38000000000001,22.1,13.9,60,9,25.0,101.8,Mostly Cloudy
5689,2012-08-25 01:00:00,96.48,21.6,14.0,62,11,25.0,101.77,Mainly Clear
5690,2012-08-25 02:00:00,95.22,20.9,13.7,63,6,25.0,101.8,Mainly Clear
5691,2012-08-25 03:00:00,95.22,20.9,14.0,65,6,25.0,101.8,Mainly Clear
5692,2012-08-25 04:00:00,95.03999999999999,20.8,14.3,66,11,25.0,101.81,Mainly Clear
5693,2012-08-25 05:00:00,94.32,20.4,14.6,69,4,24.1,101.88,Mainly Clear
5694,2012-08-25 06:00:00,93.96000000000001,20.2,15.1,72,6,24.1,101.93,Mainly Clear
5695,2012-08-25 07:00:00,96.3,21.5,15.9,70,6,24.1,101.96,Mainly Clear
5696,2012-08-25 08:00:00,97.02,21.9,16.4,71,4,24.1,101.96,Mainly Clear
5697,2012-08-25 09:00:00,102.24,24.8,16.7,61,6,48.3,101.97,Mainly Clear
5698,2012-08-25 10:00:00,105.12,26.4,16.6,55,7,48.3,101.97,Clear
5699,2012-08-25 11:00:00,106.38000000000001,27.1,17.0,54,7,48.3,101.94,Mainly Clear
5700,2012-08-25 12:00:00,109.98,29.1,17.3,49,7,48.3,101.92,Mainly Clear
5701,2012-08-25 13:00:00,111.78,30.1,16.7,45,11,48.3,101.84,Clear
5702,2012-08-25 14:00:00,113.03999999999999,30.8,15.7,40,7,48.3,101.79,Mainly Clear
5703,2012-08-25 15:00:00,113.58,31.1,15.2,38,9,48.3,101.75,Mainly Clear
5704,2012-08-25 16:00:00,113.58,31.1,16.6,42,13,48.3,101.74,Mainly Clear
5705,2012-08-25 17:00:00,111.96000000000001,30.2,17.1,45,11,48.3,101.72,Mainly Clear
5706,2012-08-25 18:00:00,109.62,28.9,16.5,47,13,48.3,101.74,Mainly Clear
5707,2012-08-25 19:00:00,106.2,27.0,16.3,52,9,25.0,101.76,Mainly Clear
5708,2012-08-25 20:00:00,105.3,26.5,16.6,55,13,25.0,101.78,Mainly Clear
5709,2012-08-25 21:00:00,103.14,25.3,17.1,60,11,25.0,101.76,Clear
5710,2012-08-25 22:00:00,100.62,23.9,17.3,67,9,25.0,101.8,Clear
5711,2012-08-25 23:00:00,100.8,24.0,18.0,69,9,25.0,101.83,Clear
5712,2012-08-26 00:00:00,97.38000000000001,22.1,18.0,78,11,25.0,101.85,Clear
5713,2012-08-26 01:00:00,97.92,22.4,18.4,78,6,25.0,101.89,Clear
5714,2012-08-26 02:00:00,99.72,23.4,16.9,67,7,25.0,101.9,Clear
5715,2012-08-26 03:00:00,99.9,23.5,16.9,66,15,25.0,101.91,Clear
5716,2012-08-26 04:00:00,99.36000000000001,23.2,16.9,68,7,25.0,101.95,Clear
5717,2012-08-26 05:00:00,95.76,21.2,16.9,76,6,24.1,102.02,Clear
5718,2012-08-26 06:00:00,95.22,20.9,17.2,79,0,24.1,102.06,Clear
5719,2012-08-26 07:00:00,98.82,22.9,17.1,70,9,24.1,102.1,Clear
5720,2012-08-26 08:00:00,101.16000000000001,24.2,17.3,65,15,24.1,102.09,Mainly Clear
5721,2012-08-26 09:00:00,102.06,24.7,17.5,64,11,24.1,102.08,Mainly Clear
5722,2012-08-26 10:00:00,104.94,26.3,17.7,59,15,48.3,102.07,Mainly Clear
5723,2012-08-26 11:00:00,107.82,27.9,17.4,53,20,48.3,102.04,Mainly Clear
5724,2012-08-26 12:00:00,109.62,28.9,17.1,49,17,48.3,101.99,Mainly Clear
5725,2012-08-26 13:00:00,111.06,29.7,16.7,46,13,48.3,101.92,Mainly Clear
5726,2012-08-26 14:00:00,111.96000000000001,30.2,15.5,41,17,48.3,101.81,Mainly Clear
5727,2012-08-26 15:00:00,111.78,30.1,15.7,42,13,48.3,101.76,Mainly Clear
5728,2012-08-26 16:00:00,112.32,30.4,16.1,42,11,48.3,101.68,Mainly Clear
5729,2012-08-26 17:00:00,110.7,29.5,16.8,46,4,48.3,101.62,Mainly Clear
5730,2012-08-26 18:00:00,108.9,28.5,15.2,44,11,48.3,101.56,Mainly Clear
5731,2012-08-26 19:00:00,106.56,27.2,14.9,47,15,25.0,101.55,Mainly Clear
5732,2012-08-26 20:00:00,103.86000000000001,25.7,15.8,54,11,25.0,101.56,Mainly Clear
5733,2012-08-26 21:00:00,102.24,24.8,16.1,58,9,25.0,101.55,Mostly Cloudy
5734,2012-08-26 22:00:00,100.62,23.9,16.9,65,15,25.0,101.52,Mostly Cloudy
5735,2012-08-26 23:00:00,101.34,24.3,17.5,66,15,25.0,101.51,Mostly Cloudy
5736,2012-08-27 00:00:00,101.34,24.3,16.9,63,15,25.0,101.49,Mostly Cloudy
5737,2012-08-27 01:00:00,99.36000000000001,23.2,17.0,68,11,25.0,101.44,Mainly Clear
5738,2012-08-27 02:00:00,97.74,22.3,16.2,68,11,25.0,101.43,Mostly Cloudy
5739,2012-08-27 03:00:00,96.84,21.8,15.9,69,11,25.0,101.4,Mostly Cloudy
5740,2012-08-27 04:00:00,97.92,22.4,15.8,66,13,25.0,101.37,Mostly Cloudy
5741,2012-08-27 05:00:00,96.12,21.4,15.7,70,15,24.1,101.36,Mostly Cloudy
5742,2012-08-27 06:00:00,97.2,22.0,16.4,71,13,24.1,101.38,Mostly Cloudy
5743,2012-08-27 07:00:00,99.18,23.1,16.9,68,13,24.1,101.36,Mostly Cloudy
5744,2012-08-27 08:00:00,102.06,24.7,16.7,61,17,24.1,101.33,Mostly Cloudy
5745,2012-08-27 09:00:00,103.68,25.6,17.5,61,19,48.3,101.31,Mostly Cloudy
5746,2012-08-27 10:00:00,104.4,26.0,17.9,61,22,48.3,101.25,Mostly Cloudy
5747,2012-08-27 11:00:00,104.76,26.2,18.0,61,17,24.1,101.19,Cloudy
5748,2012-08-27 12:00:00,106.38000000000001,27.1,18.4,59,20,24.1,101.11,Cloudy
5749,2012-08-27 13:00:00,105.66000000000001,26.7,18.4,60,20,24.1,101.03,Cloudy
5750,2012-08-27 14:00:00,105.12,26.4,18.2,61,17,24.1,100.95,Cloudy
5751,2012-08-27 15:00:00,104.4,26.0,18.2,62,15,24.1,100.87,Rain Showers
5752,2012-08-27 16:00:00,100.08,23.6,20.2,81,13,24.1,100.83,Rain Showers
5753,2012-08-27 17:00:00,97.92,22.4,20.5,89,13,24.1,100.84,Rain Showers
5754,2012-08-27 18:00:00,98.64,22.8,20.3,86,7,25.0,100.78,Cloudy
5755,2012-08-27 19:00:00,98.28,22.6,20.4,87,7,25.0,100.71,Cloudy
5756,2012-08-27 20:00:00,98.64,22.8,20.1,85,13,25.0,100.68,Mostly Cloudy
5757,2012-08-27 21:00:00,96.84,21.8,20.6,93,11,25.0,100.66,Mostly Cloudy
5758,2012-08-27 22:00:00,97.74,22.3,20.2,88,15,25.0,100.63,Mostly Cloudy
5759,2012-08-27 23:00:00,98.10000000000001,22.5,19.1,81,22,25.0,100.59,Mostly Cloudy
5760,2012-08-28 00:00:00,96.84,21.8,19.1,85,26,25.0,100.53,Cloudy
5761,2012-08-28 01:00:00,96.3,21.5,19.2,87,15,25.0,100.49,Cloudy
5762,2012-08-28 02:00:00,95.94,21.3,19.3,88,15,25.0,100.46,Cloudy
5763,2012-08-28 03:00:00,95.58,21.1,19.3,89,13,25.0,100.44,Mostly Cloudy
5764,2012-08-28 04:00:00,95.22,20.9,19.3,91,11,25.0,100.42,Mainly Clear
5765,2012-08-28 05:00:00,93.60000000000001,20.0,19.0,94,13,16.1,100.47,Mostly Cloudy
5766,2012-08-28 06:00:00,94.14,20.3,19.3,94,15,19.3,100.5,Mostly Cloudy
5767,2012-08-28 07:00:00,96.12,21.4,19.5,89,15,19.3,100.53,Mostly Cloudy
5768,2012-08-28 08:00:00,95.94,21.3,18.9,86,15,19.3,100.57,Cloudy
5769,2012-08-28 09:00:00,98.46000000000001,22.7,16.7,69,24,48.3,100.59,Mainly Clear
5770,2012-08-28 10:00:00,100.44,23.8,15.5,60,15,48.3,100.61,Mainly Clear
5771,2012-08-28 11:00:00,98.28,22.6,15.1,63,13,48.3,100.6,Mostly Cloudy
5772,2012-08-28 12:00:00,102.96000000000001,25.2,13.9,50,22,48.3,100.6,Mainly Clear
5773,2012-08-28 13:00:00,103.32,25.4,12.1,44,30,48.3,100.61,Mainly Clear
5774,2012-08-28 14:00:00,101.16000000000001,24.2,10.0,41,30,48.3,100.61,Mainly Clear
5775,2012-08-28 15:00:00,99.36000000000001,23.2,8.8,40,28,48.3,100.65,Mainly Clear
5776,2012-08-28 16:00:00,97.92,22.4,8.7,42,24,48.3,100.71,Mainly Clear
5777,2012-08-28 17:00:00,96.3,21.5,7.7,41,22,48.3,100.76,Mainly Clear
5778,2012-08-28 18:00:00,93.60000000000001,20.0,7.3,44,20,48.3,100.79,Mainly Clear
5779,2012-08-28 19:00:00,92.34,19.3,7.4,46,17,25.0,100.87,Mostly Cloudy
5780,2012-08-28 20:00:00,88.02,16.9,6.9,52,15,25.0,100.97,Mainly Clear
5781,2012-08-28 21:00:00,84.42,14.9,7.1,60,7,25.0,101.01,Mainly Clear
5782,2012-08-28 22:00:00,82.62,13.9,7.4,65,9,25.0,101.01,Mainly Clear
5783,2012-08-28 23:00:00,82.98,14.1,8.7,70,7,25.0,101.05,Mostly Cloudy
5784,2012-08-29 00:00:00,79.2,12.0,8.2,78,7,25.0,101.06,Clear
5785,2012-08-29 01:00:00,78.3,11.5,8.0,79,9,25.0,101.07,Mostly Cloudy
5786,2012-08-29 02:00:00,81.72,13.4,8.6,73,11,25.0,101.08,Mostly Cloudy
5787,2012-08-29 03:00:00,77.4,11.0,7.7,80,9,25.0,101.06,Clear
5788,2012-08-29 04:00:00,76.5,10.5,7.6,82,7,25.0,101.06,Clear
5789,2012-08-29 05:00:00,76.5,10.5,7.9,84,7,48.3,101.07,Clear
5790,2012-08-29 06:00:00,79.2,12.0,8.9,81,9,48.3,101.1,Clear
5791,2012-08-29 07:00:00,86.4,16.0,8.1,59,19,48.3,101.13,Clear
5792,2012-08-29 08:00:00,90.0,18.0,7.4,50,20,48.3,101.13,Clear
5793,2012-08-29 09:00:00,92.88000000000001,19.6,7.9,47,22,48.3,101.11,Clear
5794,2012-08-29 10:00:00,94.86000000000001,20.7,8.1,44,20,48.3,101.09,Clear
5795,2012-08-29 11:00:00,97.02,21.9,8.5,42,22,48.3,101.07,Clear
5796,2012-08-29 12:00:00,98.28,22.6,8.2,40,26,48.3,101.01,Mainly Clear
5797,2012-08-29 13:00:00,99.9,23.5,7.9,37,32,48.3,100.98,Clear
5798,2012-08-29 14:00:00,102.06,24.7,8.3,35,20,48.3,100.92,Clear
5799,2012-08-29 15:00:00,101.16000000000001,24.2,8.0,36,32,48.3,100.87,Mainly Clear
5800,2012-08-29 16:00:00,101.16000000000001,24.2,8.1,36,24,48.3,100.86,Mainly Clear
5801,2012-08-29 17:00:00,99.9,23.5,7.6,36,26,48.3,100.86,Mainly Clear
5802,2012-08-29 18:00:00,98.10000000000001,22.5,6.9,36,19,48.3,100.87,Clear
5803,2012-08-29 19:00:00,96.66000000000001,21.7,6.7,38,15,48.3,100.89,Clear
5804,2012-08-29 20:00:00,93.06,19.7,7.1,44,9,25.0,100.92,Clear
5805,2012-08-29 21:00:00,93.06,19.7,7.3,45,15,25.0,100.93,Clear
5806,2012-08-29 22:00:00,92.7,19.5,8.7,50,22,25.0,100.93,Clear
5807,2012-08-29 23:00:00,90.53999999999999,18.3,9.9,58,20,25.0,100.97,Clear
5808,2012-08-30 00:00:00,89.10000000000001,17.5,10.6,64,19,25.0,100.96,Clear
5809,2012-08-30 01:00:00,88.2,17.0,11.5,70,11,25.0,100.92,Clear
5810,2012-08-30 02:00:00,85.32,15.4,12.1,81,11,25.0,100.97,Mostly Cloudy
5811,2012-08-30 03:00:00,86.76,16.2,11.7,75,17,25.0,100.93,Mainly Clear
5812,2012-08-30 04:00:00,84.78,15.1,11.8,81,15,25.0,100.96,Clear
5813,2012-08-30 05:00:00,85.5,15.5,11.7,78,20,48.3,100.97,Mainly Clear
5814,2012-08-30 06:00:00,86.94,16.3,11.8,75,26,48.3,100.95,Mostly Cloudy
5815,2012-08-30 07:00:00,87.84,16.8,11.8,72,20,24.1,100.95,Mainly Clear
5816,2012-08-30 08:00:00,89.82,17.9,12.6,71,24,24.1,100.94,Mainly Clear
5817,2012-08-30 09:00:00,92.88000000000001,19.6,13.2,67,32,48.3,100.93,Mainly Clear
5818,2012-08-30 10:00:00,96.84,21.8,13.3,58,26,48.3,100.88,Mainly Clear
5819,2012-08-30 11:00:00,99.18,23.1,14.0,57,33,48.3,100.84,Mainly Clear
5820,2012-08-30 12:00:00,102.60000000000001,25.0,15.4,55,32,48.3,100.79,Mainly Clear
5821,2012-08-30 13:00:00,105.66000000000001,26.7,16.6,54,37,48.3,100.73,Mainly Clear
5822,2012-08-30 14:00:00,107.64,27.8,16.5,50,26,48.3,100.65,Mainly Clear
5823,2012-08-30 15:00:00,108.9,28.5,17.0,50,35,48.3,100.61,Mainly Clear
5824,2012-08-30 16:00:00,107.64,27.8,16.2,49,33,48.3,100.54,Mostly Cloudy
5825,2012-08-30 17:00:00,106.92,27.4,16.5,51,41,48.3,100.53,Mostly Cloudy
5826,2012-08-30 18:00:00,105.48,26.6,16.3,53,35,48.3,100.5,Mostly Cloudy
5827,2012-08-30 19:00:00,103.5,25.5,16.3,57,43,25.0,100.49,Mostly Cloudy
5828,2012-08-30 20:00:00,101.7,24.5,15.2,56,39,25.0,100.51,Mostly Cloudy
5829,2012-08-30 21:00:00,101.7,24.5,15.6,58,44,25.0,100.53,Mainly Clear
5830,2012-08-30 22:00:00,101.16000000000001,24.2,15.5,58,41,25.0,100.54,Mainly Clear
5831,2012-08-30 23:00:00,100.26,23.7,15.6,60,37,25.0,100.57,Mainly Clear
5832,2012-08-31 00:00:00,99.72,23.4,14.5,57,33,25.0,100.55,Clear
5833,2012-08-31 01:00:00,99.9,23.5,14.1,56,35,25.0,100.51,Mainly Clear
5834,2012-08-31 02:00:00,99.36000000000001,23.2,13.9,56,35,25.0,100.5,Mainly Clear
5835,2012-08-31 03:00:00,98.64,22.8,12.3,52,28,25.0,100.52,Mostly Cloudy
5836,2012-08-31 04:00:00,98.64,22.8,13.0,54,28,25.0,100.47,Mostly Cloudy
5837,2012-08-31 05:00:00,98.28,22.6,14.6,61,28,24.1,100.45,Mostly Cloudy
5838,2012-08-31 06:00:00,98.10000000000001,22.5,16.1,67,30,24.1,100.51,Rain Showers
5839,2012-08-31 07:00:00,98.28,22.6,16.4,68,32,24.1,100.48,Rain Showers
5840,2012-08-31 08:00:00,98.82,22.9,15.9,65,37,24.1,100.49,Cloudy
5841,2012-08-31 09:00:00,96.84,21.8,17.1,75,35,24.1,100.5,Rain Showers
5842,2012-08-31 10:00:00,93.06,19.7,17.8,89,20,24.1,100.54,"Thunderstorms,Rain Showers"
5843,2012-08-31 11:00:00,95.58,21.1,18.6,86,26,24.1,100.52,Cloudy
5844,2012-08-31 12:00:00,98.64,22.8,18.6,77,20,24.1,100.49,Rain Showers
5845,2012-08-31 13:00:00,100.8,24.0,18.2,70,22,24.1,100.43,Cloudy
5846,2012-08-31 14:00:00,100.98,24.1,18.2,70,22,24.1,100.38,Cloudy
5847,2012-08-31 15:00:00,103.68,25.6,18.6,65,30,24.1,100.35,Mostly Cloudy
5848,2012-08-31 16:00:00,102.24,24.8,18.5,68,20,24.1,100.38,Mostly Cloudy
5849,2012-08-31 17:00:00,102.60000000000001,25.0,18.4,67,17,24.1,100.41,Mostly Cloudy
5850,2012-08-31 18:00:00,101.16000000000001,24.2,18.6,71,13,24.1,100.47,Mostly Cloudy
5851,2012-08-31 19:00:00,99.18,23.1,18.9,77,9,25.0,100.52,Mainly Clear
5852,2012-08-31 20:00:00,97.74,22.3,19.1,82,11,25.0,100.61,Mainly Clear
5853,2012-08-31 21:00:00,96.48,21.6,19.0,85,11,25.0,100.65,Mainly Clear
5854,2012-08-31 22:00:00,96.66000000000001,21.7,16.9,74,20,25.0,100.78,Mainly Clear
5855,2012-08-31 23:00:00,95.03999999999999,20.8,12.9,61,11,25.0,100.84,Clear
5856,2012-09-01 00:00:00,92.88000000000001,19.6,13.1,66,11,25.0,100.94,Mainly Clear
5857,2012-09-01 01:00:00,91.98,19.1,12.5,66,4,25.0,101.0,Mainly Clear
5858,2012-09-01 02:00:00,91.98,19.1,12.6,66,9,25.0,101.05,Mainly Clear
5859,2012-09-01 03:00:00,89.46000000000001,17.7,12.8,73,11,25.0,101.13,Mainly Clear
5860,2012-09-01 04:00:00,86.94,16.3,12.8,80,11,25.0,101.21,Clear
5861,2012-09-01 05:00:00,86.4,16.0,12.9,82,13,25.0,101.31,Mainly Clear
5862,2012-09-01 06:00:00,86.76,16.2,12.5,79,13,48.3,101.41,Mainly Clear
5863,2012-09-01 07:00:00,89.64,17.8,10.6,63,24,48.3,101.48,Mainly Clear
5864,2012-09-01 08:00:00,91.08,18.6,9.5,55,20,48.3,101.54,Mainly Clear
5865,2012-09-01 09:00:00,94.32,20.4,8.8,47,15,48.3,101.59,Clear
5866,2012-09-01 10:00:00,97.2,22.0,8.5,42,20,48.3,101.6,Clear
5867,2012-09-01 11:00:00,98.46000000000001,22.7,6.2,34,15,48.3,101.6,Mainly Clear
5868,2012-09-01 12:00:00,99.36000000000001,23.2,7.0,35,13,48.3,101.57,Clear
5869,2012-09-01 13:00:00,100.08,23.6,7.0,34,6,48.3,101.54,Clear
5870,2012-09-01 14:00:00,99.9,23.5,6.7,34,7,48.3,101.47,Clear
5871,2012-09-01 15:00:00,101.34,24.3,7.3,34,7,48.3,101.44,Clear
5872,2012-09-01 16:00:00,101.16000000000001,24.2,7.0,33,4,48.3,101.43,Clear
5873,2012-09-01 17:00:00,100.8,24.0,6.6,33,7,48.3,101.39,Clear
5874,2012-09-01 18:00:00,98.46000000000001,22.7,8.4,40,9,48.3,101.41,Clear
5875,2012-09-01 19:00:00,95.22,20.9,8.3,44,6,48.3,101.45,Clear
5876,2012-09-01 20:00:00,91.44,18.8,9.9,56,11,25.0,101.46,Clear
5877,2012-09-01 21:00:00,90.9,18.5,7.6,49,7,25.0,101.47,Clear
5878,2012-09-01 22:00:00,89.10000000000001,17.5,9.2,58,6,25.0,101.46,Clear
5879,2012-09-01 23:00:00,88.2,17.0,9.1,60,7,25.0,101.45,Mainly Clear
5880,2012-09-02 00:00:00,86.58,16.1,9.0,63,4,25.0,101.47,Clear
5881,2012-09-02 01:00:00,82.8,14.0,9.3,73,4,25.0,101.47,Clear
5882,2012-09-02 02:00:00,81.9,13.5,9.5,77,4,25.0,101.47,Clear
5883,2012-09-02 03:00:00,81.0,13.0,9.5,79,0,25.0,101.43,Mainly Clear
5884,2012-09-02 04:00:00,81.53999999999999,13.3,9.7,79,0,25.0,101.41,Mainly Clear
5885,2012-09-02 05:00:00,83.16000000000001,14.2,10.2,77,6,25.0,101.43,Mainly Clear
5886,2012-09-02 06:00:00,81.0,13.0,10.8,86,7,24.1,101.48,Mainly Clear
5887,2012-09-02 07:00:00,85.5,15.5,11.6,78,4,48.3,101.49,Mainly Clear
5888,2012-09-02 08:00:00,88.74,17.3,11.7,70,7,48.3,101.51,Mostly Cloudy
5889,2012-09-02 09:00:00,91.98,19.1,11.5,61,4,48.3,101.52,Mostly Cloudy
5890,2012-09-02 10:00:00,94.86000000000001,20.7,11.4,55,6,48.3,101.53,Mostly Cloudy
5891,2012-09-02 11:00:00,96.84,21.8,10.3,48,4,48.3,101.52,Mostly Cloudy
5892,2012-09-02 12:00:00,101.52,24.4,8.8,37,4,48.3,101.49,Mainly Clear
5893,2012-09-02 13:00:00,103.5,25.5,7.0,31,9,48.3,101.47,Mainly Clear
5894,2012-09-02 14:00:00,103.14,25.3,7.4,32,9,48.3,101.45,Mainly Clear
5895,2012-09-02 15:00:00,103.68,25.6,6.5,29,7,48.3,101.41,Mainly Clear
5896,2012-09-02 16:00:00,103.32,25.4,6.0,29,11,48.3,101.43,Mainly Clear
5897,2012-09-02 17:00:00,100.08,23.6,6.9,34,9,48.3,101.44,Mainly Clear
5898,2012-09-02 18:00:00,100.8,24.0,6.8,33,11,48.3,101.47,Mainly Clear
5899,2012-09-02 19:00:00,95.22,20.9,8.4,45,13,48.3,101.51,Mainly Clear
5900,2012-09-02 20:00:00,95.76,21.2,8.5,44,9,25.0,101.52,Clear
5901,2012-09-02 21:00:00,93.06,19.7,9.4,51,7,25.0,101.53,Mainly Clear
5902,2012-09-02 22:00:00,92.16000000000001,19.2,10.0,55,4,25.0,101.57,Mainly Clear
5903,2012-09-02 23:00:00,91.26,18.7,9.8,56,4,25.0,101.57,Clear
5904,2012-09-03 00:00:00,89.10000000000001,17.5,10.2,62,7,25.0,101.6,Clear
5905,2012-09-03 01:00:00,85.68,15.6,9.3,66,0,25.0,101.61,Mainly Clear
5906,2012-09-03 02:00:00,82.26,13.7,8.9,73,6,25.0,101.59,Mainly Clear
5907,2012-09-03 03:00:00,82.8,14.0,10.4,79,4,25.0,101.61,Mainly Clear
5908,2012-09-03 04:00:00,81.72,13.4,11.0,85,6,25.0,101.63,Clear
5909,2012-09-03 05:00:00,83.7,14.5,10.3,76,6,25.0,101.68,Mainly Clear
5910,2012-09-03 06:00:00,81.72,13.4,10.7,84,6,48.3,101.68,Mainly Clear
5911,2012-09-03 07:00:00,86.94,16.3,12.2,77,7,48.3,101.69,Mainly Clear
5912,2012-09-03 08:00:00,90.9,18.5,13.0,70,11,48.3,101.67,Mainly Clear
5913,2012-09-03 09:00:00,95.58,21.1,11.8,55,9,48.3,101.65,Mainly Clear
5914,2012-09-03 10:00:00,99.9,23.5,11.7,47,9,48.3,101.63,Mainly Clear
5915,2012-09-03 11:00:00,101.34,24.3,10.9,43,9,48.3,101.59,Mainly Clear
5916,2012-09-03 12:00:00,104.4,26.0,11.1,39,13,48.3,101.54,Mainly Clear
5917,2012-09-03 13:00:00,104.76,26.2,10.0,36,4,48.3,101.5,Mainly Clear
5918,2012-09-03 14:00:00,108.0,28.0,10.4,33,0,48.3,101.41,Mainly Clear
5919,2012-09-03 15:00:00,107.64,27.8,10.5,34,13,48.3,101.33,Mainly Clear
5920,2012-09-03 16:00:00,107.64,27.8,11.4,36,4,48.3,101.29,Mostly Cloudy
5921,2012-09-03 17:00:00,105.48,26.6,12.8,42,13,48.3,101.25,Mostly Cloudy
5922,2012-09-03 18:00:00,104.03999999999999,25.8,12.5,44,13,48.3,101.2,Mostly Cloudy
5923,2012-09-03 19:00:00,103.14,25.3,12.4,45,9,25.0,101.19,Mostly Cloudy
5924,2012-09-03 20:00:00,102.60000000000001,25.0,12.6,46,9,25.0,101.21,Mostly Cloudy
5925,2012-09-03 21:00:00,101.16000000000001,24.2,12.8,49,15,25.0,101.19,Mainly Clear
5926,2012-09-03 22:00:00,98.46000000000001,22.7,14.7,61,13,25.0,101.19,Mainly Clear
5927,2012-09-03 23:00:00,95.58,21.1,15.8,72,11,25.0,101.18,Mainly Clear
5928,2012-09-04 00:00:00,94.68,20.6,15.9,74,9,25.0,101.21,Mainly Clear
5929,2012-09-04 01:00:00,95.58,21.1,16.0,73,9,25.0,101.2,Mostly Cloudy
5930,2012-09-04 02:00:00,95.03999999999999,20.8,15.8,73,13,25.0,101.16,Mostly Cloudy
5931,2012-09-04 03:00:00,95.22,20.9,15.3,70,7,25.0,101.14,Mostly Cloudy
5932,2012-09-04 04:00:00,95.03999999999999,20.8,14.8,69,6,25.0,101.13,Cloudy
5933,2012-09-04 05:00:00,94.86000000000001,20.7,14.6,68,9,25.0,101.11,Mostly Cloudy
5934,2012-09-04 06:00:00,94.86000000000001,20.7,15.3,71,15,25.0,101.15,Cloudy
5935,2012-09-04 07:00:00,94.5,20.5,16.1,76,17,24.1,101.13,Cloudy
5936,2012-09-04 08:00:00,95.58,21.1,16.4,75,15,24.1,101.11,Mostly Cloudy
5937,2012-09-04 09:00:00,97.2,22.0,16.9,73,11,24.1,101.1,Mostly Cloudy
5938,2012-09-04 10:00:00,98.82,22.9,17.2,70,9,24.1,101.08,Cloudy
5939,2012-09-04 11:00:00,102.60000000000001,25.0,17.5,63,15,24.1,101.02,Mostly Cloudy
5940,2012-09-04 12:00:00,103.68,25.6,18.0,63,6,24.1,100.94,Cloudy
5941,2012-09-04 13:00:00,102.96000000000001,25.2,17.8,64,9,24.1,100.89,Cloudy
5942,2012-09-04 14:00:00,102.06,24.7,18.0,66,15,24.1,100.83,Cloudy
5943,2012-09-04 15:00:00,100.98,24.1,17.8,68,19,24.1,100.81,Cloudy
5944,2012-09-04 16:00:00,99.9,23.5,17.7,70,15,24.1,100.77,Cloudy
5945,2012-09-04 17:00:00,99.53999999999999,23.3,18.0,72,15,24.1,100.74,Cloudy
5946,2012-09-04 18:00:00,96.84,21.8,19.2,85,9,19.3,100.73,Rain
5947,2012-09-04 19:00:00,95.03999999999999,20.8,19.7,93,7,12.9,100.7,Rain
5948,2012-09-04 20:00:00,94.86000000000001,20.7,19.9,95,9,12.9,100.68,Rain
5949,2012-09-04 21:00:00,95.58,21.1,19.7,92,9,19.3,100.66,Rain
5950,2012-09-04 22:00:00,94.86000000000001,20.7,19.7,94,15,19.3,100.61,Rain
5951,2012-09-04 23:00:00,93.96000000000001,20.2,19.2,94,9,19.3,100.47,Rain
5952,2012-09-05 00:00:00,94.14,20.3,19.1,93,13,19.3,100.43,Rain
5953,2012-09-05 01:00:00,93.60000000000001,20.0,18.6,92,13,16.1,100.35,Rain
5954,2012-09-05 02:00:00,91.98,19.1,18.2,95,17,25.0,100.35,Rain
5955,2012-09-05 03:00:00,91.08,18.6,17.7,95,15,25.0,100.39,Cloudy
5956,2012-09-05 04:00:00,90.9,18.5,17.6,94,11,25.0,100.43,Mostly Cloudy
5957,2012-09-05 05:00:00,89.28,17.6,17.1,97,7,25.0,100.46,Mostly Cloudy
5958,2012-09-05 06:00:00,90.36000000000001,18.2,17.4,95,7,24.1,100.51,Mostly Cloudy
5959,2012-09-05 07:00:00,92.7,19.5,18.3,93,11,24.1,100.55,Mainly Clear
5960,2012-09-05 08:00:00,95.94,21.3,18.6,85,13,48.3,100.51,Mainly Clear
5961,2012-09-05 09:00:00,97.92,22.4,18.5,79,15,24.1,100.54,Mostly Cloudy
5962,2012-09-05 10:00:00,99.53999999999999,23.3,18.9,76,11,24.1,100.59,Mostly Cloudy
5963,2012-09-05 11:00:00,99.72,23.4,17.9,71,7,24.1,100.57,Rain Showers
5964,2012-09-05 12:00:00,103.5,25.5,19.2,68,11,24.1,100.54,Mainly Clear
5965,2012-09-05 13:00:00,104.22,25.9,18.3,63,11,24.1,100.52,Mainly Clear
5966,2012-09-05 14:00:00,105.12,26.4,18.1,60,13,24.1,100.49,Mainly Clear
5967,2012-09-05 15:00:00,104.76,26.2,17.6,59,11,24.1,100.47,Mainly Clear
5968,2012-09-05 16:00:00,106.2,27.0,17.7,57,9,24.1,100.45,Mainly Clear
5969,2012-09-05 17:00:00,104.58,26.1,17.2,58,13,24.1,100.44,Mainly Clear
5970,2012-09-05 18:00:00,104.03999999999999,25.8,17.1,59,9,24.1,100.5,Mainly Clear
5971,2012-09-05 19:00:00,102.96000000000001,25.2,17.5,62,6,25.0,100.55,Mostly Cloudy
5972,2012-09-05 20:00:00,101.16000000000001,24.2,18.7,71,7,25.0,100.57,Mostly Cloudy
5973,2012-09-05 21:00:00,100.8,24.0,18.1,70,9,25.0,100.58,Rain Showers
5974,2012-09-05 22:00:00,98.82,22.9,18.2,75,7,25.0,100.55,Mostly Cloudy
5975,2012-09-05 23:00:00,97.38000000000001,22.1,18.1,78,6,25.0,100.53,Mainly Clear
5976,2012-09-06 00:00:00,95.94,21.3,18.1,82,7,25.0,100.53,Mainly Clear
5977,2012-09-06 01:00:00,95.4,21.0,18.4,85,7,25.0,100.55,Mostly Cloudy
5978,2012-09-06 02:00:00,95.94,21.3,18.5,84,7,25.0,100.55,Mainly Clear
5979,2012-09-06 03:00:00,95.58,21.1,18.5,85,6,25.0,100.55,Mostly Cloudy
5980,2012-09-06 04:00:00,95.58,21.1,18.8,87,7,25.0,100.54,Mainly Clear
5981,2012-09-06 05:00:00,95.4,21.0,18.1,84,6,25.0,100.61,Mostly Cloudy
5982,2012-09-06 06:00:00,92.7,19.5,17.8,90,9,25.0,100.58,Mostly Cloudy
5983,2012-09-06 07:00:00,93.42,19.9,17.7,87,7,25.0,100.62,Cloudy
5984,2012-09-06 08:00:00,95.58,21.1,18.1,83,7,24.1,100.62,Mostly Cloudy
5985,2012-09-06 09:00:00,99.18,23.1,18.3,74,6,24.1,100.59,Mainly Clear
5986,2012-09-06 10:00:00,102.06,24.7,17.8,65,6,24.1,100.55,Mainly Clear
5987,2012-09-06 11:00:00,104.58,26.1,18.1,61,13,24.1,100.5,Mainly Clear
5988,2012-09-06 12:00:00,105.84,26.8,17.3,56,15,24.1,100.45,Mainly Clear
5989,2012-09-06 13:00:00,107.82,27.9,17.5,53,11,24.1,100.41,Mainly Clear
5990,2012-09-06 14:00:00,108.18,28.1,17.8,54,13,24.1,100.34,Mostly Cloudy
5991,2012-09-06 15:00:00,108.36000000000001,28.2,18.4,55,13,24.1,100.3,Mainly Clear
5992,2012-09-06 16:00:00,107.28,27.6,17.9,56,19,24.1,100.31,Mainly Clear
5993,2012-09-06 17:00:00,106.02,26.9,17.6,57,17,24.1,100.36,Mainly Clear
5994,2012-09-06 18:00:00,102.24,24.8,16.5,60,9,24.1,100.38,Mainly Clear
5995,2012-09-06 19:00:00,98.28,22.6,16.5,68,6,25.0,100.42,Mainly Clear
5996,2012-09-06 20:00:00,98.10000000000001,22.5,16.8,70,11,25.0,100.47,Clear
5997,2012-09-06 21:00:00,96.12,21.4,15.1,67,7,25.0,100.52,Mainly Clear
5998,2012-09-06 22:00:00,92.88000000000001,19.6,15.0,75,9,25.0,100.55,Mainly Clear
5999,2012-09-06 23:00:00,93.96000000000001,20.2,14.6,70,0,25.0,100.59,Mainly Clear
6000,2012-09-07 00:00:00,90.18,18.1,14.8,81,4,24.1,100.62,Clear
6001,2012-09-07 01:00:00,91.26,18.7,14.5,77,4,25.0,100.62,Clear
6002,2012-09-07 02:00:00,89.28,17.6,15.6,88,9,25.0,100.62,Mainly Clear
6003,2012-09-07 03:00:00,90.9,18.5,14.5,78,6,25.0,100.68,Clear
6004,2012-09-07 04:00:00,90.53999999999999,18.3,14.2,77,6,25.0,100.68,Clear
6005,2012-09-07 05:00:00,86.03999999999999,15.8,14.3,91,7,25.0,100.72,Mainly Clear
6006,2012-09-07 06:00:00,89.10000000000001,17.5,14.6,83,11,48.3,100.77,Mainly Clear
6007,2012-09-07 07:00:00,91.08,18.6,14.4,77,15,48.3,100.81,Mostly Cloudy
6008,2012-09-07 08:00:00,93.42,19.9,13.9,68,9,48.3,100.79,Mostly Cloudy
6009,2012-09-07 09:00:00,95.76,21.2,14.4,65,19,48.3,100.8,Mostly Cloudy
6010,2012-09-07 10:00:00,97.56,22.2,15.8,67,19,48.3,100.82,Mostly Cloudy
6011,2012-09-07 11:00:00,98.28,22.6,15.4,64,19,48.3,100.84,Mostly Cloudy
6012,2012-09-07 12:00:00,99.53999999999999,23.3,14.0,56,17,48.3,100.82,Cloudy
6013,2012-09-07 13:00:00,101.88000000000001,24.6,12.7,47,17,48.3,100.8,Mostly Cloudy
6014,2012-09-07 14:00:00,103.68,25.6,12.5,44,9,48.3,100.76,Mostly Cloudy
6015,2012-09-07 15:00:00,102.78,25.1,10.5,40,13,48.3,100.72,Mostly Cloudy
6016,2012-09-07 16:00:00,102.60000000000001,25.0,9.9,38,6,48.3,100.7,Mostly Cloudy
6017,2012-09-07 17:00:00,101.88000000000001,24.6,10.2,40,0,48.3,100.64,Cloudy
6018,2012-09-07 18:00:00,99.9,23.5,11.8,48,0,24.1,100.6,Cloudy
6019,2012-09-07 19:00:00,96.66000000000001,21.7,12.0,54,6,25.0,100.61,Mostly Cloudy
6020,2012-09-07 20:00:00,99.36000000000001,23.2,11.9,49,4,25.0,100.58,Mostly Cloudy
6021,2012-09-07 21:00:00,98.82,22.9,13.4,55,6,25.0,100.5,Cloudy
6022,2012-09-07 22:00:00,96.48,21.6,14.8,65,9,25.0,100.45,Cloudy
6023,2012-09-07 23:00:00,96.12,21.4,15.3,68,17,24.1,100.29,Cloudy
6024,2012-09-08 00:00:00,95.58,21.1,16.1,73,13,25.0,100.21,Cloudy
6025,2012-09-08 01:00:00,94.5,20.5,16.6,78,6,25.0,100.21,Cloudy
6026,2012-09-08 02:00:00,95.58,21.1,16.0,73,7,25.0,100.12,Cloudy
6027,2012-09-08 03:00:00,95.58,21.1,16.2,74,9,25.0,99.98,Cloudy
6028,2012-09-08 04:00:00,97.02,21.9,15.8,68,17,25.0,99.85,"Thunderstorms,Rain Showers"
6029,2012-09-08 05:00:00,91.08,18.6,16.7,89,11,25.0,99.93,Cloudy
6030,2012-09-08 06:00:00,91.26,18.7,16.6,88,17,24.1,99.82,Cloudy
6031,2012-09-08 07:00:00,95.4,21.0,17.8,82,20,19.3,99.77,Cloudy
6032,2012-09-08 08:00:00,95.22,20.9,17.7,82,9,19.3,99.66,Cloudy
6033,2012-09-08 09:00:00,99.36000000000001,23.2,19.0,77,13,19.3,99.54,Cloudy
6034,2012-09-08 10:00:00,104.22,25.9,19.5,68,28,19.3,99.35,Cloudy
6035,2012-09-08 11:00:00,105.3,26.5,18.9,63,35,19.3,99.27,Cloudy
6036,2012-09-08 12:00:00,104.58,26.1,17.9,61,39,19.3,99.21,Cloudy
6037,2012-09-08 13:00:00,103.5,25.5,17.4,61,24,24.1,99.08,Cloudy
6038,2012-09-08 14:00:00,104.4,26.0,18.4,63,33,24.1,98.94,Rain Showers
6039,2012-09-08 15:00:00,101.52,24.4,20.2,77,30,16.1,98.89,Rain Showers
6040,2012-09-08 16:00:00,94.32,20.4,18.2,87,39,24.1,99.09,Rain Showers
6041,2012-09-08 17:00:00,94.68,20.6,16.2,76,33,48.3,99.17,Cloudy
6042,2012-09-08 18:00:00,94.5,20.5,16.0,75,39,24.1,99.33,Cloudy
6043,2012-09-08 19:00:00,93.42,19.9,14.6,72,37,25.0,99.44,Mostly Cloudy
6044,2012-09-08 20:00:00,92.16000000000001,19.2,13.2,68,43,25.0,99.51,Mainly Clear
6045,2012-09-08 21:00:00,86.58,16.1,12.7,80,44,25.0,99.67,Mostly Cloudy
6046,2012-09-08 22:00:00,83.16000000000001,14.2,10.8,80,30,25.0,99.87,Mostly Cloudy
6047,2012-09-08 23:00:00,83.7,14.5,10.2,75,28,25.0,100.06,Cloudy
6048,2012-09-09 00:00:00,83.34,14.3,9.4,72,30,25.0,100.18,Cloudy
6049,2012-09-09 01:00:00,82.62,13.9,9.6,75,28,25.0,100.26,Cloudy
6050,2012-09-09 02:00:00,82.26,13.7,9.6,76,24,25.0,100.3,Mostly Cloudy
6051,2012-09-09 03:00:00,80.28,12.6,9.4,81,17,25.0,100.28,Mainly Clear
6052,2012-09-09 04:00:00,79.56,12.2,9.5,84,20,25.0,100.39,Mainly Clear
6053,2012-09-09 05:00:00,78.3,11.5,9.5,88,11,25.0,100.44,Clear
6054,2012-09-09 06:00:00,77.4,11.0,9.6,91,6,24.1,100.5,Mainly Clear
6055,2012-09-09 07:00:00,79.38000000000001,12.1,9.8,86,7,24.1,100.57,Mainly Clear
6056,2012-09-09 08:00:00,82.26,13.7,9.9,78,17,24.1,100.6,Mainly Clear
6057,2012-09-09 09:00:00,84.24,14.8,8.8,67,17,48.3,100.65,Mainly Clear
6058,2012-09-09 10:00:00,85.86000000000001,15.7,9.0,64,17,48.3,100.69,Mostly Cloudy
6059,2012-09-09 11:00:00,87.84,16.8,9.0,60,19,48.3,100.66,Mainly Clear
6060,2012-09-09 12:00:00,88.74,17.3,8.9,58,22,48.3,100.65,Mainly Clear
6061,2012-09-09 13:00:00,88.74,17.3,8.6,57,11,48.3,100.68,Mainly Clear
6062,2012-09-09 14:00:00,90.18,18.1,8.4,53,19,48.3,100.67,Mostly Cloudy
6063,2012-09-09 15:00:00,89.28,17.6,8.9,57,17,48.3,100.67,Mostly Cloudy
6064,2012-09-09 16:00:00,89.82,17.9,8.4,54,22,48.3,100.71,Mainly Clear
6065,2012-09-09 17:00:00,85.68,15.6,8.4,62,15,48.3,100.76,Mainly Clear
6066,2012-09-09 18:00:00,85.5,15.5,8.6,63,11,48.3,100.8,Mostly Cloudy
6067,2012-09-09 19:00:00,84.96000000000001,15.2,8.6,65,11,25.0,100.83,Mostly Cloudy
6068,2012-09-09 20:00:00,82.98,14.1,8.6,69,9,25.0,100.87,Mostly Cloudy
6069,2012-09-09 21:00:00,82.26,13.7,9.0,73,9,25.0,100.89,Mostly Cloudy
6070,2012-09-09 22:00:00,83.16000000000001,14.2,9.0,71,9,25.0,100.9,Mostly Cloudy
6071,2012-09-09 23:00:00,82.62,13.9,9.8,76,15,25.0,100.93,Cloudy
6072,2012-09-10 00:00:00,81.72,13.4,10.2,81,9,25.0,100.94,Mostly Cloudy
6073,2012-09-10 01:00:00,81.0,13.0,10.3,84,9,25.0,100.95,Mostly Cloudy
6074,2012-09-10 02:00:00,80.46000000000001,12.7,9.9,83,11,25.0,100.96,Mostly Cloudy
6075,2012-09-10 03:00:00,79.92,12.4,9.5,82,11,25.0,100.98,Mostly Cloudy
6076,2012-09-10 04:00:00,77.94,11.3,8.7,84,13,25.0,101.0,Mainly Clear
6077,2012-09-10 05:00:00,76.32,10.4,8.5,88,17,25.0,101.05,Mainly Clear
6078,2012-09-10 06:00:00,75.78,10.1,8.1,87,17,24.1,101.15,Mainly Clear
6079,2012-09-10 07:00:00,78.3,11.5,7.6,77,15,24.1,101.23,Mainly Clear
6080,2012-09-10 08:00:00,80.64,12.8,7.1,68,19,24.1,101.29,Mostly Cloudy
6081,2012-09-10 09:00:00,81.53999999999999,13.3,7.3,67,15,24.1,101.33,Mainly Clear
6082,2012-09-10 10:00:00,83.52,14.4,6.5,59,15,24.1,101.32,Mostly Cloudy
6083,2012-09-10 11:00:00,84.42,14.9,6.3,56,19,48.3,101.31,Mostly Cloudy
6084,2012-09-10 12:00:00,86.4,16.0,6.1,52,20,48.3,101.31,Mostly Cloudy
6085,2012-09-10 13:00:00,87.48,16.6,6.0,50,13,48.3,101.32,Mostly Cloudy
6086,2012-09-10 14:00:00,89.10000000000001,17.5,6.1,47,20,48.3,101.3,Mostly Cloudy
6087,2012-09-10 15:00:00,89.64,17.8,5.9,46,24,24.1,101.27,Mostly Cloudy
6088,2012-09-10 16:00:00,87.66000000000001,16.7,5.1,46,20,48.3,101.31,Mostly Cloudy
6089,2012-09-10 17:00:00,86.58,16.1,4.9,47,20,48.3,101.39,Mostly Cloudy
6090,2012-09-10 18:00:00,83.7,14.5,4.9,52,17,24.1,101.43,Mostly Cloudy
6091,2012-09-10 19:00:00,81.9,13.5,4.9,56,9,25.0,101.47,Mainly Clear
6092,2012-09-10 20:00:00,77.22,10.9,5.7,70,7,25.0,101.54,Clear
6093,2012-09-10 21:00:00,75.24,9.8,6.0,77,6,25.0,101.55,Clear
6094,2012-09-10 22:00:00,75.06,9.7,5.9,77,7,25.0,101.56,Clear
6095,2012-09-10 23:00:00,74.34,9.3,6.4,82,7,25.0,101.56,Clear
6096,2012-09-11 00:00:00,72.72,8.4,6.2,86,9,25.0,101.57,Clear
6097,2012-09-11 01:00:00,72.72,8.4,6.3,87,9,25.0,101.58,Clear
6098,2012-09-11 02:00:00,72.72,8.4,6.9,90,9,25.0,101.6,Clear
6099,2012-09-11 03:00:00,73.98,9.1,7.3,88,7,25.0,101.64,Clear
6100,2012-09-11 04:00:00,74.16000000000001,9.2,6.8,85,4,25.0,101.7,Clear
6101,2012-09-11 05:00:00,70.02,6.9,5.6,91,0,25.0,101.75,Clear
6102,2012-09-11 06:00:00,71.28,7.6,6.3,91,6,24.1,101.83,Mainly Clear
6103,2012-09-11 07:00:00,77.4,11.0,8.4,84,9,48.3,101.89,Mostly Cloudy
6104,2012-09-11 08:00:00,81.36000000000001,13.2,8.9,75,9,48.3,101.92,Mostly Cloudy
6105,2012-09-11 09:00:00,84.78,15.1,8.6,65,13,48.3,101.95,Mostly Cloudy
6106,2012-09-11 10:00:00,87.84,16.8,8.9,60,17,48.3,101.93,Mostly Cloudy
6107,2012-09-11 11:00:00,90.72,18.4,8.4,52,19,48.3,101.89,Mainly Clear
6108,2012-09-11 12:00:00,91.62,18.9,9.1,53,19,48.3,101.87,Mainly Clear
6109,2012-09-11 13:00:00,94.68,20.6,9.7,50,20,48.3,101.81,Mainly Clear
6110,2012-09-11 14:00:00,95.4,21.0,8.9,46,20,48.3,101.75,Mainly Clear
6111,2012-09-11 15:00:00,95.94,21.3,8.4,44,19,48.3,101.69,Mainly Clear
6112,2012-09-11 16:00:00,96.3,21.5,8.9,44,20,48.3,101.67,Mainly Clear
6113,2012-09-11 17:00:00,96.12,21.4,9.4,46,20,48.3,101.67,Mainly Clear
6114,2012-09-11 18:00:00,94.86000000000001,20.7,10.3,51,17,48.3,101.66,Mainly Clear
6115,2012-09-11 19:00:00,93.24,19.8,11.1,57,9,25.0,101.68,Mainly Clear
6116,2012-09-11 20:00:00,93.24,19.8,11.6,59,15,25.0,101.73,Mainly Clear
6117,2012-09-11 21:00:00,91.98,19.1,12.9,67,15,25.0,101.76,Clear
6118,2012-09-11 22:00:00,90.72,18.4,12.0,66,17,25.0,101.78,Clear
6119,2012-09-11 23:00:00,89.64,17.8,11.9,68,15,25.0,101.8,Clear
6120,2012-09-12 00:00:00,89.10000000000001,17.5,10.6,64,17,25.0,101.82,Clear
6121,2012-09-12 01:00:00,88.56,17.2,9.9,62,11,25.0,101.85,Clear
6122,2012-09-12 02:00:00,83.7,14.5,9.6,72,6,25.0,101.86,Clear
6123,2012-09-12 03:00:00,81.36000000000001,13.2,9.9,80,4,25.0,101.9,Clear
6124,2012-09-12 04:00:00,82.26,13.7,10.0,78,0,25.0,101.91,Clear
6125,2012-09-12 05:00:00,81.18,13.1,10.7,85,6,25.0,101.96,Clear
6126,2012-09-12 06:00:00,81.9,13.5,11.2,86,0,48.3,102.02,Clear
6127,2012-09-12 07:00:00,86.03999999999999,15.8,11.8,77,9,48.3,102.02,Clear
6128,2012-09-12 08:00:00,88.92,17.4,11.1,66,7,48.3,102.04,Clear
6129,2012-09-12 09:00:00,92.88000000000001,19.6,11.9,61,7,48.3,102.05,Clear
6130,2012-09-12 10:00:00,97.02,21.9,13.2,58,11,48.3,102.02,Mainly Clear
6131,2012-09-12 11:00:00,100.62,23.9,13.3,51,20,48.3,101.98,Clear
6132,2012-09-12 12:00:00,103.14,25.3,13.4,48,19,48.3,101.95,Mainly Clear
6133,2012-09-12 13:00:00,104.58,26.1,14.0,47,13,48.3,101.87,Mainly Clear
6134,2012-09-12 14:00:00,106.02,26.9,13.5,44,17,48.3,101.84,Mainly Clear
6135,2012-09-12 15:00:00,106.74,27.3,13.4,42,17,48.3,101.8,Mainly Clear
6136,2012-09-12 16:00:00,106.74,27.3,12.2,39,19,48.3,101.77,Mainly Clear
6137,2012-09-12 17:00:00,105.84,26.8,11.6,39,17,48.3,101.77,Mainly Clear
6138,2012-09-12 18:00:00,102.60000000000001,25.0,12.9,47,11,48.3,101.78,Mainly Clear
6139,2012-09-12 19:00:00,97.56,22.2,15.0,64,11,25.0,101.83,Mainly Clear
6140,2012-09-12 20:00:00,97.92,22.4,14.0,59,11,25.0,101.88,Mainly Clear
6141,2012-09-12 21:00:00,97.56,22.2,13.2,57,11,25.0,101.91,Clear
6142,2012-09-12 22:00:00,95.4,21.0,14.4,66,13,25.0,101.95,Mainly Clear
6143,2012-09-12 23:00:00,93.96000000000001,20.2,14.6,70,11,25.0,101.96,Mainly Clear
6144,2012-09-13 00:00:00,93.24,19.8,13.6,67,9,25.0,101.96,Mainly Clear
6145,2012-09-13 01:00:00,92.7,19.5,13.4,68,7,25.0,101.97,Mainly Clear
6146,2012-09-13 02:00:00,86.94,16.3,12.9,80,11,25.0,101.98,Mainly Clear
6147,2012-09-13 03:00:00,85.86000000000001,15.7,13.1,85,9,25.0,101.96,Clear
6148,2012-09-13 04:00:00,85.5,15.5,12.8,84,11,25.0,101.96,Clear
6149,2012-09-13 05:00:00,84.42,14.9,11.8,82,4,25.0,102.0,Clear
6150,2012-09-13 06:00:00,85.86000000000001,15.7,12.4,81,6,48.3,102.02,Mainly Clear
6151,2012-09-13 07:00:00,90.18,18.1,13.8,76,6,48.3,102.03,Mainly Clear
6152,2012-09-13 08:00:00,93.24,19.8,12.8,64,9,48.3,102.04,Mainly Clear
6153,2012-09-13 09:00:00,96.3,21.5,13.7,61,13,48.3,102.05,Mainly Clear
6154,2012-09-13 10:00:00,98.28,22.6,14.2,59,17,48.3,102.05,Mainly Clear
6155,2012-09-13 11:00:00,101.88000000000001,24.6,14.8,54,15,48.3,102.02,Mainly Clear
6156,2012-09-13 12:00:00,104.76,26.2,14.9,50,17,48.3,101.97,Mainly Clear
6157,2012-09-13 13:00:00,106.74,27.3,14.2,45,19,48.3,101.89,Mainly Clear
6158,2012-09-13 14:00:00,107.82,27.9,13.7,42,24,48.3,101.82,Mainly Clear
6159,2012-09-13 15:00:00,108.36000000000001,28.2,13.9,42,22,48.3,101.77,Mainly Clear
6160,2012-09-13 16:00:00,108.72,28.4,14.0,41,19,48.3,101.73,Mainly Clear
6161,2012-09-13 17:00:00,107.64,27.8,13.1,40,20,48.3,101.73,Mainly Clear
6162,2012-09-13 18:00:00,104.4,26.0,14.7,50,9,48.3,101.71,Mainly Clear
6163,2012-09-13 19:00:00,101.16000000000001,24.2,15.8,59,11,25.0,101.72,Mainly Clear
6164,2012-09-13 20:00:00,99.36000000000001,23.2,15.7,63,11,25.0,101.74,Clear
6165,2012-09-13 21:00:00,97.74,22.3,16.0,68,13,25.0,101.71,Mainly Clear
6166,2012-09-13 22:00:00,96.84,21.8,15.2,66,15,25.0,101.7,Mainly Clear
6167,2012-09-13 23:00:00,94.86000000000001,20.7,15.3,71,13,25.0,101.72,Clear
6168,2012-09-14 00:00:00,92.7,19.5,15.5,78,9,25.0,101.72,Clear
6169,2012-09-14 01:00:00,87.48,16.6,14.9,90,0,25.0,101.71,Clear
6170,2012-09-14 02:00:00,90.36000000000001,18.2,14.8,81,4,25.0,101.69,Clear
6171,2012-09-14 03:00:00,87.12,16.4,14.2,87,6,25.0,101.67,Clear
6172,2012-09-14 04:00:00,86.22,15.9,13.7,87,9,25.0,101.66,Clear
6173,2012-09-14 05:00:00,87.12,16.4,14.1,86,4,25.0,101.65,Mostly Cloudy
6174,2012-09-14 06:00:00,87.48,16.6,14.5,87,6,24.1,101.65,Cloudy
6175,2012-09-14 07:00:00,89.82,17.9,15.1,84,9,24.1,101.64,Cloudy
6176,2012-09-14 08:00:00,92.7,19.5,15.1,76,9,24.1,101.63,Mostly Cloudy
6177,2012-09-14 09:00:00,97.56,22.2,15.5,66,9,24.1,101.61,Cloudy
6178,2012-09-14 10:00:00,98.28,22.6,15.4,64,13,24.1,101.56,Mostly Cloudy
6179,2012-09-14 11:00:00,101.16000000000001,24.2,16.2,61,13,24.1,101.51,Cloudy
6180,2012-09-14 12:00:00,103.86000000000001,25.7,16.5,57,9,48.3,101.44,Cloudy
6181,2012-09-14 13:00:00,105.3,26.5,16.8,55,9,48.3,101.34,Cloudy
6182,2012-09-14 14:00:00,106.74,27.3,16.4,51,9,48.3,101.27,Mostly Cloudy
6183,2012-09-14 15:00:00,104.94,26.3,16.4,54,9,24.1,101.2,Cloudy
6184,2012-09-14 16:00:00,103.5,25.5,17.8,62,4,24.1,101.13,Cloudy
6185,2012-09-14 17:00:00,103.32,25.4,17.2,60,7,24.1,101.04,Cloudy
6186,2012-09-14 18:00:00,101.7,24.5,17.6,65,6,24.1,100.96,Rain Showers
6187,2012-09-14 19:00:00,95.4,21.0,18.9,88,17,25.0,100.94,Cloudy
6188,2012-09-14 20:00:00,87.3,16.5,15.8,96,22,16.1,101.06,"Thunderstorms,Rain Showers"
6189,2012-09-14 21:00:00,85.14,15.3,14.3,94,13,11.3,101.31,Rain Showers
6190,2012-09-14 22:00:00,85.5,15.5,14.2,92,0,19.3,101.21,Rain Showers
6191,2012-09-14 23:00:00,86.22,15.9,15.4,97,13,16.1,101.13,Rain Showers
6192,2012-09-15 00:00:00,86.94,16.3,14.8,91,20,19.3,101.17,Cloudy
6193,2012-09-15 01:00:00,85.68,15.6,14.2,91,22,25.0,101.14,Cloudy
6194,2012-09-15 02:00:00,84.60000000000001,15.0,13.6,91,24,25.0,101.09,Cloudy
6195,2012-09-15 03:00:00,84.06,14.7,12.9,89,30,25.0,101.08,Cloudy
6196,2012-09-15 04:00:00,83.16000000000001,14.2,12.2,88,30,25.0,101.12,Mostly Cloudy
6197,2012-09-15 05:00:00,82.26,13.7,12.7,94,28,9.7,101.14,"Drizzle,Fog"
6198,2012-09-15 06:00:00,81.72,13.4,11.1,86,22,24.1,101.25,Mostly Cloudy
6199,2012-09-15 07:00:00,82.44,13.8,10.5,80,20,24.1,101.36,Mostly Cloudy
6200,2012-09-15 08:00:00,83.88000000000001,14.6,10.5,76,19,24.1,101.44,Mainly Clear
6201,2012-09-15 09:00:00,84.42,14.9,9.7,71,19,24.1,101.5,Mostly Cloudy
6202,2012-09-15 10:00:00,86.4,16.0,9.6,66,22,24.1,101.51,Mostly Cloudy
6203,2012-09-15 11:00:00,86.58,16.1,7.8,58,22,48.3,101.49,Mostly Cloudy
6204,2012-09-15 12:00:00,87.48,16.6,7.3,54,17,48.3,101.49,Mostly Cloudy
6205,2012-09-15 13:00:00,87.48,16.6,7.9,56,20,48.3,101.44,Mostly Cloudy
6206,2012-09-15 14:00:00,86.76,16.2,7.5,56,22,24.1,101.39,Rain Showers
6207,2012-09-15 15:00:00,83.16000000000001,14.2,11.4,83,13,24.1,101.41,Mostly Cloudy
6208,2012-09-15 16:00:00,87.48,16.6,9.2,62,17,24.1,101.36,Mainly Clear
6209,2012-09-15 17:00:00,83.16000000000001,14.2,8.7,69,22,24.1,101.39,Rain Showers
6210,2012-09-15 18:00:00,81.53999999999999,13.3,8.6,73,7,24.1,101.4,Mostly Cloudy
6211,2012-09-15 19:00:00,80.46000000000001,12.7,7.1,69,13,25.0,101.42,Mainly Clear
6212,2012-09-15 20:00:00,78.48,11.6,6.3,70,11,25.0,101.46,Mainly Clear
6213,2012-09-15 21:00:00,75.42,9.9,6.1,77,13,25.0,101.48,Mainly Clear
6214,2012-09-15 22:00:00,72.9,8.5,5.7,83,7,25.0,101.51,Clear
6215,2012-09-15 23:00:00,71.82,7.9,5.6,85,9,25.0,101.5,Clear
6216,2012-09-16 00:00:00,69.48,6.6,5.0,90,7,25.0,101.52,Clear
6217,2012-09-16 01:00:00,68.58,6.1,5.2,94,9,25.0,101.49,Clear
6218,2012-09-16 02:00:00,69.3,6.5,5.6,94,6,25.0,101.46,Clear
6219,2012-09-16 03:00:00,69.66000000000001,6.7,5.6,93,7,25.0,101.44,Clear
6220,2012-09-16 04:00:00,70.74,7.3,6.2,93,9,25.0,101.43,Clear
6221,2012-09-16 05:00:00,66.42,4.9,4.6,98,9,25.0,101.45,Clear
6222,2012-09-16 06:00:00,68.03999999999999,5.8,4.9,94,9,48.3,101.53,Clear
6223,2012-09-16 07:00:00,73.26,8.7,6.5,86,9,48.3,101.55,Clear
6224,2012-09-16 08:00:00,78.66000000000001,11.7,4.5,61,9,48.3,101.58,Clear
6225,2012-09-16 09:00:00,81.18,13.1,3.0,50,19,48.3,101.57,Mainly Clear
6226,2012-09-16 10:00:00,82.8,14.0,4.3,52,20,48.3,101.53,Mainly Clear
6227,2012-09-16 11:00:00,84.42,14.9,3.9,48,20,48.3,101.49,Mainly Clear
6228,2012-09-16 12:00:00,85.14,15.3,3.2,44,19,48.3,101.44,Mainly Clear
6229,2012-09-16 13:00:00,85.86000000000001,15.7,2.9,42,24,48.3,101.35,Mainly Clear
6230,2012-09-16 14:00:00,87.48,16.6,3.8,42,24,48.3,101.3,Mainly Clear
6231,2012-09-16 15:00:00,87.66000000000001,16.7,3.6,42,19,48.3,101.25,Clear
6232,2012-09-16 16:00:00,87.48,16.6,3.0,40,15,48.3,101.2,Clear
6233,2012-09-16 17:00:00,87.48,16.6,3.6,42,20,48.3,101.17,Clear
6234,2012-09-16 18:00:00,85.5,15.5,3.2,44,11,48.3,101.16,Clear
6235,2012-09-16 19:00:00,83.16000000000001,14.2,3.9,50,6,25.0,101.18,Mainly Clear
6236,2012-09-16 20:00:00,80.10000000000001,12.5,4.6,59,6,25.0,101.18,Clear
6237,2012-09-16 21:00:00,80.64,12.8,5.4,61,6,25.0,101.18,Clear
6238,2012-09-16 22:00:00,81.18,13.1,5.4,60,6,25.0,101.2,Clear
6239,2012-09-16 23:00:00,79.38000000000001,12.1,5.6,64,6,25.0,101.21,Clear
6240,2012-09-17 00:00:00,78.3,11.5,8.6,82,4,25.0,101.2,Clear
6241,2012-09-17 01:00:00,75.78,10.1,8.4,89,4,25.0,101.21,Clear
6242,2012-09-17 02:00:00,75.78,10.1,7.8,86,6,25.0,101.18,Clear
6243,2012-09-17 03:00:00,75.78,10.1,8.4,89,7,25.0,101.16,Mostly Cloudy
6244,2012-09-17 04:00:00,77.58,11.1,8.3,83,7,25.0,101.12,Cloudy
6245,2012-09-17 05:00:00,79.38000000000001,12.1,7.9,75,7,25.0,101.12,Cloudy
6246,2012-09-17 06:00:00,80.10000000000001,12.5,9.0,79,4,48.3,101.13,Cloudy
6247,2012-09-17 07:00:00,82.26,13.7,9.7,77,7,24.1,101.13,Cloudy
6248,2012-09-17 08:00:00,84.06,14.7,10.8,77,9,24.1,101.13,Cloudy
6249,2012-09-17 09:00:00,87.84,16.8,13.1,79,13,24.1,101.13,Mainly Clear
6250,2012-09-17 10:00:00,90.36000000000001,18.2,13.6,75,17,24.1,101.11,Mainly Clear
6251,2012-09-17 11:00:00,93.42,19.9,14.9,73,15,24.1,101.09,Mainly Clear
6252,2012-09-17 12:00:00,96.84,21.8,14.2,62,17,24.1,101.06,Mainly Clear
6253,2012-09-17 13:00:00,99.9,23.5,14.1,56,17,24.1,101.01,Mainly Clear
6254,2012-09-17 14:00:00,101.88000000000001,24.6,12.6,47,15,24.1,100.95,Clear
6255,2012-09-17 15:00:00,102.96000000000001,25.2,10.8,40,15,24.1,100.9,Clear
6256,2012-09-17 16:00:00,102.60000000000001,25.0,12.5,46,13,24.1,100.87,Mainly Clear
6257,2012-09-17 17:00:00,101.52,24.4,12.2,46,13,24.1,100.87,Clear
6258,2012-09-17 18:00:00,97.38000000000001,22.1,14.8,63,15,24.1,100.88,Mainly Clear
6259,2012-09-17 19:00:00,94.68,20.6,15.1,71,15,25.0,100.9,Mainly Clear
6260,2012-09-17 20:00:00,93.60000000000001,20.0,15.4,75,13,25.0,100.88,Mainly Clear
6261,2012-09-17 21:00:00,92.34,19.3,15.3,78,0,25.0,100.88,Mainly Clear
6262,2012-09-17 22:00:00,91.44,18.8,15.1,79,6,25.0,100.83,Mainly Clear
6263,2012-09-17 23:00:00,88.2,17.0,15.0,88,7,25.0,100.84,Mainly Clear
6264,2012-09-18 00:00:00,86.76,16.2,14.2,88,6,25.0,100.84,Mainly Clear
6265,2012-09-18 01:00:00,88.02,16.9,12.5,75,0,25.0,100.81,Mainly Clear
6266,2012-09-18 02:00:00,87.48,16.6,12.1,75,9,25.0,100.75,Clear
6267,2012-09-18 03:00:00,86.58,16.1,13.0,82,19,25.0,100.67,Mostly Cloudy
6268,2012-09-18 04:00:00,86.76,16.2,12.9,81,17,25.0,100.59,Mostly Cloudy
6269,2012-09-18 05:00:00,86.58,16.1,12.8,81,24,25.0,100.52,Mostly Cloudy
6270,2012-09-18 06:00:00,87.12,16.4,12.9,80,22,24.1,100.49,Mainly Clear
6271,2012-09-18 07:00:00,88.02,16.9,13.1,78,20,24.1,100.44,Mostly Cloudy
6272,2012-09-18 08:00:00,90.9,18.5,13.4,72,26,24.1,100.4,Cloudy
6273,2012-09-18 09:00:00,91.26,18.7,13.8,73,19,24.1,100.31,Cloudy
6274,2012-09-18 10:00:00,88.02,16.9,16.0,94,19,9.7,100.26,Rain
6275,2012-09-18 11:00:00,88.74,17.3,16.4,94,20,9.7,100.13,Rain
6276,2012-09-18 12:00:00,87.48,16.6,16.3,98,20,6.4,99.92,Rain
6277,2012-09-18 13:00:00,88.38000000000001,17.1,16.4,96,35,9.7,99.66,Rain
6278,2012-09-18 14:00:00,88.74,17.3,16.6,96,32,24.1,99.49,Rain
6279,2012-09-18 15:00:00,90.18,18.1,17.0,93,32,24.1,99.28,Rain
6280,2012-09-18 16:00:00,92.52,19.4,17.4,88,33,24.1,99.14,Rain
6281,2012-09-18 17:00:00,94.32,20.4,17.9,86,35,24.1,99.01,Rain
6282,2012-09-18 18:00:00,93.60000000000001,20.0,18.9,93,28,6.4,99.19,Rain
6283,2012-09-18 19:00:00,92.52,19.4,18.5,95,22,25.0,99.28,Rain
6284,2012-09-18 20:00:00,92.16000000000001,19.2,17.9,92,24,25.0,99.33,Rain
6285,2012-09-18 21:00:00,91.98,19.1,17.6,91,20,25.0,99.39,Cloudy
6286,2012-09-18 22:00:00,91.44,18.8,17.6,93,30,9.7,99.44,Rain
6287,2012-09-18 23:00:00,89.46000000000001,17.7,16.1,90,33,12.9,99.52,Rain
6288,2012-09-19 00:00:00,80.64,12.8,11.2,90,37,25.0,99.78,Cloudy
6289,2012-09-19 01:00:00,77.4,11.0,9.1,88,28,25.0,99.95,Mostly Cloudy
6290,2012-09-19 02:00:00,75.06,9.7,7.6,87,35,25.0,100.1,Cloudy
6291,2012-09-19 03:00:00,73.26,8.7,6.1,84,35,25.0,100.31,Cloudy
6292,2012-09-19 04:00:00,72.53999999999999,8.3,4.9,79,28,25.0,100.49,Cloudy
6293,2012-09-19 05:00:00,72.36000000000001,8.2,4.8,79,30,25.0,100.63,Mostly Cloudy
6294,2012-09-19 06:00:00,72.0,8.0,4.2,77,26,24.1,100.79,Cloudy
6295,2012-09-19 07:00:00,72.36000000000001,8.2,4.1,75,33,24.1,100.92,Mostly Cloudy
6296,2012-09-19 08:00:00,73.08,8.6,4.1,73,26,24.1,101.04,Mostly Cloudy
6297,2012-09-19 09:00:00,74.16000000000001,9.2,4.1,70,32,24.1,101.13,Mostly Cloudy
6298,2012-09-19 10:00:00,77.4,11.0,3.6,60,32,48.3,101.19,Mostly Cloudy
6299,2012-09-19 11:00:00,79.2,12.0,3.9,58,24,48.3,101.29,Mostly Cloudy
6300,2012-09-19 12:00:00,81.36000000000001,13.2,4.0,54,22,48.3,101.37,Mostly Cloudy
6301,2012-09-19 13:00:00,82.08,13.6,2.7,48,24,48.3,101.41,Mostly Cloudy
6302,2012-09-19 14:00:00,83.7,14.5,3.0,46,24,48.3,101.45,Mainly Clear
6303,2012-09-19 15:00:00,83.34,14.3,0.9,40,15,48.3,101.49,Mainly Clear
6304,2012-09-19 16:00:00,83.16000000000001,14.2,2.2,44,19,48.3,101.6,Mainly Clear
6305,2012-09-19 17:00:00,80.46000000000001,12.7,2.3,49,11,48.3,101.66,Mainly Clear
6306,2012-09-19 18:00:00,76.68,10.6,2.1,56,11,48.3,101.68,Clear
6307,2012-09-19 19:00:00,75.60000000000001,10.0,2.5,60,4,25.0,101.75,Clear
6308,2012-09-19 20:00:00,73.44,8.8,3.2,68,4,25.0,101.81,Clear
6309,2012-09-19 21:00:00,74.7,9.5,2.7,62,0,25.0,101.83,Clear
6310,2012-09-19 22:00:00,72.9,8.5,2.7,67,0,25.0,101.85,Clear
6311,2012-09-19 23:00:00,75.24,9.8,3.1,63,4,25.0,101.88,Clear
6312,2012-09-20 00:00:00,70.56,7.2,4.5,83,7,25.0,101.88,Clear
6313,2012-09-20 01:00:00,72.72,8.4,4.0,74,6,25.0,101.92,Clear
6314,2012-09-20 02:00:00,73.8,9.0,4.0,71,7,25.0,101.89,Clear
6315,2012-09-20 03:00:00,72.0,8.0,4.8,80,4,25.0,101.91,Clear
6316,2012-09-20 04:00:00,72.53999999999999,8.3,5.7,84,9,25.0,101.91,Clear
6317,2012-09-20 05:00:00,71.46000000000001,7.7,6.5,92,6,25.0,101.95,Clear
6318,2012-09-20 06:00:00,71.46000000000001,7.7,6.5,92,6,48.3,101.97,Clear
6319,2012-09-20 07:00:00,74.88000000000001,9.6,6.9,83,9,48.3,101.95,Clear
6320,2012-09-20 08:00:00,78.66000000000001,11.7,7.6,76,7,48.3,101.94,Clear
6321,2012-09-20 09:00:00,80.64,12.8,7.6,71,15,48.3,101.85,Clear
6322,2012-09-20 10:00:00,84.96000000000001,15.2,7.4,60,20,48.3,101.76,Clear
6323,2012-09-20 11:00:00,86.76,16.2,6.9,54,19,48.3,101.65,Clear
6324,2012-09-20 12:00:00,89.28,17.6,7.3,51,15,48.3,101.56,Clear
6325,2012-09-20 13:00:00,90.53999999999999,18.3,6.7,47,22,48.3,101.48,Mainly Clear
6326,2012-09-20 14:00:00,92.34,19.3,6.9,44,15,48.3,101.43,Mainly Clear
6327,2012-09-20 15:00:00,91.98,19.1,7.5,47,20,48.3,101.39,Clear
6328,2012-09-20 16:00:00,91.26,18.7,7.7,49,24,48.3,101.31,Clear
6329,2012-09-20 17:00:00,90.0,18.0,7.9,52,26,48.3,101.31,Clear
6330,2012-09-20 18:00:00,87.48,16.6,7.9,56,19,48.3,101.26,Clear
6331,2012-09-20 19:00:00,86.76,16.2,7.9,58,24,25.0,101.27,Clear
6332,2012-09-20 20:00:00,85.68,15.6,7.9,60,20,25.0,101.24,Mainly Clear
6333,2012-09-20 21:00:00,85.32,15.4,7.9,61,20,25.0,101.25,Clear
6334,2012-09-20 22:00:00,81.72,13.4,8.5,72,15,25.0,101.25,Clear
6335,2012-09-20 23:00:00,82.8,14.0,8.9,71,19,25.0,101.24,Mainly Clear
6336,2012-09-21 00:00:00,82.26,13.7,9.6,76,19,25.0,101.23,Mainly Clear
6337,2012-09-21 01:00:00,81.18,13.1,9.9,81,20,25.0,101.23,Mainly Clear
6338,2012-09-21 02:00:00,81.9,13.5,10.5,82,19,25.0,101.18,Mostly Cloudy
6339,2012-09-21 03:00:00,82.62,13.9,11.0,83,15,25.0,101.14,Mostly Cloudy
6340,2012-09-21 04:00:00,83.34,14.3,11.4,83,19,25.0,101.14,Cloudy
6341,2012-09-21 05:00:00,83.52,14.4,11.2,81,19,25.0,101.17,Mostly Cloudy
6342,2012-09-21 06:00:00,83.52,14.4,11.4,82,19,48.3,101.19,Mostly Cloudy
6343,2012-09-21 07:00:00,83.88000000000001,14.6,11.4,81,17,48.3,101.18,Cloudy
6344,2012-09-21 08:00:00,84.96000000000001,15.2,11.8,80,15,48.3,101.23,Cloudy
6345,2012-09-21 09:00:00,86.4,16.0,12.4,79,15,48.3,101.21,Cloudy
6346,2012-09-21 10:00:00,87.66000000000001,16.7,12.9,78,13,48.3,101.17,Cloudy
6347,2012-09-21 11:00:00,88.38000000000001,17.1,12.8,76,15,48.3,101.13,Cloudy
6348,2012-09-21 12:00:00,89.64,17.8,13.3,75,17,48.3,101.08,Cloudy
6349,2012-09-21 13:00:00,90.36000000000001,18.2,13.6,75,15,48.3,101.0,Cloudy
6350,2012-09-21 14:00:00,92.16000000000001,19.2,13.9,71,17,48.3,100.95,Cloudy
6351,2012-09-21 15:00:00,92.34,19.3,13.9,71,13,24.1,100.93,Mostly Cloudy
6352,2012-09-21 16:00:00,91.8,19.0,14.1,73,6,24.1,100.89,Cloudy
6353,2012-09-21 17:00:00,88.74,17.3,15.5,89,4,24.1,100.88,Cloudy
6354,2012-09-21 18:00:00,86.22,15.9,15.2,96,19,19.3,100.95,Cloudy
6355,2012-09-21 19:00:00,84.96000000000001,15.2,15.1,99,7,25.0,101.01,Rain
6356,2012-09-21 20:00:00,85.86000000000001,15.7,15.2,97,4,25.0,101.01,Cloudy
6357,2012-09-21 21:00:00,85.32,15.4,15.3,99,0,9.7,101.04,"Rain,Fog"
6358,2012-09-21 22:00:00,85.86000000000001,15.7,15.4,98,13,8.0,100.99,"Rain,Fog"
6359,2012-09-21 23:00:00,85.86000000000001,15.7,15.6,99,13,6.4,100.93,Fog
6360,2012-09-22 00:00:00,85.86000000000001,15.7,15.4,98,7,8.0,100.87,Fog
6361,2012-09-22 01:00:00,86.22,15.9,15.4,97,7,11.3,100.85,Cloudy
6362,2012-09-22 02:00:00,86.22,15.9,14.7,93,11,19.3,100.76,Cloudy
6363,2012-09-22 03:00:00,86.03999999999999,15.8,14.4,91,24,19.3,100.68,Rain Showers
6364,2012-09-22 04:00:00,85.32,15.4,14.1,92,20,19.3,100.5,Rain Showers
6365,2012-09-22 05:00:00,85.32,15.4,13.3,87,24,25.0,100.46,Cloudy
6366,2012-09-22 06:00:00,85.68,15.6,12.8,83,26,24.1,100.43,Mostly Cloudy
6367,2012-09-22 07:00:00,86.76,16.2,12.8,80,33,24.1,100.36,Mostly Cloudy
6368,2012-09-22 08:00:00,87.12,16.4,13.1,81,32,48.3,100.25,Mostly Cloudy
6369,2012-09-22 09:00:00,88.74,17.3,13.1,76,39,24.1,100.19,Cloudy
6370,2012-09-22 10:00:00,90.9,18.5,13.8,74,33,24.1,100.14,Mostly Cloudy
6371,2012-09-22 11:00:00,90.72,18.4,14.1,76,32,24.1,100.09,Cloudy
6372,2012-09-22 12:00:00,88.02,16.9,15.6,92,22,16.1,100.23,Rain Showers
6373,2012-09-22 13:00:00,87.48,16.6,15.6,94,15,19.3,100.22,Rain Showers
6374,2012-09-22 14:00:00,86.94,16.3,15.7,96,22,6.4,100.29,"Rain,Fog"
6375,2012-09-22 15:00:00,86.58,16.1,15.0,93,9,24.1,100.32,Rain
6376,2012-09-22 16:00:00,87.84,16.8,15.2,90,15,24.1,100.28,Mostly Cloudy
6377,2012-09-22 17:00:00,87.12,16.4,14.9,91,13,24.1,100.32,Mostly Cloudy
6378,2012-09-22 18:00:00,86.58,16.1,15.6,97,13,25.0,100.33,Rain Showers
6379,2012-09-22 19:00:00,86.4,16.0,15.3,96,9,25.0,100.36,Rain Showers
6380,2012-09-22 20:00:00,86.94,16.3,14.0,86,20,25.0,100.39,Cloudy
6381,2012-09-22 21:00:00,85.86000000000001,15.7,13.4,86,26,25.0,100.37,Cloudy
6382,2012-09-22 22:00:00,85.32,15.4,12.7,84,22,25.0,100.41,Cloudy
6383,2012-09-22 23:00:00,84.78,15.1,12.0,82,22,25.0,100.42,Cloudy
6384,2012-09-23 00:00:00,83.16000000000001,14.2,10.4,78,26,25.0,100.41,Mostly Cloudy
6385,2012-09-23 01:00:00,80.64,12.8,9.6,81,17,25.0,100.46,Mostly Cloudy
6386,2012-09-23 02:00:00,79.56,12.2,8.3,77,26,25.0,100.56,Mostly Cloudy
6387,2012-09-23 03:00:00,78.48,11.6,8.0,79,24,25.0,100.58,Cloudy
6388,2012-09-23 04:00:00,77.4,11.0,7.4,78,24,25.0,100.63,Mostly Cloudy
6389,2012-09-23 05:00:00,75.96000000000001,10.2,7.3,82,20,25.0,100.7,Mainly Clear
6390,2012-09-23 06:00:00,75.42,9.9,7.4,84,19,24.1,100.77,Mainly Clear
6391,2012-09-23 07:00:00,76.68,10.6,7.8,83,20,24.1,100.82,Mainly Clear
6392,2012-09-23 08:00:00,77.94,11.3,7.6,78,28,48.3,100.89,Mainly Clear
6393,2012-09-23 09:00:00,79.2,12.0,6.8,70,24,48.3,100.9,Mainly Clear
6394,2012-09-23 10:00:00,81.36000000000001,13.2,5.6,60,33,48.3,100.97,Mainly Clear
6395,2012-09-23 11:00:00,81.9,13.5,4.0,53,28,48.3,101.0,Mainly Clear
6396,2012-09-23 12:00:00,85.68,15.6,4.5,48,26,48.3,101.0,Mainly Clear
6397,2012-09-23 13:00:00,83.88000000000001,14.6,4.2,50,30,48.3,101.01,Mainly Clear
6398,2012-09-23 14:00:00,86.4,16.0,4.1,45,28,48.3,101.02,Mainly Clear
6399,2012-09-23 15:00:00,84.78,15.1,4.6,49,24,48.3,101.04,Mainly Clear
6400,2012-09-23 16:00:00,84.78,15.1,5.7,53,15,48.3,101.07,Mainly Clear
6401,2012-09-23 17:00:00,83.34,14.3,3.4,48,20,48.3,101.11,Mainly Clear
6402,2012-09-23 18:00:00,77.22,10.9,4.3,64,9,25.0,101.17,Mainly Clear
6403,2012-09-23 19:00:00,75.24,9.8,5.3,74,4,25.0,101.23,Mainly Clear
6404,2012-09-23 20:00:00,78.12,11.4,4.7,63,9,25.0,101.31,Mainly Clear
6405,2012-09-23 21:00:00,73.26,8.7,5.2,79,7,25.0,101.38,Mainly Clear
6406,2012-09-23 22:00:00,70.56,7.2,4.9,85,7,25.0,101.41,Mainly Clear
6407,2012-09-23 23:00:00,74.16000000000001,9.2,5.2,76,7,25.0,101.43,Mostly Cloudy
6408,2012-09-24 00:00:00,71.46000000000001,7.7,5.1,84,0,25.0,101.42,Mainly Clear
6409,2012-09-24 01:00:00,67.86000000000001,5.7,4.3,91,6,25.0,101.41,Mainly Clear
6410,2012-09-24 02:00:00,70.02,6.9,5.1,88,0,25.0,101.37,Clear
6411,2012-09-24 03:00:00,67.86000000000001,5.7,4.7,93,0,25.0,101.38,Clear
6412,2012-09-24 04:00:00,70.56,7.2,5.0,86,4,25.0,101.42,Mainly Clear
6413,2012-09-24 05:00:00,72.0,8.0,7.8,99,0,25.0,101.44,Mostly Cloudy
6414,2012-09-24 06:00:00,70.02,6.9,6.8,99,9,48.3,101.47,Mostly Cloudy
6415,2012-09-24 07:00:00,71.82,7.9,7.5,97,6,48.3,101.48,Mostly Cloudy
6416,2012-09-24 08:00:00,75.42,9.9,7.5,85,13,48.3,101.51,Mainly Clear
6417,2012-09-24 09:00:00,77.4,11.0,7.9,81,13,48.3,101.49,Mainly Clear
6418,2012-09-24 10:00:00,80.64,12.8,7.5,70,22,48.3,101.46,Mainly Clear
6419,2012-09-24 11:00:00,83.16000000000001,14.2,5.5,56,28,48.3,101.44,Mainly Clear
6420,2012-09-24 12:00:00,84.60000000000001,15.0,5.7,54,20,48.3,101.37,Mainly Clear
6421,2012-09-24 13:00:00,86.03999999999999,15.8,3.2,43,28,48.3,101.28,Mainly Clear
6422,2012-09-24 14:00:00,87.48,16.6,3.7,42,32,48.3,101.23,Mainly Clear
6423,2012-09-24 15:00:00,86.94,16.3,3.6,43,24,48.3,101.13,Mainly Clear
6424,2012-09-24 16:00:00,87.12,16.4,4.5,45,26,48.3,101.09,Mainly Clear
6425,2012-09-24 17:00:00,85.14,15.3,5.2,51,28,48.3,101.06,Mainly Clear
6426,2012-09-24 18:00:00,83.52,14.4,5.8,56,22,25.0,101.03,Mainly Clear
6427,2012-09-24 19:00:00,82.44,13.8,5.6,58,33,25.0,101.05,Mainly Clear
6428,2012-09-24 20:00:00,79.38000000000001,12.1,6.3,68,15,25.0,101.06,Mainly Clear
6429,2012-09-24 21:00:00,78.66000000000001,11.7,6.2,69,17,25.0,101.06,Mostly Cloudy
6430,2012-09-24 22:00:00,80.28,12.6,5.6,62,17,25.0,101.08,Mostly Cloudy
6431,2012-09-24 23:00:00,79.38000000000001,12.1,5.6,64,20,25.0,101.04,Mainly Clear
6432,2012-09-25 00:00:00,79.02,11.9,6.0,67,17,25.0,101.02,Mostly Cloudy
6433,2012-09-25 01:00:00,79.38000000000001,12.1,6.4,68,19,25.0,100.92,Mostly Cloudy
6434,2012-09-25 02:00:00,78.66000000000001,11.7,5.3,65,20,25.0,100.88,Mostly Cloudy
6435,2012-09-25 03:00:00,77.76,11.2,5.5,68,20,25.0,100.85,Mostly Cloudy
6436,2012-09-25 04:00:00,78.48,11.6,5.3,65,24,25.0,100.85,Mostly Cloudy
6437,2012-09-25 05:00:00,77.94,11.3,6.0,70,17,25.0,100.85,Cloudy
6438,2012-09-25 06:00:00,79.92,12.4,6.1,65,19,48.3,100.89,Mostly Cloudy
6439,2012-09-25 07:00:00,81.0,13.0,6.9,66,28,48.3,100.89,Mainly Clear
6440,2012-09-25 08:00:00,82.98,14.1,7.2,63,24,48.3,100.92,Mainly Clear
6441,2012-09-25 09:00:00,86.94,16.3,8.6,60,32,48.3,100.93,Mainly Clear
6442,2012-09-25 10:00:00,88.92,17.4,9.0,58,35,48.3,100.92,Mainly Clear
6443,2012-09-25 11:00:00,90.0,18.0,9.2,56,28,48.3,100.94,Mainly Clear
6444,2012-09-25 12:00:00,90.18,18.1,9.6,58,30,48.3,100.99,Mostly Cloudy
6445,2012-09-25 13:00:00,91.62,18.9,9.9,56,33,48.3,100.99,Mostly Cloudy
6446,2012-09-25 14:00:00,91.8,19.0,10.4,57,32,48.3,100.97,Mostly Cloudy
6447,2012-09-25 15:00:00,91.8,19.0,10.2,57,28,48.3,100.98,Mostly Cloudy
6448,2012-09-25 16:00:00,92.16000000000001,19.2,9.5,53,19,48.3,100.98,Mostly Cloudy
6449,2012-09-25 17:00:00,91.44,18.8,10.5,59,9,48.3,100.98,Mainly Clear
6450,2012-09-25 18:00:00,89.64,17.8,10.9,64,13,24.1,100.99,Mainly Clear
6451,2012-09-25 19:00:00,87.48,16.6,10.5,67,11,25.0,101.02,Clear
6452,2012-09-25 20:00:00,85.86000000000001,15.7,10.6,72,7,25.0,101.03,Mainly Clear
6453,2012-09-25 21:00:00,83.34,14.3,10.5,78,13,25.0,101.06,Mostly Cloudy
6454,2012-09-25 22:00:00,81.18,13.1,9.5,79,7,25.0,101.05,Mainly Clear
6455,2012-09-25 23:00:00,82.8,14.0,9.2,73,17,25.0,101.03,Cloudy
6456,2012-09-26 00:00:00,83.16000000000001,14.2,9.9,75,15,25.0,101.02,Mostly Cloudy
6457,2012-09-26 01:00:00,82.8,14.0,9.7,75,17,25.0,100.96,Mostly Cloudy
6458,2012-09-26 02:00:00,82.98,14.1,9.3,73,17,25.0,100.89,Mostly Cloudy
6459,2012-09-26 03:00:00,84.06,14.7,8.7,67,17,25.0,100.87,Mostly Cloudy
6460,2012-09-26 04:00:00,83.88000000000001,14.6,9.0,69,17,25.0,100.88,Mostly Cloudy
6461,2012-09-26 05:00:00,84.78,15.1,9.2,68,17,25.0,100.84,Mostly Cloudy
6462,2012-09-26 06:00:00,84.60000000000001,15.0,9.1,68,17,24.1,100.86,Cloudy
6463,2012-09-26 07:00:00,84.42,14.9,10.4,74,19,24.1,100.87,Cloudy
6464,2012-09-26 08:00:00,84.42,14.9,11.0,77,19,24.1,100.89,Cloudy
6465,2012-09-26 09:00:00,85.32,15.4,12.0,80,20,24.1,100.88,Cloudy
6466,2012-09-26 10:00:00,87.66000000000001,16.7,12.6,77,19,24.1,100.89,Cloudy
6467,2012-09-26 11:00:00,90.18,18.1,13.5,74,20,24.1,100.84,Cloudy
6468,2012-09-26 12:00:00,90.18,18.1,13.9,76,15,24.1,100.82,Cloudy
6469,2012-09-26 13:00:00,91.44,18.8,14.6,77,20,24.1,100.8,Cloudy
6470,2012-09-26 14:00:00,93.60000000000001,20.0,14.8,72,24,24.1,100.73,Cloudy
6471,2012-09-26 15:00:00,89.28,17.6,15.6,88,11,24.1,100.75,Mostly Cloudy
6472,2012-09-26 16:00:00,91.44,18.8,15.2,80,7,24.1,100.74,Rain Showers
6473,2012-09-26 17:00:00,86.58,16.1,12.6,80,19,24.1,100.86,Mostly Cloudy
6474,2012-09-26 18:00:00,83.88000000000001,14.6,10.2,75,17,24.1,101.0,Mostly Cloudy
6475,2012-09-26 19:00:00,82.08,13.6,9.5,76,7,25.0,101.09,Mostly Cloudy
6476,2012-09-26 20:00:00,82.44,13.8,7.8,67,15,25.0,101.22,Cloudy
6477,2012-09-26 21:00:00,82.08,13.6,7.0,64,6,25.0,101.33,Cloudy
6478,2012-09-26 22:00:00,80.28,12.6,7.5,71,7,25.0,101.39,Mostly Cloudy
6479,2012-09-26 23:00:00,79.02,11.9,6.2,68,7,25.0,101.46,Mostly Cloudy
6480,2012-09-27 00:00:00,75.78,10.1,6.0,76,7,25.0,101.51,Mainly Clear
6481,2012-09-27 01:00:00,72.53999999999999,8.3,6.3,87,9,25.0,101.54,Mainly Clear
6482,2012-09-27 02:00:00,70.92,7.4,5.9,90,9,25.0,101.56,Mainly Clear
6483,2012-09-27 03:00:00,68.94,6.3,4.9,91,9,25.0,101.63,Clear
6484,2012-09-27 04:00:00,66.78,5.1,4.1,93,11,25.0,101.69,Clear
6485,2012-09-27 05:00:00,68.4,6.0,4.6,91,7,25.0,101.76,Clear
6486,2012-09-27 06:00:00,69.12,6.4,4.3,86,0,48.3,101.86,Clear
6487,2012-09-27 07:00:00,71.10000000000001,7.5,5.3,86,0,48.3,101.91,Clear
6488,2012-09-27 08:00:00,73.8,9.0,5.6,79,11,48.3,101.99,Clear
6489,2012-09-27 09:00:00,77.22,10.9,5.1,67,9,48.3,102.03,Mainly Clear
6490,2012-09-27 10:00:00,80.64,12.8,4.4,57,4,48.3,102.06,Mainly Clear
6491,2012-09-27 11:00:00,80.64,12.8,3.5,53,6,48.3,102.04,Mainly Clear
6492,2012-09-27 12:00:00,80.82,12.9,3.8,54,4,48.3,102.04,Mainly Clear
6493,2012-09-27 13:00:00,82.08,13.6,4.5,54,11,48.3,101.99,Mostly Cloudy
6494,2012-09-27 14:00:00,84.42,14.9,4.4,49,4,48.3,101.95,Mainly Clear
6495,2012-09-27 15:00:00,84.78,15.1,4.7,50,9,48.3,101.93,Mainly Clear
6496,2012-09-27 16:00:00,84.78,15.1,3.7,46,11,48.3,101.93,Mainly Clear
6497,2012-09-27 17:00:00,83.88000000000001,14.6,3.6,48,7,48.3,101.94,Mainly Clear
6498,2012-09-27 18:00:00,81.18,13.1,3.8,53,7,48.3,101.97,Mainly Clear
6499,2012-09-27 19:00:00,76.68,10.6,4.4,65,0,25.0,102.0,Clear
6500,2012-09-27 20:00:00,78.3,11.5,4.9,64,4,25.0,102.01,Mainly Clear
6501,2012-09-27 21:00:00,74.52,9.4,5.5,77,7,25.0,102.01,Clear
6502,2012-09-27 22:00:00,74.34,9.3,4.8,73,4,25.0,101.99,Clear
6503,2012-09-27 23:00:00,74.16000000000001,9.2,4.6,73,4,25.0,101.98,Clear
6504,2012-09-28 00:00:00,74.16000000000001,9.2,4.0,70,6,25.0,101.96,Clear
6505,2012-09-28 01:00:00,72.0,8.0,4.7,80,7,25.0,101.98,Mainly Clear
6506,2012-09-28 02:00:00,73.62,8.9,5.2,78,6,25.0,101.94,Mainly Clear
6507,2012-09-28 03:00:00,70.56,7.2,4.9,85,9,25.0,101.92,Clear
6508,2012-09-28 04:00:00,68.4,6.0,5.3,95,9,25.0,101.91,Clear
6509,2012-09-28 05:00:00,66.78,5.1,4.6,97,7,25.0,101.87,Mainly Clear
6510,2012-09-28 06:00:00,67.14,5.3,4.1,92,9,48.3,101.83,Mainly Clear
6511,2012-09-28 07:00:00,71.28,7.6,4.7,82,11,48.3,101.8,Mainly Clear
6512,2012-09-28 08:00:00,74.34,9.3,5.8,79,9,48.3,101.81,Mainly Clear
6513,2012-09-28 09:00:00,76.86000000000001,10.7,5.3,69,13,48.3,101.76,Mostly Cloudy
6514,2012-09-28 10:00:00,81.53999999999999,13.3,6.0,61,13,48.3,101.67,Mostly Cloudy
6515,2012-09-28 11:00:00,83.88000000000001,14.6,5.2,53,13,48.3,101.62,Mostly Cloudy
6516,2012-09-28 12:00:00,86.03999999999999,15.8,7.1,56,7,48.3,101.55,Mostly Cloudy
6517,2012-09-28 13:00:00,87.48,16.6,6.9,53,9,48.3,101.42,Mainly Clear
6518,2012-09-28 14:00:00,87.66000000000001,16.7,8.7,59,17,24.1,101.37,Mostly Cloudy
6519,2012-09-28 15:00:00,85.68,15.6,9.6,67,19,24.1,101.35,Mostly Cloudy
6520,2012-09-28 16:00:00,83.16000000000001,14.2,10.0,76,17,24.1,101.33,Mostly Cloudy
6521,2012-09-28 17:00:00,81.53999999999999,13.3,10.1,81,17,24.1,101.34,Mostly Cloudy
6522,2012-09-28 18:00:00,80.82,12.9,10.0,83,15,24.1,101.33,Mostly Cloudy
6523,2012-09-28 19:00:00,81.0,13.0,10.0,82,15,25.0,101.35,Mostly Cloudy
6524,2012-09-28 20:00:00,81.18,13.1,10.1,82,4,25.0,101.34,Mostly Cloudy
6525,2012-09-28 21:00:00,81.18,13.1,9.8,80,7,25.0,101.32,Mostly Cloudy
6526,2012-09-28 22:00:00,81.18,13.1,9.8,80,9,25.0,101.3,Mostly Cloudy
6527,2012-09-28 23:00:00,81.18,13.1,9.2,77,11,19.3,101.29,Cloudy
6528,2012-09-29 00:00:00,81.0,13.0,9.3,78,7,19.3,101.27,Cloudy
6529,2012-09-29 01:00:00,81.18,13.1,9.3,78,9,25.0,101.24,Cloudy
6530,2012-09-29 02:00:00,81.0,13.0,9.3,78,11,25.0,101.2,Cloudy
6531,2012-09-29 03:00:00,78.66000000000001,11.7,9.9,89,11,25.0,101.19,Cloudy
6532,2012-09-29 04:00:00,77.94,11.3,9.6,89,15,25.0,101.19,Cloudy
6533,2012-09-29 05:00:00,76.14,10.3,8.9,91,19,25.0,101.23,Cloudy
6534,2012-09-29 06:00:00,75.96000000000001,10.2,8.8,91,11,25.0,101.27,Cloudy
6535,2012-09-29 07:00:00,75.24,9.8,8.6,92,17,25.0,101.29,Cloudy
6536,2012-09-29 08:00:00,77.22,10.9,9.0,88,19,24.1,101.28,Cloudy
6537,2012-09-29 09:00:00,79.92,12.4,9.6,83,22,24.1,101.27,Mostly Cloudy
6538,2012-09-29 10:00:00,81.0,13.0,10.0,82,20,24.1,101.23,Cloudy
6539,2012-09-29 11:00:00,80.28,12.6,9.8,83,24,24.1,101.19,Cloudy
6540,2012-09-29 12:00:00,80.28,12.6,9.9,84,22,24.1,101.18,Drizzle
6541,2012-09-29 13:00:00,79.92,12.4,9.8,84,19,24.1,101.15,Drizzle
6542,2012-09-29 14:00:00,80.28,12.6,9.8,83,19,24.1,101.12,Cloudy
6543,2012-09-29 15:00:00,78.48,11.6,10.1,91,20,19.3,101.11,Drizzle
6544,2012-09-29 16:00:00,78.66000000000001,11.7,9.8,88,26,24.1,101.11,Cloudy
6545,2012-09-29 17:00:00,77.58,11.1,10.4,95,22,9.7,101.12,Drizzle
6546,2012-09-29 18:00:00,77.03999999999999,10.8,9.8,94,20,16.1,101.12,Drizzle
6547,2012-09-29 19:00:00,76.5,10.5,10.2,98,19,6.4,101.15,"Drizzle,Fog"
6548,2012-09-29 20:00:00,76.5,10.5,9.9,96,24,8.0,101.13,"Drizzle,Fog"
6549,2012-09-29 21:00:00,76.86000000000001,10.7,9.8,94,22,9.7,101.11,"Drizzle,Fog"
6550,2012-09-29 22:00:00,76.68,10.6,9.9,95,20,9.7,101.08,"Drizzle,Fog"
6551,2012-09-29 23:00:00,77.03999999999999,10.8,9.7,93,17,12.9,101.06,Drizzle
6552,2012-09-30 00:00:00,77.03999999999999,10.8,9.4,91,13,8.0,101.03,"Drizzle,Fog"
6553,2012-09-30 01:00:00,76.86000000000001,10.7,9.6,93,15,8.0,101.02,"Drizzle,Fog"
6554,2012-09-30 02:00:00,76.14,10.3,9.8,97,20,6.4,100.97,"Drizzle,Fog"
6555,2012-09-30 03:00:00,76.32,10.4,9.6,95,17,12.9,100.92,Drizzle
6556,2012-09-30 04:00:00,77.03999999999999,10.8,9.5,92,17,12.9,100.96,Cloudy
6557,2012-09-30 05:00:00,77.22,10.9,9.6,92,15,16.1,100.92,Cloudy
6558,2012-09-30 06:00:00,77.4,11.0,9.6,91,13,19.3,100.9,Cloudy
6559,2012-09-30 07:00:00,77.76,11.2,9.9,92,15,19.3,100.88,Cloudy
6560,2012-09-30 08:00:00,78.12,11.4,9.9,90,19,19.3,100.9,Cloudy
6561,2012-09-30 09:00:00,78.66000000000001,11.7,9.9,89,20,19.3,100.84,Cloudy
6562,2012-09-30 10:00:00,79.02,11.9,10.1,89,17,19.3,100.79,Cloudy
6563,2012-09-30 11:00:00,79.56,12.2,10.2,88,19,12.9,100.72,Cloudy
6564,2012-09-30 12:00:00,78.84,11.8,11.1,95,17,9.7,100.65,"Drizzle,Fog"
6565,2012-09-30 13:00:00,78.12,11.4,11.0,97,13,6.4,100.54,"Drizzle,Fog"
6566,2012-09-30 14:00:00,78.3,11.5,11.1,97,19,8.0,100.46,"Rain,Fog"
6567,2012-09-30 15:00:00,78.48,11.6,10.9,95,20,6.4,100.36,"Rain,Fog"
6568,2012-09-30 16:00:00,78.66000000000001,11.7,11.2,97,13,8.0,100.28,"Rain,Fog"
6569,2012-09-30 17:00:00,78.66000000000001,11.7,11.2,97,11,8.0,100.21,"Rain,Fog"
6570,2012-09-30 18:00:00,78.48,11.6,11.5,99,4,9.7,100.15,"Rain,Fog"
6571,2012-09-30 19:00:00,78.3,11.5,11.4,99,9,9.7,100.09,"Rain,Fog"
6572,2012-09-30 20:00:00,78.48,11.6,11.6,100,9,8.0,100.0,"Rain,Fog"
6573,2012-09-30 21:00:00,78.48,11.6,11.5,99,11,9.7,99.9,"Rain,Fog"
6574,2012-09-30 22:00:00,78.48,11.6,11.2,97,13,16.1,99.79,Rain
6575,2012-09-30 23:00:00,78.3,11.5,11.2,98,15,6.4,99.72,"Rain,Fog"
6576,2012-10-01 00:00:00,78.3,11.5,11.1,97,15,19.3,99.62,Rain
6577,2012-10-01 01:00:00,78.12,11.4,11.1,98,17,6.4,99.56,"Rain,Fog"
6578,2012-10-01 02:00:00,77.94,11.3,11.2,99,15,6.4,99.5,"Rain,Fog"
6579,2012-10-01 03:00:00,77.76,11.2,11.0,99,17,8.0,99.44,"Rain,Fog"
6580,2012-10-01 04:00:00,77.94,11.3,11.1,99,15,6.4,99.44,"Rain,Fog"
6581,2012-10-01 05:00:00,77.94,11.3,11.1,99,15,8.0,99.47,"Rain,Fog"
6582,2012-10-01 06:00:00,78.66000000000001,11.7,11.0,95,15,19.3,99.51,Cloudy
6583,2012-10-01 07:00:00,79.38000000000001,12.1,11.2,94,17,19.3,99.6,Rain
6584,2012-10-01 08:00:00,80.28,12.6,11.8,95,17,24.1,99.7,Cloudy
6585,2012-10-01 09:00:00,82.8,14.0,12.3,89,19,24.1,99.8,Mostly Cloudy
6586,2012-10-01 10:00:00,84.42,14.9,12.0,83,20,24.1,99.88,Cloudy
6587,2012-10-01 11:00:00,84.24,14.8,11.9,83,26,24.1,99.96,Cloudy
6588,2012-10-01 12:00:00,84.24,14.8,11.3,80,17,24.1,100.06,Cloudy
6589,2012-10-01 13:00:00,84.42,14.9,11.5,80,19,24.1,100.14,Cloudy
6590,2012-10-01 14:00:00,85.14,15.3,11.4,78,24,24.1,100.2,Cloudy
6591,2012-10-01 15:00:00,84.96000000000001,15.2,11.5,79,26,24.1,100.27,Cloudy
6592,2012-10-01 16:00:00,84.60000000000001,15.0,11.5,80,19,24.1,100.35,Cloudy
6593,2012-10-01 17:00:00,84.42,14.9,11.4,80,17,48.3,100.45,Mostly Cloudy
6594,2012-10-01 18:00:00,83.88000000000001,14.6,11.6,82,6,25.0,100.51,Cloudy
6595,2012-10-01 19:00:00,83.88000000000001,14.6,11.7,83,9,25.0,100.57,Mostly Cloudy
6596,2012-10-01 20:00:00,82.44,13.8,11.7,87,9,25.0,100.61,Mostly Cloudy
6597,2012-10-01 21:00:00,82.44,13.8,12.0,89,6,25.0,100.65,Mostly Cloudy
6598,2012-10-01 22:00:00,81.18,13.1,12.7,97,6,25.0,100.66,Mostly Cloudy
6599,2012-10-01 23:00:00,83.16000000000001,14.2,12.9,92,22,25.0,100.75,Mostly Cloudy
6600,2012-10-02 00:00:00,81.9,13.5,12.7,95,9,25.0,100.74,Mostly Cloudy
6601,2012-10-02 01:00:00,80.64,12.8,12.6,99,9,25.0,100.76,Mostly Cloudy
6602,2012-10-02 02:00:00,79.92,12.4,12.3,99,7,19.3,100.77,Mostly Cloudy
6603,2012-10-02 03:00:00,79.38000000000001,12.1,11.8,98,7,19.3,100.82,Mainly Clear
6604,2012-10-02 04:00:00,79.2,12.0,11.9,99,6,19.3,100.85,Clear
6605,2012-10-02 05:00:00,77.58,11.1,11.0,99,6,16.1,100.92,Mainly Clear
6606,2012-10-02 06:00:00,77.76,11.2,11.2,100,0,48.3,100.96,Mostly Cloudy
6607,2012-10-02 07:00:00,79.02,11.9,11.8,99,4,24.1,101.04,Mostly Cloudy
6608,2012-10-02 08:00:00,81.0,13.0,12.4,96,9,24.1,101.08,Mostly Cloudy
6609,2012-10-02 09:00:00,83.34,14.3,13.1,92,6,24.1,101.08,Cloudy
6610,2012-10-02 10:00:00,84.96000000000001,15.2,13.3,88,9,24.1,101.09,Cloudy
6611,2012-10-02 11:00:00,87.48,16.6,13.9,84,7,24.1,101.08,Mostly Cloudy
6612,2012-10-02 12:00:00,90.36000000000001,18.2,13.6,75,13,24.1,101.1,Mostly Cloudy
6613,2012-10-02 13:00:00,90.36000000000001,18.2,12.9,71,9,24.1,101.03,Cloudy
6614,2012-10-02 14:00:00,91.26,18.7,12.4,67,11,24.1,101.03,Mostly Cloudy
6615,2012-10-02 15:00:00,91.44,18.8,11.5,63,9,24.1,101.08,Mostly Cloudy
6616,2012-10-02 16:00:00,91.26,18.7,12.6,68,6,24.1,101.06,Mostly Cloudy
6617,2012-10-02 17:00:00,89.82,17.9,13.9,77,9,24.1,101.1,Mostly Cloudy
6618,2012-10-02 18:00:00,87.48,16.6,13.3,81,9,24.1,101.16,Mainly Clear
6619,2012-10-02 19:00:00,84.60000000000001,15.0,13.3,90,11,25.0,101.18,Mainly Clear
6620,2012-10-02 20:00:00,83.88000000000001,14.6,13.0,90,9,25.0,101.22,Mainly Clear
6621,2012-10-02 21:00:00,82.8,14.0,12.8,92,6,25.0,101.27,Mainly Clear
6622,2012-10-02 22:00:00,83.16000000000001,14.2,12.9,92,4,25.0,101.28,Clear
6623,2012-10-02 23:00:00,78.12,11.4,10.9,97,4,25.0,101.31,Clear
6624,2012-10-03 00:00:00,79.02,11.9,11.7,99,4,25.0,101.3,Clear
6625,2012-10-03 01:00:00,77.94,11.3,11.0,98,4,25.0,101.33,Clear
6626,2012-10-03 02:00:00,77.94,11.3,11.2,99,7,25.0,101.32,Clear
6627,2012-10-03 03:00:00,78.48,11.6,11.4,99,7,25.0,101.33,Clear
6628,2012-10-03 04:00:00,78.3,11.5,11.2,98,7,25.0,101.37,Clear
6629,2012-10-03 05:00:00,77.4,11.0,11.0,100,11,3.2,101.38,Fog
6630,2012-10-03 06:00:00,78.3,11.5,11.5,100,11,0.6,101.42,Fog
6631,2012-10-03 07:00:00,78.66000000000001,11.7,11.7,100,13,0.6,101.49,Fog
6632,2012-10-03 08:00:00,78.12,11.4,11.4,100,15,1.6,101.54,Fog
6633,2012-10-03 09:00:00,80.46000000000001,12.7,12.6,99,19,4.8,101.53,Fog
6634,2012-10-03 10:00:00,84.24,14.8,13.5,92,19,9.7,101.5,Fog
6635,2012-10-03 11:00:00,86.03999999999999,15.8,13.7,87,19,12.9,101.48,Cloudy
6636,2012-10-03 12:00:00,88.02,16.9,13.2,79,19,24.1,101.42,Mostly Cloudy
6637,2012-10-03 13:00:00,89.10000000000001,17.5,13.5,77,13,19.3,101.4,Mostly Cloudy
6638,2012-10-03 14:00:00,91.26,18.7,13.6,72,13,19.3,101.4,Cloudy
6639,2012-10-03 15:00:00,92.34,19.3,13.9,71,13,24.1,101.4,Cloudy
6640,2012-10-03 16:00:00,92.16000000000001,19.2,14.2,73,11,24.1,101.42,Cloudy
6641,2012-10-03 17:00:00,92.16000000000001,19.2,13.9,71,11,24.1,101.45,Cloudy
6642,2012-10-03 18:00:00,91.62,18.9,13.9,73,11,25.0,101.47,Cloudy
6643,2012-10-03 19:00:00,91.8,19.0,13.9,72,7,25.0,101.51,Cloudy
6644,2012-10-03 20:00:00,91.08,18.6,14.3,76,9,25.0,101.51,Cloudy
6645,2012-10-03 21:00:00,91.08,18.6,14.4,77,11,25.0,101.53,Cloudy
6646,2012-10-03 22:00:00,90.53999999999999,18.3,14.7,80,7,25.0,101.56,Cloudy
6647,2012-10-03 23:00:00,90.0,18.0,14.9,82,7,25.0,101.57,Cloudy
6648,2012-10-04 00:00:00,88.2,17.0,15.1,89,11,16.1,101.55,Cloudy
6649,2012-10-04 01:00:00,86.58,16.1,14.7,91,11,16.1,101.55,Cloudy
6650,2012-10-04 02:00:00,84.06,14.7,14.1,96,11,6.4,101.56,Drizzle
6651,2012-10-04 03:00:00,80.28,12.6,11.8,95,13,9.7,101.55,"Drizzle,Fog"
6652,2012-10-04 04:00:00,78.66000000000001,11.7,11.5,99,15,19.3,101.55,Cloudy
6653,2012-10-04 05:00:00,78.3,11.5,11.0,97,9,16.1,101.59,Cloudy
6654,2012-10-04 06:00:00,77.94,11.3,10.8,97,9,6.4,101.58,Fog
6655,2012-10-04 07:00:00,78.12,11.4,11.1,98,13,4.0,101.58,"Drizzle,Fog"
6656,2012-10-04 08:00:00,79.2,12.0,11.8,99,7,4.0,101.57,Fog
6657,2012-10-04 09:00:00,79.38000000000001,12.1,12.0,99,11,2.8,101.54,"Drizzle,Fog"
6658,2012-10-04 10:00:00,80.28,12.6,12.5,99,9,4.8,101.47,"Drizzle,Fog"
6659,2012-10-04 11:00:00,81.53999999999999,13.3,12.8,97,6,6.4,101.47,Fog
6660,2012-10-04 12:00:00,82.08,13.6,13.0,96,0,6.4,101.42,"Drizzle,Fog"
6661,2012-10-04 13:00:00,83.52,14.4,13.2,92,0,6.4,101.38,"Drizzle,Fog"
6662,2012-10-04 14:00:00,85.68,15.6,14.3,92,4,8.0,101.3,"Rain,Fog"
6663,2012-10-04 15:00:00,86.22,15.9,14.7,93,4,9.7,101.24,Fog
6664,2012-10-04 16:00:00,86.4,16.0,15.5,97,4,9.7,101.18,Fog
6665,2012-10-04 17:00:00,86.03999999999999,15.8,15.3,97,4,9.7,101.13,Fog
6666,2012-10-04 18:00:00,83.88000000000001,14.6,14.5,99,0,9.7,101.12,Fog
6667,2012-10-04 19:00:00,84.24,14.8,14.6,99,6,9.7,101.1,Fog
6668,2012-10-04 20:00:00,82.98,14.1,14.1,100,4,9.7,101.1,Fog
6669,2012-10-04 21:00:00,83.52,14.4,13.7,96,6,9.7,101.07,Fog
6670,2012-10-04 22:00:00,85.14,15.3,13.8,91,13,12.9,101.01,Mainly Clear
6671,2012-10-04 23:00:00,87.48,16.6,13.7,83,13,9.7,100.97,"Rain,Fog"
6672,2012-10-05 00:00:00,86.03999999999999,15.8,12.7,82,11,12.9,100.94,Mainly Clear
6673,2012-10-05 01:00:00,85.14,15.3,12.6,84,15,12.9,100.94,Mainly Clear
6674,2012-10-05 02:00:00,85.86000000000001,15.7,12.7,82,17,16.1,100.92,Clear
6675,2012-10-05 03:00:00,84.06,14.7,12.6,87,17,19.3,100.94,Clear
6676,2012-10-05 04:00:00,83.52,14.4,12.6,89,13,19.3,100.96,Clear
6677,2012-10-05 05:00:00,82.44,13.8,12.6,92,17,19.3,100.96,Clear
6678,2012-10-05 06:00:00,82.26,13.7,12.9,95,4,16.1,100.93,Mainly Clear
6679,2012-10-05 07:00:00,85.14,15.3,14.0,92,6,24.1,100.92,Mainly Clear
6680,2012-10-05 08:00:00,87.84,16.8,14.3,85,9,24.1,100.92,Mostly Cloudy
6681,2012-10-05 09:00:00,88.74,17.3,13.6,79,13,24.1,100.84,Mostly Cloudy
6682,2012-10-05 10:00:00,91.62,18.9,14.4,75,11,24.1,100.87,Rain Showers
6683,2012-10-05 11:00:00,89.10000000000001,17.5,14.3,81,22,24.1,100.85,Cloudy
6684,2012-10-05 12:00:00,90.9,18.5,15.3,82,19,24.1,100.74,Cloudy
6685,2012-10-05 13:00:00,92.16000000000001,19.2,14.9,76,20,24.1,100.69,Cloudy
6686,2012-10-05 14:00:00,93.96000000000001,20.2,15.6,75,19,24.1,100.6,Mostly Cloudy
6687,2012-10-05 15:00:00,94.86000000000001,20.7,15.4,72,26,24.1,100.57,Cloudy
6688,2012-10-05 16:00:00,94.14,20.3,15.4,73,28,24.1,100.55,Cloudy
6689,2012-10-05 17:00:00,93.06,19.7,14.8,73,26,24.1,100.55,Cloudy
6690,2012-10-05 18:00:00,91.8,19.0,14.8,77,24,25.0,100.53,Cloudy
6691,2012-10-05 19:00:00,91.26,18.7,14.2,75,32,25.0,100.53,Cloudy
6692,2012-10-05 20:00:00,90.18,18.1,14.0,77,24,25.0,100.55,Cloudy
6693,2012-10-05 21:00:00,89.64,17.8,13.8,77,22,25.0,100.56,Cloudy
6694,2012-10-05 22:00:00,88.92,17.4,12.1,71,19,25.0,100.54,Cloudy
6695,2012-10-05 23:00:00,88.2,17.0,10.9,67,17,25.0,100.53,Cloudy
6696,2012-10-06 00:00:00,87.84,16.8,11.2,70,13,25.0,100.51,Cloudy
6697,2012-10-06 01:00:00,86.58,16.1,10.9,71,17,25.0,100.5,Cloudy
6698,2012-10-06 02:00:00,85.32,15.4,9.6,68,11,25.0,100.44,Rain Showers
6699,2012-10-06 03:00:00,83.88000000000001,14.6,10.1,74,11,25.0,100.39,Rain Showers
6700,2012-10-06 04:00:00,77.4,11.0,9.7,92,13,16.1,100.35,Rain
6701,2012-10-06 05:00:00,74.52,9.4,8.8,96,15,16.1,100.32,Rain
6702,2012-10-06 06:00:00,73.98,9.1,8.7,97,6,16.1,100.35,Rain
6703,2012-10-06 07:00:00,73.08,8.6,8.4,99,11,8.0,100.35,"Rain,Fog"
6704,2012-10-06 08:00:00,73.44,8.8,8.4,97,7,19.3,100.36,Rain
6705,2012-10-06 09:00:00,74.7,9.5,8.6,94,7,24.1,100.33,Rain
6706,2012-10-06 10:00:00,75.06,9.7,8.7,93,13,24.1,100.32,Rain
6707,2012-10-06 11:00:00,74.88000000000001,9.6,8.4,92,13,24.1,100.35,Rain
6708,2012-10-06 12:00:00,77.22,10.9,9.3,90,17,24.1,100.32,Mostly Cloudy
6709,2012-10-06 13:00:00,78.84,11.8,9.0,83,20,24.1,100.3,Cloudy
6710,2012-10-06 14:00:00,82.44,13.8,8.9,72,17,24.1,100.28,Mostly Cloudy
6711,2012-10-06 15:00:00,83.52,14.4,8.8,69,28,48.3,100.25,Mainly Clear
6712,2012-10-06 16:00:00,83.88000000000001,14.6,7.7,63,28,48.3,100.26,Mainly Clear
6713,2012-10-06 17:00:00,79.2,12.0,7.9,76,9,48.3,100.32,Mostly Cloudy
6714,2012-10-06 18:00:00,75.06,9.7,7.2,84,19,25.0,100.43,Mostly Cloudy
6715,2012-10-06 19:00:00,75.96000000000001,10.2,5.9,75,26,25.0,100.52,Mostly Cloudy
6716,2012-10-06 20:00:00,75.24,9.8,5.5,75,17,25.0,100.58,Mainly Clear
6717,2012-10-06 21:00:00,75.06,9.7,5.2,74,19,25.0,100.66,Mainly Clear
6718,2012-10-06 22:00:00,74.16000000000001,9.2,4.4,72,26,25.0,100.75,Mainly Clear
6719,2012-10-06 23:00:00,73.26,8.7,4.0,72,22,25.0,100.79,Mainly Clear
6720,2012-10-07 00:00:00,73.44,8.8,4.2,73,28,25.0,100.82,Mostly Cloudy
6721,2012-10-07 01:00:00,72.72,8.4,4.4,76,17,25.0,100.9,Mainly Clear
6722,2012-10-07 02:00:00,70.2,7.0,4.2,82,15,25.0,100.93,Mainly Clear
6723,2012-10-07 03:00:00,69.3,6.5,3.9,83,11,25.0,101.01,Mainly Clear
6724,2012-10-07 04:00:00,67.14,5.3,3.7,89,13,25.0,101.09,Clear
6725,2012-10-07 05:00:00,67.86000000000001,5.7,3.8,88,7,25.0,101.19,Mostly Cloudy
6726,2012-10-07 06:00:00,68.22,5.9,3.7,86,11,24.1,101.25,Mostly Cloudy
6727,2012-10-07 07:00:00,68.4,6.0,3.7,85,13,24.1,101.31,Mostly Cloudy
6728,2012-10-07 08:00:00,68.22,5.9,3.3,83,9,24.1,101.29,Mainly Clear
6729,2012-10-07 09:00:00,70.02,6.9,2.5,74,9,48.3,101.3,Mostly Cloudy
6730,2012-10-07 10:00:00,72.9,8.5,3.1,69,22,48.3,101.3,Mostly Cloudy
6731,2012-10-07 11:00:00,73.8,9.0,1.5,59,15,48.3,101.33,Mainly Clear
6732,2012-10-07 12:00:00,74.16000000000001,9.2,0.6,55,22,48.3,101.36,Mostly Cloudy
6733,2012-10-07 13:00:00,74.34,9.3,-0.5,50,20,48.3,101.32,Mostly Cloudy
6734,2012-10-07 14:00:00,75.96000000000001,10.2,-0.6,47,17,48.3,101.25,Mainly Clear
6735,2012-10-07 15:00:00,76.5,10.5,0.3,49,11,48.3,101.24,Mainly Clear
6736,2012-10-07 16:00:00,74.16000000000001,9.2,-0.2,52,11,48.3,101.23,Cloudy
6737,2012-10-07 17:00:00,73.08,8.6,-1.2,50,13,48.3,101.26,Cloudy
6738,2012-10-07 18:00:00,70.74,7.3,-0.1,59,9,25.0,101.27,Cloudy
6739,2012-10-07 19:00:00,70.74,7.3,0.9,64,6,25.0,101.3,Cloudy
6740,2012-10-07 20:00:00,70.92,7.4,0.4,61,6,25.0,101.33,Cloudy
6741,2012-10-07 21:00:00,70.74,7.3,0.6,62,7,25.0,101.34,Cloudy
6742,2012-10-07 22:00:00,71.10000000000001,7.5,0.4,61,0,25.0,101.38,Cloudy
6743,2012-10-07 23:00:00,69.3,6.5,1.4,70,15,25.0,101.44,Rain Showers
6744,2012-10-08 00:00:00,69.12,6.4,2.9,78,9,25.0,101.49,Rain Showers
6745,2012-10-08 01:00:00,68.76,6.2,2.9,79,7,25.0,101.52,Rain Showers
6746,2012-10-08 02:00:00,67.32,5.4,3.0,84,6,25.0,101.5,Mostly Cloudy
6747,2012-10-08 03:00:00,66.78,5.1,2.9,86,0,25.0,101.52,Clear
6748,2012-10-08 04:00:00,64.08,3.6,2.4,92,6,25.0,101.58,Clear
6749,2012-10-08 05:00:00,62.63999999999999,2.8,2.6,99,0,25.0,101.62,Clear
6750,2012-10-08 06:00:00,61.92,2.4,1.9,96,9,24.1,101.73,Mainly Clear
6751,2012-10-08 07:00:00,62.1,2.5,1.3,92,6,48.3,101.83,Mainly Clear
6752,2012-10-08 08:00:00,67.32,5.4,1.1,74,7,48.3,101.92,Mainly Clear
6753,2012-10-08 09:00:00,69.48,6.6,0.5,65,4,48.3,101.94,Clear
6754,2012-10-08 10:00:00,73.08,8.6,-1.7,48,7,48.3,101.97,Mainly Clear
6755,2012-10-08 11:00:00,75.60000000000001,10.0,-1.0,46,9,48.3,101.95,Mainly Clear
6756,2012-10-08 12:00:00,76.86000000000001,10.7,-2.0,41,13,48.3,101.95,Mainly Clear
6757,2012-10-08 13:00:00,77.58,11.1,-1.3,42,13,48.3,101.93,Mainly Clear
6758,2012-10-08 14:00:00,78.48,11.6,-1.5,40,19,48.3,101.91,Mainly Clear
6759,2012-10-08 15:00:00,79.02,11.9,0.3,45,9,48.3,101.89,Mostly Cloudy
6760,2012-10-08 16:00:00,79.2,12.0,-0.1,43,13,48.3,101.9,Mostly Cloudy
6761,2012-10-08 17:00:00,78.3,11.5,-1.0,42,9,48.3,101.94,Cloudy
6762,2012-10-08 18:00:00,76.68,10.6,-0.7,45,7,25.0,101.98,Mostly Cloudy
6763,2012-10-08 19:00:00,75.06,9.7,1.5,57,15,25.0,102.03,Mainly Clear
6764,2012-10-08 20:00:00,72.18,8.1,2.2,66,7,25.0,102.05,Mainly Clear
6765,2012-10-08 21:00:00,70.74,7.3,2.7,73,9,25.0,102.08,Mainly Clear
6766,2012-10-08 22:00:00,72.0,8.0,2.0,66,4,25.0,102.08,Clear
6767,2012-10-08 23:00:00,70.92,7.4,1.9,68,7,25.0,102.06,Clear
6768,2012-10-09 00:00:00,68.03999999999999,5.8,2.6,80,6,25.0,102.06,Clear
6769,2012-10-09 01:00:00,68.03999999999999,5.8,3.3,84,4,25.0,102.08,Clear
6770,2012-10-09 02:00:00,68.22,5.9,3.4,84,6,25.0,102.06,Clear
6771,2012-10-09 03:00:00,68.22,5.9,3.2,83,4,25.0,102.02,Clear
6772,2012-10-09 04:00:00,65.34,4.3,2.7,89,7,25.0,102.04,Clear
6773,2012-10-09 05:00:00,66.78,5.1,3.2,88,4,25.0,102.08,Mainly Clear
6774,2012-10-09 06:00:00,67.32,5.4,3.7,89,7,48.3,102.09,Mainly Clear
6775,2012-10-09 07:00:00,69.66000000000001,6.7,5.3,91,9,48.3,102.09,Mainly Clear
6776,2012-10-09 08:00:00,72.72,8.4,6.0,85,15,48.3,102.08,Clear
6777,2012-10-09 09:00:00,76.14,10.3,6.4,77,15,48.3,102.06,Clear
6778,2012-10-09 10:00:00,80.10000000000001,12.5,6.0,65,17,48.3,102.0,Clear
6779,2012-10-09 11:00:00,81.9,13.5,4.7,55,6,48.3,101.93,Mainly Clear
6780,2012-10-09 12:00:00,83.52,14.4,4.4,51,7,48.3,101.84,Mainly Clear
6781,2012-10-09 13:00:00,84.60000000000001,15.0,4.4,49,7,48.3,101.71,Mostly Cloudy
6782,2012-10-09 14:00:00,84.42,14.9,3.2,45,11,48.3,101.66,Mostly Cloudy
6783,2012-10-09 15:00:00,84.60000000000001,15.0,4.6,50,13,48.3,101.59,Mostly Cloudy
6784,2012-10-09 16:00:00,83.7,14.5,4.0,49,13,48.3,101.57,Mostly Cloudy
6785,2012-10-09 17:00:00,82.08,13.6,4.8,55,22,48.3,101.5,Mostly Cloudy
6786,2012-10-09 18:00:00,81.36000000000001,13.2,4.8,57,20,25.0,101.44,Mostly Cloudy
6787,2012-10-09 19:00:00,80.64,12.8,4.5,57,19,25.0,101.45,Mostly Cloudy
6788,2012-10-09 20:00:00,79.02,11.9,4.6,61,19,25.0,101.4,Mainly Clear
6789,2012-10-09 21:00:00,78.12,11.4,4.5,62,19,25.0,101.36,Mainly Clear
6790,2012-10-09 22:00:00,76.68,10.6,7.4,81,17,25.0,101.32,Mainly Clear
6791,2012-10-09 23:00:00,76.32,10.4,7.4,82,19,25.0,101.26,Mainly Clear
6792,2012-10-10 00:00:00,75.60000000000001,10.0,7.4,84,15,25.0,101.22,Mainly Clear
6793,2012-10-10 01:00:00,76.14,10.3,7.8,84,11,25.0,101.18,Mostly Cloudy
6794,2012-10-10 02:00:00,77.4,11.0,7.8,81,15,25.0,101.09,Mostly Cloudy
6795,2012-10-10 03:00:00,77.94,11.3,7.9,80,13,25.0,101.01,Mostly Cloudy
6796,2012-10-10 04:00:00,77.94,11.3,8.1,81,30,25.0,100.94,Mostly Cloudy
6797,2012-10-10 05:00:00,77.76,11.2,8.3,82,20,25.0,100.9,Mostly Cloudy
6798,2012-10-10 06:00:00,78.3,11.5,8.4,81,37,24.1,100.85,Mostly Cloudy
6799,2012-10-10 07:00:00,78.48,11.6,8.8,83,39,24.1,100.8,Cloudy
6800,2012-10-10 08:00:00,79.2,12.0,8.8,81,32,24.1,100.73,Cloudy
6801,2012-10-10 09:00:00,80.10000000000001,12.5,8.9,79,32,24.1,100.64,Cloudy
6802,2012-10-10 10:00:00,81.9,13.5,9.0,74,33,24.1,100.53,Cloudy
6803,2012-10-10 11:00:00,79.56,12.2,10.6,90,13,12.9,100.43,Rain
6804,2012-10-10 12:00:00,81.53999999999999,13.3,9.9,80,20,19.3,100.33,Cloudy
6805,2012-10-10 13:00:00,80.10000000000001,12.5,10.8,89,19,4.0,100.24,Rain
6806,2012-10-10 14:00:00,80.64,12.8,11.8,94,19,48.3,100.07,Cloudy
6807,2012-10-10 15:00:00,81.36000000000001,13.2,11.2,88,15,48.3,100.01,Cloudy
6808,2012-10-10 16:00:00,82.26,13.7,10.4,80,26,16.1,100.02,Rain
6809,2012-10-10 17:00:00,78.3,11.5,7.7,77,33,24.1,100.13,Rain
6810,2012-10-10 18:00:00,73.62,8.9,7.1,88,19,25.0,100.25,Mostly Cloudy
6811,2012-10-10 19:00:00,71.64,7.8,6.1,89,17,25.0,100.31,Mostly Cloudy
6812,2012-10-10 20:00:00,70.92,7.4,5.9,90,15,25.0,100.34,Mostly Cloudy
6813,2012-10-10 21:00:00,71.82,7.9,5.9,87,19,25.0,100.37,Mostly Cloudy
6814,2012-10-10 22:00:00,71.46000000000001,7.7,5.7,87,11,25.0,100.4,Mostly Cloudy
6815,2012-10-10 23:00:00,69.66000000000001,6.7,4.9,88,9,25.0,100.37,Mainly Clear
6816,2012-10-11 00:00:00,70.56,7.2,4.4,82,17,25.0,100.4,Mostly Cloudy
6817,2012-10-11 01:00:00,69.66000000000001,6.7,3.8,82,20,25.0,100.42,Mostly Cloudy
6818,2012-10-11 02:00:00,69.48,6.6,3.8,82,32,25.0,100.45,Mostly Cloudy
6819,2012-10-11 03:00:00,69.48,6.6,3.9,83,24,25.0,100.51,Mostly Cloudy
6820,2012-10-11 04:00:00,68.4,6.0,3.2,82,26,25.0,100.68,Mostly Cloudy
6821,2012-10-11 05:00:00,67.5,5.5,2.5,81,28,25.0,100.84,Mainly Clear
6822,2012-10-11 06:00:00,66.60000000000001,5.0,2.4,83,22,24.1,100.95,Mainly Clear
6823,2012-10-11 07:00:00,66.42,4.9,2.3,83,26,24.1,101.05,Mainly Clear
6824,2012-10-11 08:00:00,68.4,6.0,2.3,77,20,24.1,101.14,Mainly Clear
6825,2012-10-11 09:00:00,69.84,6.8,1.2,67,24,24.1,101.2,Mainly Clear
6826,2012-10-11 10:00:00,71.46000000000001,7.7,0.2,59,32,48.3,101.19,Mostly Cloudy
6827,2012-10-11 11:00:00,73.26,8.7,1.2,59,24,48.3,101.2,Mostly Cloudy
6828,2012-10-11 12:00:00,72.0,8.0,-0.6,55,30,48.3,101.22,Mostly Cloudy
6829,2012-10-11 13:00:00,74.16000000000001,9.2,-1.8,46,30,48.3,101.22,Mostly Cloudy
6830,2012-10-11 14:00:00,75.06,9.7,-1.7,45,26,48.3,101.2,Mostly Cloudy
6831,2012-10-11 15:00:00,75.24,9.8,-2.9,41,30,48.3,101.21,Mostly Cloudy
6832,2012-10-11 16:00:00,75.24,9.8,-2.7,41,28,48.3,101.18,Mostly Cloudy
6833,2012-10-11 17:00:00,73.98,9.1,-2.2,45,19,24.1,101.15,Cloudy
6834,2012-10-11 18:00:00,73.98,9.1,0.9,56,30,25.0,101.19,Rain
6835,2012-10-11 19:00:00,72.72,8.4,2.2,65,37,25.0,101.13,Rain
6836,2012-10-11 20:00:00,70.2,7.0,3.6,79,32,25.0,101.07,Rain
6837,2012-10-11 21:00:00,69.48,6.6,4.2,85,22,25.0,100.93,Rain
6838,2012-10-11 22:00:00,70.02,6.9,3.9,81,22,25.0,100.77,Rain
6839,2012-10-11 23:00:00,72.36000000000001,8.2,4.2,76,19,25.0,100.69,Rain
6840,2012-10-12 00:00:00,71.46000000000001,7.7,5.3,85,22,25.0,100.74,Rain
6841,2012-10-12 01:00:00,72.18,8.1,5.4,83,24,25.0,100.75,Rain
6842,2012-10-12 02:00:00,71.82,7.9,4.4,79,30,25.0,100.76,Cloudy
6843,2012-10-12 03:00:00,70.56,7.2,1.1,65,33,25.0,100.83,Cloudy
6844,2012-10-12 04:00:00,67.5,5.5,0.6,71,26,25.0,101.0,Cloudy
6845,2012-10-12 05:00:00,65.52,4.4,-0.1,73,24,25.0,101.14,Mostly Cloudy
6846,2012-10-12 06:00:00,64.08,3.6,-0.4,75,24,24.1,101.3,Mainly Clear
6847,2012-10-12 07:00:00,64.26,3.7,-0.4,75,17,24.1,101.45,Mainly Clear
6848,2012-10-12 08:00:00,66.24,4.8,-0.7,68,17,24.1,101.57,Mainly Clear
6849,2012-10-12 09:00:00,67.32,5.4,-1.7,60,19,24.1,101.68,Mostly Cloudy
6850,2012-10-12 10:00:00,67.32,5.4,-2.4,57,20,24.1,101.74,Mostly Cloudy
6851,2012-10-12 11:00:00,68.76,6.2,-3.4,50,22,24.1,101.76,Mostly Cloudy
6852,2012-10-12 12:00:00,67.68,5.6,-5.1,46,30,24.1,101.83,Mostly Cloudy
6853,2012-10-12 13:00:00,68.76,6.2,-5.5,43,26,24.1,101.87,Mostly Cloudy
6854,2012-10-12 14:00:00,68.76,6.2,-5.1,44,22,24.1,101.93,Mostly Cloudy
6855,2012-10-12 15:00:00,69.12,6.4,-5.4,43,20,24.1,101.98,Mostly Cloudy
6856,2012-10-12 16:00:00,66.96000000000001,5.2,-5.3,47,19,24.1,102.07,Mostly Cloudy
6857,2012-10-12 17:00:00,66.06,4.7,-5.1,49,22,24.1,102.13,Mainly Clear
6858,2012-10-12 18:00:00,64.8,4.0,-4.5,54,15,25.0,102.21,Clear
6859,2012-10-12 19:00:00,62.1,2.5,-3.9,63,13,25.0,102.28,Clear
6860,2012-10-12 20:00:00,59.760000000000005,1.2,-3.6,70,9,25.0,102.35,Clear
6861,2012-10-12 21:00:00,58.86000000000001,0.7,-4.0,71,7,25.0,102.41,Clear
6862,2012-10-12 22:00:00,57.6,0.0,-4.7,71,9,25.0,102.47,Clear
6863,2012-10-12 23:00:00,57.24,-0.2,-4.9,71,9,25.0,102.48,Mainly Clear
6864,2012-10-13 00:00:00,61.019999999999996,1.9,-3.8,66,9,25.0,102.49,Mostly Cloudy
6865,2012-10-13 01:00:00,55.980000000000004,-0.9,-3.8,81,7,25.0,102.51,Mostly Cloudy
6866,2012-10-13 02:00:00,57.78,0.1,-3.6,76,4,25.0,102.47,Mostly Cloudy
6867,2012-10-13 03:00:00,54.72,-1.6,-3.6,86,4,25.0,102.49,Mostly Cloudy
6868,2012-10-13 04:00:00,54.18000000000001,-1.9,-3.8,87,4,25.0,102.52,Mainly Clear
6869,2012-10-13 05:00:00,54.18000000000001,-1.9,-3.9,86,0,25.0,102.53,Clear
6870,2012-10-13 06:00:00,55.800000000000004,-1.0,-3.3,84,0,48.3,102.54,Mostly Cloudy
6871,2012-10-13 07:00:00,59.4,1.0,-2.2,79,6,48.3,102.56,Mostly Cloudy
6872,2012-10-13 08:00:00,63.72,3.4,-1.3,71,11,48.3,102.57,Mainly Clear
6873,2012-10-13 09:00:00,65.7,4.5,1.2,79,17,48.3,102.55,Mainly Clear
6874,2012-10-13 10:00:00,68.58,6.1,-1.1,60,19,48.3,102.52,Mainly Clear
6875,2012-10-13 11:00:00,71.46000000000001,7.7,-3.7,44,28,48.3,102.46,Mostly Cloudy
6876,2012-10-13 12:00:00,75.06,9.7,-1.9,44,22,48.3,102.37,Mostly Cloudy
6877,2012-10-13 13:00:00,73.08,8.6,-2.8,45,20,48.3,102.24,Mainly Clear
6878,2012-10-13 14:00:00,75.24,9.8,-3.1,40,19,48.3,102.2,Mostly Cloudy
6879,2012-10-13 15:00:00,74.52,9.4,-2.1,44,19,48.3,102.18,Mostly Cloudy
6880,2012-10-13 16:00:00,74.7,9.5,-2.7,42,17,48.3,102.14,Mostly Cloudy
6881,2012-10-13 17:00:00,73.98,9.1,-2.7,43,13,25.0,102.08,Mostly Cloudy
6882,2012-10-13 18:00:00,73.44,8.8,-2.4,45,7,25.0,102.01,Cloudy
6883,2012-10-13 19:00:00,72.36000000000001,8.2,-1.1,52,15,25.0,101.92,Cloudy
6884,2012-10-13 20:00:00,71.82,7.9,-1.4,52,15,25.0,101.85,Cloudy
6885,2012-10-13 21:00:00,72.53999999999999,8.3,-1.9,49,9,25.0,101.73,Cloudy
6886,2012-10-13 22:00:00,72.36000000000001,8.2,-0.9,53,24,25.0,101.75,Rain Showers
6887,2012-10-13 23:00:00,67.68,5.6,3.0,83,19,9.7,101.77,"Rain,Fog"
6888,2012-10-14 00:00:00,67.32,5.4,3.1,85,7,8.0,101.68,"Rain,Fog"
6889,2012-10-14 01:00:00,65.88000000000001,4.6,3.4,92,20,9.7,101.51,"Rain,Fog"
6890,2012-10-14 02:00:00,65.52,4.4,3.2,92,17,11.3,101.35,Rain
6891,2012-10-14 03:00:00,65.88000000000001,4.6,3.8,95,17,9.7,101.24,"Rain,Fog"
6892,2012-10-14 04:00:00,66.42,4.9,4.3,96,17,8.0,101.16,"Rain,Fog"
6893,2012-10-14 05:00:00,67.32,5.4,4.5,94,9,9.7,101.18,"Rain,Fog"
6894,2012-10-14 06:00:00,67.5,5.5,4.5,93,11,12.9,101.11,Rain
6895,2012-10-14 07:00:00,68.22,5.9,4.8,93,6,9.7,101.16,Fog
6896,2012-10-14 08:00:00,68.76,6.2,5.4,95,7,4.8,101.13,Fog
6897,2012-10-14 09:00:00,69.84,6.8,5.4,91,7,16.1,101.13,Cloudy
6898,2012-10-14 10:00:00,70.74,7.3,5.7,90,6,16.1,101.14,Drizzle
6899,2012-10-14 11:00:00,69.66000000000001,6.7,6.4,98,11,3.2,101.11,"Drizzle,Fog"
6900,2012-10-14 12:00:00,69.66000000000001,6.7,6.3,97,13,2.4,101.0,"Drizzle,Fog"
6901,2012-10-14 13:00:00,69.48,6.6,6.3,98,13,1.6,100.94,"Drizzle,Fog"
6902,2012-10-14 14:00:00,69.48,6.6,6.3,98,19,2.0,100.84,"Rain,Fog"
6903,2012-10-14 15:00:00,70.2,7.0,6.6,97,15,8.0,100.77,"Rain,Fog"
6904,2012-10-14 16:00:00,71.10000000000001,7.5,7.1,97,15,3.2,100.68,"Rain,Fog"
6905,2012-10-14 17:00:00,71.46000000000001,7.7,7.3,97,19,6.4,100.67,"Rain,Fog"
6906,2012-10-14 18:00:00,75.42,9.9,9.4,97,11,2.0,100.56,"Rain,Fog"
6907,2012-10-14 19:00:00,74.88000000000001,9.6,9.1,97,15,9.7,100.48,"Drizzle,Fog"
6908,2012-10-14 20:00:00,75.60000000000001,10.0,9.3,95,15,9.7,100.31,Fog
6909,2012-10-14 21:00:00,75.24,9.8,9.3,97,11,9.7,100.27,Fog
6910,2012-10-14 22:00:00,74.52,9.4,9.1,98,7,9.7,100.17,Fog
6911,2012-10-14 23:00:00,73.62,8.9,8.6,98,15,6.4,100.13,"Rain,Fog"
6912,2012-10-15 00:00:00,73.44,8.8,8.4,97,13,9.7,100.05,"Rain,Fog"
6913,2012-10-15 01:00:00,72.9,8.5,8.2,98,9,9.7,100.02,"Rain,Fog"
6914,2012-10-15 02:00:00,73.26,8.7,8.4,98,11,9.7,99.88,"Rain,Fog"
6915,2012-10-15 03:00:00,73.44,8.8,8.4,97,9,9.7,99.78,"Rain,Fog"
6916,2012-10-15 04:00:00,79.02,11.9,10.7,92,4,12.9,99.66,Mostly Cloudy
6917,2012-10-15 05:00:00,81.9,13.5,11.6,88,11,16.1,99.62,Mostly Cloudy
6918,2012-10-15 06:00:00,82.08,13.6,11.5,87,19,24.1,99.56,Cloudy
6919,2012-10-15 07:00:00,82.44,13.8,11.1,84,19,24.1,99.53,Mostly Cloudy
6920,2012-10-15 08:00:00,83.52,14.4,11.3,82,20,24.1,99.53,Cloudy
6921,2012-10-15 09:00:00,87.12,16.4,12.1,76,24,24.1,99.51,Mostly Cloudy
6922,2012-10-15 10:00:00,87.48,16.6,12.7,78,20,24.1,99.5,Cloudy
6923,2012-10-15 11:00:00,87.48,16.6,12.4,76,17,24.1,99.61,Rain Showers
6924,2012-10-15 12:00:00,87.12,16.4,10.6,69,22,24.1,99.63,Mostly Cloudy
6925,2012-10-15 13:00:00,86.94,16.3,10.7,69,28,24.1,99.64,Mostly Cloudy
6926,2012-10-15 14:00:00,89.64,17.8,9.3,57,30,48.3,99.65,Mostly Cloudy
6927,2012-10-15 15:00:00,86.76,16.2,9.0,62,28,24.1,99.7,Mostly Cloudy
6928,2012-10-15 16:00:00,85.5,15.5,8.9,65,30,24.1,99.7,Mostly Cloudy
6929,2012-10-15 17:00:00,84.06,14.7,8.2,65,33,24.1,99.69,Mostly Cloudy
6930,2012-10-15 18:00:00,82.26,13.7,8.7,72,32,25.0,99.7,Mostly Cloudy
6931,2012-10-15 19:00:00,80.82,12.9,8.3,74,30,25.0,99.72,Mostly Cloudy
6932,2012-10-15 20:00:00,80.28,12.6,7.9,73,30,25.0,99.76,Mainly Clear
6933,2012-10-15 21:00:00,79.38000000000001,12.1,6.8,70,26,25.0,99.74,Mainly Clear
6934,2012-10-15 22:00:00,79.38000000000001,12.1,5.1,62,32,25.0,99.73,Mostly Cloudy
6935,2012-10-15 23:00:00,78.48,11.6,3.5,57,28,25.0,99.75,Mostly Cloudy
6936,2012-10-16 00:00:00,75.24,9.8,3.8,66,28,25.0,99.81,Mainly Clear
6937,2012-10-16 01:00:00,74.16000000000001,9.2,3.9,69,24,25.0,99.89,Mostly Cloudy
6938,2012-10-16 02:00:00,71.28,7.6,1.8,67,30,25.0,99.88,Mainly Clear
6939,2012-10-16 03:00:00,69.66000000000001,6.7,2.6,75,19,25.0,99.88,Mostly Cloudy
6940,2012-10-16 04:00:00,69.48,6.6,3.0,78,22,25.0,99.94,Cloudy
6941,2012-10-16 05:00:00,68.22,5.9,2.9,81,19,25.0,99.99,Cloudy
6942,2012-10-16 06:00:00,66.96000000000001,5.2,1.0,74,28,24.1,100.05,Mostly Cloudy
6943,2012-10-16 07:00:00,66.24,4.8,0.8,75,15,24.1,100.18,Mostly Cloudy
6944,2012-10-16 08:00:00,67.68,5.6,0.7,71,22,24.1,100.24,Mainly Clear
6945,2012-10-16 09:00:00,68.4,6.0,1.3,72,19,24.1,100.27,Mostly Cloudy
6946,2012-10-16 10:00:00,71.28,7.6,1.6,66,26,24.1,100.3,Mostly Cloudy
6947,2012-10-16 11:00:00,71.46000000000001,7.7,1.4,64,22,24.1,100.34,Mostly Cloudy
6948,2012-10-16 12:00:00,71.64,7.8,1.6,65,28,24.1,100.35,Cloudy
6949,2012-10-16 13:00:00,72.36000000000001,8.2,1.2,61,24,24.1,100.38,Mostly Cloudy
6950,2012-10-16 14:00:00,73.08,8.6,0.7,58,30,24.1,100.37,Mostly Cloudy
6951,2012-10-16 15:00:00,72.72,8.4,0.7,58,32,24.1,100.39,Mostly Cloudy
6952,2012-10-16 16:00:00,72.72,8.4,0.0,55,28,24.1,100.43,Mostly Cloudy
6953,2012-10-16 17:00:00,70.74,7.3,-0.5,58,20,24.1,100.47,Mainly Clear
6954,2012-10-16 18:00:00,69.3,6.5,-0.2,62,15,25.0,100.54,Mainly Clear
6955,2012-10-16 19:00:00,66.42,4.9,-0.2,70,9,25.0,100.57,Mainly Clear
6956,2012-10-16 20:00:00,64.26,3.7,-0.3,75,7,25.0,100.63,Clear
6957,2012-10-16 21:00:00,63.0,3.0,-0.5,78,11,25.0,100.66,Clear
6958,2012-10-16 22:00:00,64.98,4.1,-0.4,72,7,25.0,100.73,Clear
6959,2012-10-16 23:00:00,60.480000000000004,1.6,-0.5,86,7,25.0,100.75,Clear
6960,2012-10-17 00:00:00,64.44,3.8,0.5,79,11,25.0,100.8,Clear
6961,2012-10-17 01:00:00,62.63999999999999,2.8,0.6,85,9,25.0,100.86,Clear
6962,2012-10-17 02:00:00,59.580000000000005,1.1,-1.2,85,7,25.0,100.91,Clear
6963,2012-10-17 03:00:00,60.839999999999996,1.8,-0.9,82,6,25.0,100.92,Mostly Cloudy
6964,2012-10-17 04:00:00,61.56000000000001,2.2,-0.2,84,7,25.0,100.96,Mostly Cloudy
6965,2012-10-17 05:00:00,62.28,2.6,0.2,84,0,25.0,100.95,Mostly Cloudy
6966,2012-10-17 06:00:00,62.46000000000001,2.7,0.4,85,0,24.1,100.98,Mainly Clear
6967,2012-10-17 07:00:00,63.54,3.3,0.7,83,0,24.1,101.02,Clear
6968,2012-10-17 08:00:00,68.94,6.3,2.0,74,0,24.1,101.06,Mainly Clear
6969,2012-10-17 09:00:00,70.38000000000001,7.1,4.1,81,6,24.1,101.08,Mainly Clear
6970,2012-10-17 10:00:00,73.98,9.1,1.3,58,6,24.1,101.08,Mainly Clear
6971,2012-10-17 11:00:00,75.78,10.1,2.1,58,6,48.3,101.02,Mainly Clear
6972,2012-10-17 12:00:00,77.03999999999999,10.8,2.1,55,7,48.3,100.97,Mainly Clear
6973,2012-10-17 13:00:00,78.12,11.4,1.9,52,6,48.3,100.9,Mostly Cloudy
6974,2012-10-17 14:00:00,79.2,12.0,2.4,52,0,48.3,100.88,Mostly Cloudy
6975,2012-10-17 15:00:00,80.10000000000001,12.5,2.9,52,4,48.3,100.86,Mostly Cloudy
6976,2012-10-17 16:00:00,80.10000000000001,12.5,3.5,54,4,48.3,100.87,Mostly Cloudy
6977,2012-10-17 17:00:00,78.66000000000001,11.7,4.0,59,11,24.1,100.87,Mostly Cloudy
6978,2012-10-17 18:00:00,77.4,11.0,4.7,65,7,25.0,100.94,Mostly Cloudy
6979,2012-10-17 19:00:00,78.66000000000001,11.7,3.6,58,7,25.0,100.93,Cloudy
6980,2012-10-17 20:00:00,78.66000000000001,11.7,3.2,56,9,25.0,100.92,Mostly Cloudy
6981,2012-10-17 21:00:00,78.48,11.6,3.6,58,11,25.0,100.92,Mostly Cloudy
6982,2012-10-17 22:00:00,78.66000000000001,11.7,4.1,60,7,25.0,100.93,Mostly Cloudy
6983,2012-10-17 23:00:00,77.58,11.1,4.9,66,11,25.0,100.9,Cloudy
6984,2012-10-18 00:00:00,77.58,11.1,4.8,65,6,25.0,100.92,Cloudy
6985,2012-10-18 01:00:00,77.22,10.9,5.2,68,4,25.0,100.92,Cloudy
6986,2012-10-18 02:00:00,77.22,10.9,4.9,66,4,25.0,100.92,Mostly Cloudy
6987,2012-10-18 03:00:00,73.62,8.9,5.3,78,9,25.0,100.91,Mostly Cloudy
6988,2012-10-18 04:00:00,73.98,9.1,5.7,79,11,25.0,100.92,Mostly Cloudy
6989,2012-10-18 05:00:00,74.52,9.4,5.8,78,11,25.0,100.94,Mostly Cloudy
6990,2012-10-18 06:00:00,73.8,9.0,5.8,80,11,48.3,100.96,Mostly Cloudy
6991,2012-10-18 07:00:00,76.86000000000001,10.7,5.1,68,9,48.3,100.98,Mainly Clear
6992,2012-10-18 08:00:00,79.56,12.2,5.7,64,6,48.3,101.02,Mostly Cloudy
6993,2012-10-18 09:00:00,83.52,14.4,6.4,59,15,48.3,100.99,Mainly Clear
6994,2012-10-18 10:00:00,86.58,16.1,6.7,54,15,48.3,100.97,Mainly Clear
6995,2012-10-18 11:00:00,89.82,17.9,6.3,47,15,48.3,100.94,Mainly Clear
6996,2012-10-18 12:00:00,90.53999999999999,18.3,6.3,45,17,48.3,100.9,Mainly Clear
6997,2012-10-18 13:00:00,90.53999999999999,18.3,6.2,45,22,48.3,100.85,Mainly Clear
6998,2012-10-18 14:00:00,92.34,19.3,5.8,41,28,48.3,100.78,Mainly Clear
6999,2012-10-18 15:00:00,91.08,18.6,3.6,37,26,48.3,100.78,Mostly Cloudy
7000,2012-10-18 16:00:00,90.53999999999999,18.3,3.8,38,28,48.3,100.69,Mostly Cloudy
7001,2012-10-18 17:00:00,87.48,16.6,4.7,45,15,48.3,100.74,Mostly Cloudy
7002,2012-10-18 18:00:00,86.4,16.0,5.1,48,17,25.0,100.8,Mostly Cloudy
7003,2012-10-18 19:00:00,85.68,15.6,5.2,50,15,25.0,100.86,Mainly Clear
7004,2012-10-18 20:00:00,84.42,14.9,5.7,54,17,25.0,100.9,Mostly Cloudy
7005,2012-10-18 21:00:00,82.44,13.8,6.0,59,17,25.0,100.95,Mostly Cloudy
7006,2012-10-18 22:00:00,83.52,14.4,5.9,57,19,25.0,100.99,Mostly Cloudy
7007,2012-10-18 23:00:00,80.46000000000001,12.7,5.7,62,15,25.0,100.96,Mostly Cloudy
7008,2012-10-19 00:00:00,79.74,12.3,6.1,66,17,25.0,100.94,Mainly Clear
7009,2012-10-19 01:00:00,78.66000000000001,11.7,5.8,67,17,25.0,100.92,Mainly Clear
7010,2012-10-19 02:00:00,78.66000000000001,11.7,6.0,68,15,25.0,100.92,Mainly Clear
7011,2012-10-19 03:00:00,79.2,12.0,6.0,67,19,25.0,100.94,Cloudy
7012,2012-10-19 04:00:00,79.02,11.9,6.7,70,13,25.0,100.96,Rain Showers
7013,2012-10-19 05:00:00,78.66000000000001,11.7,8.7,82,17,19.3,100.96,Rain Showers
7014,2012-10-19 06:00:00,77.76,11.2,9.8,91,15,9.7,100.91,"Rain,Fog"
7015,2012-10-19 07:00:00,77.94,11.3,9.9,91,17,9.7,101.0,"Rain,Fog"
7016,2012-10-19 08:00:00,78.66000000000001,11.7,10.2,91,13,16.1,100.92,Rain
7017,2012-10-19 09:00:00,80.64,12.8,10.6,86,24,24.1,100.77,Cloudy
7018,2012-10-19 10:00:00,81.18,13.1,11.0,87,24,25.0,100.79,Rain Showers
7019,2012-10-19 11:00:00,80.64,12.8,11.5,92,9,19.3,100.79,Rain
7020,2012-10-19 12:00:00,81.0,13.0,11.5,91,11,16.1,100.77,Rain
7021,2012-10-19 13:00:00,81.18,13.1,11.9,92,17,12.9,100.64,Rain
7022,2012-10-19 14:00:00,81.0,13.0,12.1,94,15,8.0,100.55,"Rain,Fog"
7023,2012-10-19 15:00:00,81.53999999999999,13.3,12.1,92,13,9.7,100.45,"Rain,Fog"
7024,2012-10-19 16:00:00,80.82,12.9,12.3,96,7,3.2,100.45,"Rain,Fog"
7025,2012-10-19 17:00:00,81.18,13.1,12.1,94,17,6.4,100.38,"Rain,Fog"
7026,2012-10-19 18:00:00,81.18,13.1,12.1,94,22,12.9,100.29,Rain
7027,2012-10-19 19:00:00,81.9,13.5,12.4,93,7,9.7,100.29,Rain
7028,2012-10-19 20:00:00,82.44,13.8,12.9,94,19,12.9,100.13,Rain
7029,2012-10-19 21:00:00,82.44,13.8,12.6,92,17,24.1,100.16,Mostly Cloudy
7030,2012-10-19 22:00:00,81.72,13.4,12.3,93,7,16.1,100.15,Cloudy
7031,2012-10-19 23:00:00,81.9,13.5,12.3,92,11,16.1,100.1,Cloudy
7032,2012-10-20 00:00:00,81.36000000000001,13.2,12.3,94,13,16.1,100.02,Cloudy
7033,2012-10-20 01:00:00,80.82,12.9,12.2,96,15,6.4,99.97,Fog
7034,2012-10-20 02:00:00,80.64,12.8,12.2,96,19,4.8,99.84,Fog
7035,2012-10-20 03:00:00,80.64,12.8,12.1,96,13,6.4,99.83,"Rain Showers,Fog"
7036,2012-10-20 04:00:00,79.92,12.4,11.9,97,7,11.3,99.83,Cloudy
7037,2012-10-20 05:00:00,80.10000000000001,12.5,12.0,97,4,8.0,99.84,Fog
7038,2012-10-20 06:00:00,76.68,10.6,10.6,100,4,0.4,99.87,Fog
7039,2012-10-20 07:00:00,78.84,11.8,11.6,99,4,2.4,99.88,Fog
7040,2012-10-20 08:00:00,80.46000000000001,12.7,12.5,99,4,1.0,99.89,Fog
7041,2012-10-20 09:00:00,82.44,13.8,13.2,96,4,9.7,99.89,Fog
7042,2012-10-20 10:00:00,86.4,16.0,13.2,83,15,24.1,99.87,Mainly Clear
7043,2012-10-20 11:00:00,87.12,16.4,12.2,76,19,24.1,99.93,Mostly Cloudy
7044,2012-10-20 12:00:00,90.18,18.1,11.9,67,20,48.3,99.89,Mostly Cloudy
7045,2012-10-20 13:00:00,89.28,17.6,10.6,64,11,48.3,99.75,Mainly Clear
7046,2012-10-20 14:00:00,88.56,17.2,10.4,64,22,48.3,99.79,Mostly Cloudy
7047,2012-10-20 15:00:00,87.12,16.4,8.8,61,22,24.1,99.75,Mostly Cloudy
7048,2012-10-20 16:00:00,82.8,14.0,9.2,73,15,24.1,99.9,Rain Showers
7049,2012-10-20 17:00:00,81.72,13.4,9.2,76,11,24.1,99.95,Rain Showers
7050,2012-10-20 18:00:00,79.74,12.3,7.2,71,19,25.0,100.01,Mainly Clear
7051,2012-10-20 19:00:00,78.48,11.6,5.9,68,20,25.0,100.04,Clear
7052,2012-10-20 20:00:00,76.86000000000001,10.7,5.5,70,17,25.0,100.06,Mainly Clear
7053,2012-10-20 21:00:00,77.4,11.0,6.1,72,13,25.0,100.07,Mainly Clear
7054,2012-10-20 22:00:00,76.5,10.5,6.2,75,11,25.0,100.05,Mainly Clear
7055,2012-10-20 23:00:00,75.96000000000001,10.2,6.4,77,19,25.0,100.05,Mainly Clear
7056,2012-10-21 00:00:00,74.16000000000001,9.2,6.3,82,13,25.0,100.07,Mainly Clear
7057,2012-10-21 01:00:00,75.42,9.9,6.8,81,19,25.0,100.14,Mostly Cloudy
7058,2012-10-21 02:00:00,76.14,10.3,7.2,81,19,25.0,100.15,Cloudy
7059,2012-10-21 03:00:00,76.68,10.6,7.2,79,26,25.0,100.15,Cloudy
7060,2012-10-21 04:00:00,75.96000000000001,10.2,7.1,81,22,25.0,100.15,Mostly Cloudy
7061,2012-10-21 05:00:00,76.5,10.5,7.3,81,24,25.0,100.15,Rain Showers
7062,2012-10-21 06:00:00,75.78,10.1,7.6,84,30,25.0,100.21,Cloudy
7063,2012-10-21 07:00:00,75.24,9.8,7.1,83,28,24.1,100.26,Mostly Cloudy
7064,2012-10-21 08:00:00,75.96000000000001,10.2,6.4,77,35,24.1,100.29,Mostly Cloudy
7065,2012-10-21 09:00:00,76.32,10.4,6.0,74,26,24.1,100.27,Mostly Cloudy
7066,2012-10-21 10:00:00,77.22,10.9,5.8,71,32,24.1,100.31,Mostly Cloudy
7067,2012-10-21 11:00:00,77.76,11.2,5.9,70,33,24.1,100.33,Mostly Cloudy
7068,2012-10-21 12:00:00,80.28,12.6,6.4,66,32,24.1,100.3,Mostly Cloudy
7069,2012-10-21 13:00:00,80.28,12.6,5.6,62,32,24.1,100.3,Cloudy
7070,2012-10-21 14:00:00,80.46000000000001,12.7,5.8,63,28,24.1,100.33,Mostly Cloudy
7071,2012-10-21 15:00:00,79.56,12.2,5.7,64,32,24.1,100.39,Cloudy
7072,2012-10-21 16:00:00,79.2,12.0,5.5,64,30,24.1,100.44,Cloudy
7073,2012-10-21 17:00:00,78.84,11.8,5.7,66,28,25.0,100.51,Cloudy
7074,2012-10-21 18:00:00,78.3,11.5,5.8,68,22,25.0,100.56,Mostly Cloudy
7075,2012-10-21 19:00:00,77.94,11.3,5.6,68,22,25.0,100.6,Mostly Cloudy
7076,2012-10-21 20:00:00,78.12,11.4,5.5,67,20,25.0,100.63,Mostly Cloudy
7077,2012-10-21 21:00:00,76.86000000000001,10.7,5.9,72,22,25.0,100.66,Cloudy
7078,2012-10-21 22:00:00,75.78,10.1,5.3,72,15,25.0,100.72,Mostly Cloudy
7079,2012-10-21 23:00:00,74.34,9.3,4.9,74,17,25.0,100.75,Mostly Cloudy
7080,2012-10-22 00:00:00,73.26,8.7,4.1,73,32,25.0,100.73,Mainly Clear
7081,2012-10-22 01:00:00,72.0,8.0,3.9,75,26,25.0,100.77,Mainly Clear
7082,2012-10-22 02:00:00,71.28,7.6,3.9,77,24,25.0,100.81,Mainly Clear
7083,2012-10-22 03:00:00,70.38000000000001,7.1,3.9,80,17,25.0,100.84,Mainly Clear
7084,2012-10-22 04:00:00,70.92,7.4,4.0,79,19,25.0,100.84,Mainly Clear
7085,2012-10-22 05:00:00,70.92,7.4,4.2,80,24,25.0,100.9,Clear
7086,2012-10-22 06:00:00,70.56,7.2,4.1,81,15,25.0,100.95,Clear
7087,2012-10-22 07:00:00,71.64,7.8,4.4,79,15,24.1,101.0,Mainly Clear
7088,2012-10-22 08:00:00,75.60000000000001,10.0,5.1,72,22,24.1,101.04,Mostly Cloudy
7089,2012-10-22 09:00:00,75.24,9.8,5.3,74,24,24.1,101.08,Mostly Cloudy
7090,2012-10-22 10:00:00,77.76,11.2,5.6,68,26,48.3,101.01,Mainly Clear
7091,2012-10-22 11:00:00,80.46000000000001,12.7,6.3,65,30,48.3,101.06,Mainly Clear
7092,2012-10-22 12:00:00,81.0,13.0,5.6,61,24,48.3,101.03,Mainly Clear
7093,2012-10-22 13:00:00,83.16000000000001,14.2,6.2,59,24,48.3,101.0,Mainly Clear
7094,2012-10-22 14:00:00,83.7,14.5,4.7,52,22,48.3,101.04,Mainly Clear
7095,2012-10-22 15:00:00,83.88000000000001,14.6,5.0,52,28,48.3,101.05,Mainly Clear
7096,2012-10-22 16:00:00,83.34,14.3,4.9,53,15,48.3,101.06,Mainly Clear
7097,2012-10-22 17:00:00,81.36000000000001,13.2,4.7,56,20,24.1,101.11,Mainly Clear
7098,2012-10-22 18:00:00,79.02,11.9,5.4,64,19,25.0,101.16,Mainly Clear
7099,2012-10-22 19:00:00,77.58,11.1,5.7,69,13,25.0,101.21,Clear
7100,2012-10-22 20:00:00,76.14,10.3,5.8,74,13,25.0,101.24,Mainly Clear
7101,2012-10-22 21:00:00,72.72,8.4,5.2,80,9,25.0,101.29,Clear
7102,2012-10-22 22:00:00,72.18,8.1,5.4,83,7,25.0,101.34,Mainly Clear
7103,2012-10-22 23:00:00,69.12,6.4,4.4,87,0,25.0,101.34,Clear
7104,2012-10-23 00:00:00,68.76,6.2,4.1,86,6,25.0,101.36,Clear
7105,2012-10-23 01:00:00,68.03999999999999,5.8,3.8,87,4,25.0,101.38,Clear
7106,2012-10-23 02:00:00,66.42,4.9,3.3,89,9,25.0,101.4,Clear
7107,2012-10-23 03:00:00,66.78,5.1,3.5,89,7,25.0,101.42,Clear
7108,2012-10-23 04:00:00,66.78,5.1,3.5,89,4,25.0,101.47,Clear
7109,2012-10-23 05:00:00,67.32,5.4,3.6,88,6,25.0,101.54,Clear
7110,2012-10-23 06:00:00,66.78,5.1,3.5,89,6,24.1,101.59,Mainly Clear
7111,2012-10-23 07:00:00,65.16000000000001,4.2,2.8,91,0,24.1,101.68,Mainly Clear
7112,2012-10-23 08:00:00,70.02,6.9,4.5,85,11,24.1,101.71,Mostly Cloudy
7113,2012-10-23 09:00:00,74.52,9.4,5.0,74,9,24.1,101.75,Mostly Cloudy
7114,2012-10-23 10:00:00,74.88000000000001,9.6,4.9,72,4,24.1,101.73,Mostly Cloudy
7115,2012-10-23 11:00:00,77.22,10.9,4.6,65,0,24.1,101.69,Mostly Cloudy
7116,2012-10-23 12:00:00,77.58,11.1,3.8,61,0,24.1,101.62,Mainly Clear
7117,2012-10-23 13:00:00,79.56,12.2,3.8,56,4,24.1,101.59,Mostly Cloudy
7118,2012-10-23 14:00:00,81.18,13.1,3.8,53,6,24.1,101.58,Mostly Cloudy
7119,2012-10-23 15:00:00,79.74,12.3,4.3,58,11,24.1,101.57,Mostly Cloudy
7120,2012-10-23 16:00:00,79.02,11.9,4.0,58,11,24.1,101.57,Mostly Cloudy
7121,2012-10-23 17:00:00,77.22,10.9,3.6,61,9,24.1,101.6,Mainly Clear
7122,2012-10-23 18:00:00,71.82,7.9,3.5,74,0,25.0,101.64,Mainly Clear
7123,2012-10-23 19:00:00,73.08,8.6,3.3,69,0,25.0,101.7,Mainly Clear
7124,2012-10-23 20:00:00,70.2,7.0,2.9,75,0,25.0,101.72,Mainly Clear
7125,2012-10-23 21:00:00,70.02,6.9,2.6,74,0,25.0,101.73,Mainly Clear
7126,2012-10-23 22:00:00,69.84,6.8,3.9,82,7,25.0,101.76,Mainly Clear
7127,2012-10-23 23:00:00,71.46000000000001,7.7,0.2,59,13,25.0,101.79,Clear
7128,2012-10-24 00:00:00,70.74,7.3,-1.4,54,13,25.0,101.81,Clear
7129,2012-10-24 01:00:00,66.78,5.1,-1.0,65,13,25.0,101.83,Clear
7130,2012-10-24 02:00:00,64.8,4.0,-1.2,69,7,25.0,101.9,Clear
7131,2012-10-24 03:00:00,66.42,4.9,-0.9,66,7,25.0,101.9,Clear
7132,2012-10-24 04:00:00,61.2,2.0,-1.5,78,9,25.0,101.91,Clear
7133,2012-10-24 05:00:00,62.28,2.6,-1.5,74,9,25.0,101.93,Clear
7134,2012-10-24 06:00:00,61.019999999999996,1.9,-1.4,79,7,48.3,101.94,Clear
7135,2012-10-24 07:00:00,62.28,2.6,-0.8,78,11,48.3,101.99,Clear
7136,2012-10-24 08:00:00,68.03999999999999,5.8,-0.7,63,11,48.3,102.03,Clear
7137,2012-10-24 09:00:00,70.2,7.0,-0.5,59,15,48.3,102.02,Mainly Clear
7138,2012-10-24 10:00:00,70.56,7.2,-1.9,52,17,48.3,102.0,Mostly Cloudy
7139,2012-10-24 11:00:00,72.18,8.1,-0.9,53,11,48.3,101.93,Mostly Cloudy
7140,2012-10-24 12:00:00,73.98,9.1,-0.3,52,11,48.3,101.86,Mostly Cloudy
7141,2012-10-24 13:00:00,76.68,10.6,-0.6,46,6,48.3,101.79,Mainly Clear
7142,2012-10-24 14:00:00,78.66000000000001,11.7,-1.7,39,6,48.3,101.75,Mostly Cloudy
7143,2012-10-24 15:00:00,79.56,12.2,-2.1,37,11,48.3,101.73,Mostly Cloudy
7144,2012-10-24 16:00:00,77.94,11.3,-2.1,39,11,48.3,101.75,Mostly Cloudy
7145,2012-10-24 17:00:00,77.22,10.9,-2.2,40,17,48.3,101.78,Mostly Cloudy
7146,2012-10-24 18:00:00,76.68,10.6,-0.3,47,13,25.0,101.83,Cloudy
7147,2012-10-24 19:00:00,76.14,10.3,0.1,49,7,25.0,101.82,Mostly Cloudy
7148,2012-10-24 20:00:00,75.78,10.1,-1.2,45,11,25.0,101.85,Mostly Cloudy
7149,2012-10-24 21:00:00,75.60000000000001,10.0,-2.3,42,6,25.0,101.88,Mostly Cloudy
7150,2012-10-24 22:00:00,74.52,9.4,-2.1,44,9,25.0,101.87,Mostly Cloudy
7151,2012-10-24 23:00:00,74.88000000000001,9.6,-2.5,43,15,25.0,101.9,Mostly Cloudy
7152,2012-10-25 00:00:00,74.7,9.5,-2.6,43,17,25.0,101.9,Cloudy
7153,2012-10-25 01:00:00,74.16000000000001,9.2,-1.8,46,15,25.0,101.92,Mostly Cloudy
7154,2012-10-25 02:00:00,72.72,8.4,-0.9,52,15,25.0,101.89,Mostly Cloudy
7155,2012-10-25 03:00:00,70.74,7.3,-0.5,58,13,25.0,101.84,Mainly Clear
7156,2012-10-25 04:00:00,70.02,6.9,-0.5,59,15,25.0,101.85,Mainly Clear
7157,2012-10-25 05:00:00,67.86000000000001,5.7,0.2,68,17,25.0,101.89,Mostly Cloudy
7158,2012-10-25 06:00:00,64.98,4.1,0.6,78,17,24.1,101.9,Mainly Clear
7159,2012-10-25 07:00:00,65.88000000000001,4.6,1.5,80,19,24.1,101.93,Mostly Cloudy
7160,2012-10-25 08:00:00,66.96000000000001,5.2,1.5,77,22,48.3,101.94,Mostly Cloudy
7161,2012-10-25 09:00:00,69.12,6.4,-0.3,62,17,48.3,101.97,Mostly Cloudy
7162,2012-10-25 10:00:00,72.0,8.0,0.3,58,9,48.3,101.89,Cloudy
7163,2012-10-25 11:00:00,73.98,9.1,0.9,56,11,24.1,101.89,Cloudy
7164,2012-10-25 12:00:00,77.94,11.3,1.4,50,13,24.1,101.77,Cloudy
7165,2012-10-25 13:00:00,80.64,12.8,2.8,51,11,24.1,101.71,Cloudy
7166,2012-10-25 14:00:00,80.64,12.8,2.9,51,17,24.1,101.66,Mostly Cloudy
7167,2012-10-25 15:00:00,81.9,13.5,3.5,51,19,24.1,101.59,Mainly Clear
7168,2012-10-25 16:00:00,81.53999999999999,13.3,4.2,54,15,24.1,101.59,Mostly Cloudy
7169,2012-10-25 17:00:00,80.28,12.6,4.1,56,19,24.1,101.55,Mostly Cloudy
7170,2012-10-25 18:00:00,78.84,11.8,4.9,63,15,25.0,101.54,Mostly Cloudy
7171,2012-10-25 19:00:00,78.12,11.4,5.5,67,15,25.0,101.53,Clear
7172,2012-10-25 20:00:00,77.4,11.0,5.9,71,15,25.0,101.51,Clear
7173,2012-10-25 21:00:00,75.60000000000001,10.0,5.7,75,13,25.0,101.51,Clear
7174,2012-10-25 22:00:00,75.24,9.8,6.4,79,13,25.0,101.47,Clear
7175,2012-10-25 23:00:00,74.34,9.3,6.6,83,9,25.0,101.45,Clear
7176,2012-10-26 00:00:00,73.62,8.9,6.4,84,9,25.0,101.47,Clear
7177,2012-10-26 01:00:00,72.9,8.5,6.4,87,7,25.0,101.49,Mostly Cloudy
7178,2012-10-26 02:00:00,72.53999999999999,8.3,6.4,88,11,25.0,101.5,Mainly Clear
7179,2012-10-26 03:00:00,71.46000000000001,7.7,6.4,91,7,25.0,101.49,Clear
7180,2012-10-26 04:00:00,70.56,7.2,5.2,87,7,25.0,101.48,Clear
7181,2012-10-26 05:00:00,70.2,7.0,5.0,87,9,16.1,101.52,Clear
7182,2012-10-26 06:00:00,70.02,6.9,4.8,86,11,16.1,101.53,Clear
7183,2012-10-26 07:00:00,69.66000000000001,6.7,4.5,86,11,19.3,101.57,Clear
7184,2012-10-26 08:00:00,73.98,9.1,6.2,82,6,16.1,101.6,Clear
7185,2012-10-26 09:00:00,78.66000000000001,11.7,7.9,77,7,16.1,101.6,Clear
7186,2012-10-26 10:00:00,84.78,15.1,9.8,71,6,16.1,101.54,Clear
7187,2012-10-26 11:00:00,90.18,18.1,12.7,71,4,16.1,101.51,Clear
7188,2012-10-26 12:00:00,93.24,19.8,12.9,64,9,16.1,101.43,Clear
7189,2012-10-26 13:00:00,95.22,20.9,13.3,62,11,19.3,101.36,Clear
7190,2012-10-26 14:00:00,95.58,21.1,13.0,60,9,19.3,101.36,Clear
7191,2012-10-26 15:00:00,94.32,20.4,13.1,63,13,24.1,101.35,Clear
7192,2012-10-26 16:00:00,90.36000000000001,18.2,12.3,68,19,24.1,101.3,Clear
7193,2012-10-26 17:00:00,85.86000000000001,15.7,11.6,77,9,24.1,101.33,Mainly Clear
7194,2012-10-26 18:00:00,84.06,14.7,11.3,80,11,25.0,101.36,Mainly Clear
7195,2012-10-26 19:00:00,81.9,13.5,11.0,85,7,25.0,101.39,Mainly Clear
7196,2012-10-26 20:00:00,83.16000000000001,14.2,11.2,82,15,19.3,101.38,Mostly Cloudy
7197,2012-10-26 21:00:00,81.18,13.1,10.9,86,9,25.0,101.38,Mainly Clear
7198,2012-10-26 22:00:00,81.0,13.0,10.9,87,4,19.3,101.41,Mainly Clear
7199,2012-10-26 23:00:00,80.46000000000001,12.7,10.9,89,9,16.1,101.4,Mainly Clear
7200,2012-10-27 00:00:00,79.02,11.9,10.7,92,4,16.1,101.42,Mostly Cloudy
7201,2012-10-27 01:00:00,79.38000000000001,12.1,10.8,92,4,16.1,101.42,Cloudy
7202,2012-10-27 02:00:00,78.84,11.8,10.8,94,6,19.3,101.41,Cloudy
7203,2012-10-27 03:00:00,79.56,12.2,10.9,92,4,16.1,101.39,Cloudy
7204,2012-10-27 04:00:00,79.38000000000001,12.1,10.9,92,0,12.9,101.38,Cloudy
7205,2012-10-27 05:00:00,78.66000000000001,11.7,10.7,94,9,8.0,101.38,Fog
7206,2012-10-27 06:00:00,79.02,11.9,10.6,92,9,9.7,101.41,Fog
7207,2012-10-27 07:00:00,79.74,12.3,10.8,91,6,4.0,101.42,Fog
7208,2012-10-27 08:00:00,80.46000000000001,12.7,10.8,88,11,6.4,101.46,Fog
7209,2012-10-27 09:00:00,80.10000000000001,12.5,10.9,90,17,2.4,101.42,Fog
7210,2012-10-27 10:00:00,79.92,12.4,10.9,91,15,2.8,101.4,Fog
7211,2012-10-27 11:00:00,81.72,13.4,11.1,86,11,6.4,101.35,Fog
7212,2012-10-27 12:00:00,82.98,14.1,11.1,82,17,6.4,101.26,Haze
7213,2012-10-27 13:00:00,83.16000000000001,14.2,10.6,79,15,12.9,101.2,Cloudy
7214,2012-10-27 14:00:00,83.52,14.4,9.9,74,15,24.1,101.14,Cloudy
7215,2012-10-27 15:00:00,83.88000000000001,14.6,9.5,71,17,24.1,101.1,Cloudy
7216,2012-10-27 16:00:00,83.88000000000001,14.6,9.1,70,15,24.1,101.08,Mostly Cloudy
7217,2012-10-27 17:00:00,82.62,13.9,9.3,74,9,24.1,101.09,Mostly Cloudy
7218,2012-10-27 18:00:00,81.9,13.5,9.3,76,9,25.0,101.15,Cloudy
7219,2012-10-27 19:00:00,82.26,13.7,8.8,72,11,25.0,101.13,Cloudy
7220,2012-10-27 20:00:00,81.9,13.5,7.5,67,11,25.0,101.15,Cloudy
7221,2012-10-27 21:00:00,81.53999999999999,13.3,7.4,67,11,25.0,101.14,Mostly Cloudy
7222,2012-10-27 22:00:00,80.64,12.8,7.8,72,13,25.0,101.13,Mostly Cloudy
7223,2012-10-27 23:00:00,79.2,12.0,8.4,79,11,25.0,101.14,Mostly Cloudy
7224,2012-10-28 00:00:00,77.4,11.0,8.4,84,15,25.0,101.18,Mostly Cloudy
7225,2012-10-28 01:00:00,76.32,10.4,7.4,82,15,25.0,101.19,Mostly Cloudy
7226,2012-10-28 02:00:00,75.42,9.9,6.8,81,11,25.0,101.22,Cloudy
7227,2012-10-28 03:00:00,75.24,9.8,6.6,80,9,25.0,101.25,Cloudy
7228,2012-10-28 04:00:00,74.7,9.5,6.5,82,13,25.0,101.23,Mostly Cloudy
7229,2012-10-28 05:00:00,74.88000000000001,9.6,6.7,82,7,25.0,101.28,Cloudy
7230,2012-10-28 06:00:00,75.06,9.7,6.7,82,7,25.0,101.29,Cloudy
7231,2012-10-28 07:00:00,74.7,9.5,6.9,84,7,24.1,101.36,Cloudy
7232,2012-10-28 08:00:00,75.42,9.9,7.4,84,7,24.1,101.38,Cloudy
7233,2012-10-28 09:00:00,77.03999999999999,10.8,7.9,82,11,24.1,101.34,Cloudy
7234,2012-10-28 10:00:00,78.12,11.4,8.3,81,9,24.1,101.32,Cloudy
7235,2012-10-28 11:00:00,79.2,12.0,8.1,77,11,24.1,101.31,Cloudy
7236,2012-10-28 12:00:00,80.82,12.9,8.4,74,20,24.1,101.2,Cloudy
7237,2012-10-28 13:00:00,80.82,12.9,7.8,71,15,24.1,101.19,Cloudy
7238,2012-10-28 14:00:00,81.0,13.0,6.8,66,20,24.1,101.13,Cloudy
7239,2012-10-28 15:00:00,81.18,13.1,6.0,62,20,24.1,101.06,Cloudy
7240,2012-10-28 16:00:00,80.82,12.9,5.9,62,22,24.1,101.06,Cloudy
7241,2012-10-28 17:00:00,80.46000000000001,12.7,6.3,65,26,25.0,101.01,Cloudy
7242,2012-10-28 18:00:00,80.82,12.9,6.9,67,24,25.0,101.0,Cloudy
7243,2012-10-28 19:00:00,80.46000000000001,12.7,7.4,70,28,25.0,100.99,Cloudy
7244,2012-10-28 20:00:00,79.74,12.3,7.4,72,24,25.0,101.02,Cloudy
7245,2012-10-28 21:00:00,78.48,11.6,7.4,75,24,25.0,101.03,Cloudy
7246,2012-10-28 22:00:00,77.4,11.0,7.4,78,32,25.0,101.01,Mostly Cloudy
7247,2012-10-28 23:00:00,76.14,10.3,7.1,81,26,25.0,100.98,Cloudy
7248,2012-10-29 00:00:00,75.42,9.9,7.0,82,22,25.0,100.95,Mostly Cloudy
7249,2012-10-29 01:00:00,74.7,9.5,6.9,84,26,25.0,100.89,Mostly Cloudy
7250,2012-10-29 02:00:00,74.16000000000001,9.2,6.6,84,26,25.0,100.82,Mostly Cloudy
7251,2012-10-29 03:00:00,74.88000000000001,9.6,7.0,84,24,25.0,100.79,Cloudy
7252,2012-10-29 04:00:00,75.42,9.9,7.2,83,30,25.0,100.77,Mostly Cloudy
7253,2012-10-29 05:00:00,74.88000000000001,9.6,7.4,86,20,25.0,100.76,Cloudy
7254,2012-10-29 06:00:00,75.96000000000001,10.2,7.4,83,33,25.0,100.72,Cloudy
7255,2012-10-29 07:00:00,75.78,10.1,7.5,84,26,24.1,100.7,Cloudy
7256,2012-10-29 08:00:00,76.86000000000001,10.7,7.8,82,24,24.1,100.67,Cloudy
7257,2012-10-29 09:00:00,79.02,11.9,8.5,80,26,24.1,100.61,Cloudy
7258,2012-10-29 10:00:00,80.82,12.9,8.7,76,28,24.1,100.57,Cloudy
7259,2012-10-29 11:00:00,83.34,14.3,9.4,72,32,24.1,100.48,Cloudy
7260,2012-10-29 12:00:00,85.32,15.4,9.8,69,26,24.1,100.35,Cloudy
7261,2012-10-29 13:00:00,87.3,16.5,9.7,64,33,24.1,100.24,Cloudy
7262,2012-10-29 14:00:00,87.48,16.6,9.9,65,44,24.1,100.13,Cloudy
7263,2012-10-29 15:00:00,87.48,16.6,9.6,63,33,24.1,100.09,Cloudy
7264,2012-10-29 16:00:00,84.96000000000001,15.2,9.8,70,48,24.1,100.04,Cloudy
7265,2012-10-29 17:00:00,83.16000000000001,14.2,9.4,73,48,24.1,99.94,Cloudy
7266,2012-10-29 18:00:00,83.16000000000001,14.2,9.2,72,44,25.0,99.83,Mostly Cloudy
7267,2012-10-29 19:00:00,82.8,14.0,9.6,75,50,25.0,99.65,Mostly Cloudy
7268,2012-10-29 20:00:00,83.34,14.3,9.7,74,52,25.0,99.55,Cloudy
7269,2012-10-29 21:00:00,82.8,14.0,9.7,75,48,25.0,99.46,Mostly Cloudy
7270,2012-10-29 22:00:00,83.16000000000001,14.2,9.8,75,50,25.0,99.37,Cloudy
7271,2012-10-29 23:00:00,82.98,14.1,10.0,76,54,25.0,99.33,Cloudy
7272,2012-10-30 00:00:00,83.88000000000001,14.6,10.2,75,41,25.0,99.28,Cloudy
7273,2012-10-30 01:00:00,83.88000000000001,14.6,10.4,76,52,25.0,99.23,Mostly Cloudy
7274,2012-10-30 02:00:00,82.98,14.1,10.3,78,37,25.0,99.31,Mostly Cloudy
7275,2012-10-30 03:00:00,82.62,13.9,10.6,80,41,25.0,99.21,Rain Showers
7276,2012-10-30 04:00:00,82.44,13.8,10.4,80,35,25.0,99.28,Mostly Cloudy
7277,2012-10-30 05:00:00,82.26,13.7,10.5,81,37,25.0,99.32,Mainly Clear
7278,2012-10-30 06:00:00,82.08,13.6,10.5,82,37,25.0,99.31,Rain Showers
7279,2012-10-30 07:00:00,84.60000000000001,15.0,11.1,77,30,19.3,99.45,Rain Showers
7280,2012-10-30 08:00:00,85.86000000000001,15.7,12.0,79,26,24.1,99.5,Mostly Cloudy
7281,2012-10-30 09:00:00,85.32,15.4,12.7,84,22,24.1,99.52,Mostly Cloudy
7282,2012-10-30 10:00:00,86.58,16.1,13.3,83,28,24.1,99.57,Mostly Cloudy
7283,2012-10-30 11:00:00,84.78,15.1,13.8,92,22,4.0,99.6,Rain
7284,2012-10-30 12:00:00,86.58,16.1,14.5,90,17,24.1,99.53,Mostly Cloudy
7285,2012-10-30 13:00:00,93.24,19.8,14.7,72,28,24.1,99.44,Mainly Clear
7286,2012-10-30 14:00:00,94.32,20.4,13.2,63,28,24.1,99.5,Mainly Clear
7287,2012-10-30 15:00:00,95.22,20.9,11.8,56,33,24.1,99.47,Mainly Clear
7288,2012-10-30 16:00:00,94.68,20.6,9.9,50,20,24.1,99.49,Mainly Clear
7289,2012-10-30 17:00:00,93.06,19.7,9.3,51,17,24.1,99.54,Mainly Clear
7290,2012-10-30 18:00:00,92.16000000000001,19.2,10.4,57,17,25.0,99.61,Mostly Cloudy
7291,2012-10-30 19:00:00,91.44,18.8,11.2,61,28,25.0,99.61,Mostly Cloudy
7292,2012-10-30 20:00:00,91.08,18.6,12.5,68,26,25.0,99.57,Rain Showers
7293,2012-10-30 21:00:00,87.84,16.8,13.5,81,26,19.3,99.6,Rain
7294,2012-10-30 22:00:00,84.60000000000001,15.0,13.9,93,17,25.0,99.49,Cloudy
7295,2012-10-30 23:00:00,85.68,15.6,14.0,90,11,25.0,99.45,Rain Showers
7296,2012-10-31 00:00:00,84.60000000000001,15.0,13.9,93,9,16.1,99.43,Rain Showers
7297,2012-10-31 01:00:00,84.42,14.9,13.6,92,9,25.0,99.36,Mainly Clear
7298,2012-10-31 02:00:00,82.26,13.7,12.7,94,11,25.0,99.41,Mainly Clear
7299,2012-10-31 03:00:00,82.26,13.7,12.5,92,11,25.0,99.43,Mainly Clear
7300,2012-10-31 04:00:00,82.44,13.8,11.6,87,13,25.0,99.37,Mainly Clear
7301,2012-10-31 05:00:00,82.08,13.6,11.2,85,17,25.0,99.34,Mainly Clear
7302,2012-10-31 06:00:00,82.8,14.0,10.1,77,11,25.0,99.24,Mostly Cloudy
7303,2012-10-31 07:00:00,78.48,11.6,10.4,92,11,24.1,99.26,Mostly Cloudy
7304,2012-10-31 08:00:00,82.8,14.0,12.1,88,17,24.1,99.22,Mostly Cloudy
7305,2012-10-31 09:00:00,83.88000000000001,14.6,12.7,88,15,19.3,99.16,Cloudy
7306,2012-10-31 10:00:00,83.88000000000001,14.6,12.9,90,19,16.1,99.14,Cloudy
7307,2012-10-31 11:00:00,84.24,14.8,13.7,93,11,9.7,99.12,Rain Showers
7308,2012-10-31 12:00:00,77.03999999999999,10.8,9.4,91,24,24.1,99.2,Cloudy
7309,2012-10-31 13:00:00,75.96000000000001,10.2,8.5,89,20,24.1,99.26,Rain Showers
7310,2012-10-31 14:00:00,76.14,10.3,8.8,90,11,12.9,99.28,Drizzle
7311,2012-10-31 15:00:00,75.96000000000001,10.2,8.6,90,4,24.1,99.28,Rain Showers
7312,2012-10-31 16:00:00,75.96000000000001,10.2,8.6,90,4,24.1,99.26,Cloudy
7313,2012-10-31 17:00:00,75.06,9.7,8.1,90,15,24.1,99.31,Cloudy
7314,2012-10-31 18:00:00,73.44,8.8,7.4,91,13,25.0,99.37,Cloudy
7315,2012-10-31 19:00:00,72.9,8.5,6.6,88,7,25.0,99.37,Mostly Cloudy
7316,2012-10-31 20:00:00,72.72,8.4,6.3,87,7,25.0,99.4,Mostly Cloudy
7317,2012-10-31 21:00:00,72.18,8.1,6.5,90,0,25.0,99.39,Rain Showers
7318,2012-10-31 22:00:00,71.64,7.8,6.7,93,0,25.0,99.4,Mostly Cloudy
7319,2012-10-31 23:00:00,72.18,8.1,6.4,89,4,25.0,99.38,Cloudy
7320,2012-11-01 00:00:00,71.64,7.8,6.8,93,7,25.0,99.39,Mostly Cloudy
7321,2012-11-01 01:00:00,71.28,7.6,6.8,95,6,25.0,99.37,Cloudy
7322,2012-11-01 02:00:00,71.28,7.6,6.2,91,4,25.0,99.35,Rain Showers
7323,2012-11-01 03:00:00,70.74,7.3,5.5,88,6,19.3,99.33,Rain Showers
7324,2012-11-01 04:00:00,71.46000000000001,7.7,4.7,81,0,25.0,99.32,Rain Showers
7325,2012-11-01 05:00:00,71.46000000000001,7.7,5.0,83,4,25.0,99.32,Rain
7326,2012-11-01 06:00:00,70.92,7.4,5.4,87,4,25.0,99.31,Cloudy
7327,2012-11-01 07:00:00,70.74,7.3,4.7,84,7,24.1,99.32,Rain
7328,2012-11-01 08:00:00,70.56,7.2,4.5,83,9,24.1,99.33,Rain
7329,2012-11-01 09:00:00,71.28,7.6,5.6,87,9,24.1,99.34,Rain
7330,2012-11-01 10:00:00,71.46000000000001,7.7,5.1,84,9,24.1,99.31,Cloudy
7331,2012-11-01 11:00:00,72.18,8.1,4.7,79,11,24.1,99.29,Cloudy
7332,2012-11-01 12:00:00,72.72,8.4,4.9,79,13,24.1,99.25,Cloudy
7333,2012-11-01 13:00:00,72.72,8.4,4.9,79,15,24.1,99.22,Rain
7334,2012-11-01 14:00:00,72.72,8.4,5.3,81,17,19.3,99.22,Drizzle
7335,2012-11-01 15:00:00,71.46000000000001,7.7,6.0,89,11,12.9,99.22,Rain
7336,2012-11-01 16:00:00,72.0,8.0,6.2,88,17,19.3,99.23,Rain
7337,2012-11-01 17:00:00,72.18,8.1,5.9,86,17,16.1,99.26,Rain
7338,2012-11-01 18:00:00,71.10000000000001,7.5,4.4,81,28,25.0,99.3,Cloudy
7339,2012-11-01 19:00:00,70.02,6.9,4.7,86,22,25.0,99.33,Rain
7340,2012-11-01 20:00:00,69.66000000000001,6.7,4.8,88,24,25.0,99.33,Rain
7341,2012-11-01 21:00:00,69.12,6.4,4.5,88,22,25.0,99.35,Rain
7342,2012-11-01 22:00:00,67.68,5.6,3.6,87,20,25.0,99.37,Rain
7343,2012-11-01 23:00:00,67.5,5.5,2.9,83,19,25.0,99.38,Rain
7344,2012-11-02 00:00:00,67.14,5.3,2.8,84,19,25.0,99.4,Cloudy
7345,2012-11-02 01:00:00,66.78,5.1,2.6,84,20,25.0,99.42,Cloudy
7346,2012-11-02 02:00:00,66.60000000000001,5.0,2.6,84,22,25.0,99.45,Cloudy
7347,2012-11-02 03:00:00,66.24,4.8,2.8,87,24,25.0,99.45,Cloudy
7348,2012-11-02 04:00:00,66.06,4.7,2.5,86,20,25.0,99.46,Cloudy
7349,2012-11-02 05:00:00,66.24,4.8,2.9,87,19,25.0,99.46,Rain Showers
7350,2012-11-02 06:00:00,65.52,4.4,2.6,88,20,25.0,99.48,Rain
7351,2012-11-02 07:00:00,64.98,4.1,2.4,89,19,25.0,99.53,Rain
7352,2012-11-02 08:00:00,64.62,3.9,2.5,91,17,24.1,99.58,Rain
7353,2012-11-02 09:00:00,64.26,3.7,2.1,89,22,24.1,99.61,Rain
7354,2012-11-02 10:00:00,64.62,3.9,2.4,90,20,24.1,99.64,Rain
7355,2012-11-02 11:00:00,65.16000000000001,4.2,2.8,91,22,24.1,99.67,Drizzle
7356,2012-11-02 12:00:00,65.34,4.3,2.9,91,15,24.1,99.68,Drizzle
7357,2012-11-02 13:00:00,65.34,4.3,3.1,92,20,24.1,99.7,Drizzle
7358,2012-11-02 14:00:00,65.88000000000001,4.6,3.3,91,20,24.1,99.7,Cloudy
7359,2012-11-02 15:00:00,66.24,4.8,3.4,91,19,24.1,99.74,Cloudy
7360,2012-11-02 16:00:00,66.42,4.9,3.6,91,22,19.3,99.78,Cloudy
7361,2012-11-02 17:00:00,67.14,5.3,3.7,89,19,25.0,99.81,Cloudy
7362,2012-11-02 18:00:00,67.86000000000001,5.7,4.0,89,15,25.0,99.87,Cloudy
7363,2012-11-02 19:00:00,68.22,5.9,4.2,89,19,25.0,99.9,Rain Showers
7364,2012-11-02 20:00:00,68.03999999999999,5.8,3.7,86,17,25.0,99.94,Rain Showers
7365,2012-11-02 21:00:00,67.86000000000001,5.7,3.1,83,17,25.0,99.96,Cloudy
7366,2012-11-02 22:00:00,67.68,5.6,3.1,84,13,25.0,100.0,Rain Showers
7367,2012-11-02 23:00:00,67.68,5.6,2.8,82,13,25.0,100.02,Rain Showers
7368,2012-11-03 00:00:00,67.14,5.3,2.3,81,17,25.0,100.06,Rain Showers
7369,2012-11-03 01:00:00,66.42,4.9,2.2,83,13,25.0,100.1,Rain
7370,2012-11-03 02:00:00,66.06,4.7,1.9,82,17,25.0,100.13,Rain
7371,2012-11-03 03:00:00,65.7,4.5,1.2,79,17,25.0,100.14,Cloudy
7372,2012-11-03 04:00:00,64.98,4.1,0.9,80,20,25.0,100.17,Mostly Cloudy
7373,2012-11-03 05:00:00,64.8,4.0,0.7,79,19,25.0,100.22,Cloudy
7374,2012-11-03 06:00:00,64.26,3.7,0.2,78,17,25.0,100.27,Mostly Cloudy
7375,2012-11-03 07:00:00,63.9,3.5,0.3,80,20,24.1,100.33,Cloudy
7376,2012-11-03 08:00:00,65.16000000000001,4.2,1.2,81,20,24.1,100.39,Cloudy
7377,2012-11-03 09:00:00,66.24,4.8,1.0,76,22,25.0,100.42,Cloudy
7378,2012-11-03 10:00:00,66.78,5.1,1.6,78,22,24.1,100.45,Rain Showers
7379,2012-11-03 11:00:00,67.14,5.3,2.2,80,24,24.1,100.45,Rain Showers
7380,2012-11-03 12:00:00,67.32,5.4,2.0,79,22,24.1,100.45,Drizzle
7381,2012-11-03 13:00:00,66.78,5.1,2.6,84,22,24.1,100.46,Drizzle
7382,2012-11-03 14:00:00,67.5,5.5,2.6,82,20,24.1,100.47,Drizzle
7383,2012-11-03 15:00:00,67.32,5.4,2.7,83,24,24.1,100.52,Drizzle
7384,2012-11-03 16:00:00,66.60000000000001,5.0,2.7,85,20,24.1,100.57,Drizzle
7385,2012-11-03 17:00:00,66.60000000000001,5.0,2.3,83,20,24.1,100.62,Drizzle
7386,2012-11-03 18:00:00,66.06,4.7,2.4,85,13,25.0,100.66,Drizzle
7387,2012-11-03 19:00:00,66.24,4.8,2.3,84,15,25.0,100.69,Drizzle
7388,2012-11-03 20:00:00,66.60000000000001,5.0,1.6,79,17,25.0,100.73,Cloudy
7389,2012-11-03 21:00:00,66.60000000000001,5.0,0.9,75,15,25.0,100.76,Cloudy
7390,2012-11-03 22:00:00,66.06,4.7,0.5,74,17,25.0,100.79,Cloudy
7391,2012-11-03 23:00:00,65.34,4.3,-0.1,73,17,25.0,100.82,Cloudy
7392,2012-11-04 00:00:00,64.44,3.8,-0.3,75,15,25.0,100.85,Mostly Cloudy
7393,2012-11-04 01:00:00,63.36000000000001,3.2,-0.7,76,11,25.0,100.87,Mostly Cloudy
7394,2012-11-04 02:00:00,63.0,3.0,-1.3,73,15,25.0,100.88,Mostly Cloudy
7395,2012-11-04 03:00:00,63.18000000000001,3.1,-1.2,73,17,25.0,100.88,Mostly Cloudy
7396,2012-11-04 04:00:00,62.82,2.9,-0.9,76,19,25.0,100.9,Cloudy
7397,2012-11-04 05:00:00,63.0,3.0,-1.0,75,15,25.0,100.96,Cloudy
7398,2012-11-04 06:00:00,63.0,3.0,-1.6,72,17,25.0,100.99,Cloudy
7399,2012-11-04 07:00:00,62.63999999999999,2.8,-1.9,71,15,25.0,101.05,Cloudy
7400,2012-11-04 08:00:00,61.56000000000001,2.2,-1.2,78,17,24.1,101.11,"Rain Showers,Snow Showers"
7401,2012-11-04 09:00:00,62.82,2.9,-1.2,74,17,24.1,101.12,Snow Showers
7402,2012-11-04 10:00:00,63.0,3.0,-2.2,69,19,24.1,101.1,Mostly Cloudy
7403,2012-11-04 11:00:00,63.54,3.3,-2.3,67,13,24.1,101.08,Cloudy
7404,2012-11-04 12:00:00,64.26,3.7,-2.4,64,13,24.1,101.07,Cloudy
7405,2012-11-04 13:00:00,63.72,3.4,-2.6,65,11,24.1,101.09,Cloudy
7406,2012-11-04 14:00:00,63.72,3.4,-3.3,61,15,24.1,101.08,Cloudy
7407,2012-11-04 15:00:00,64.08,3.6,-3.9,58,17,24.1,101.08,Cloudy
7408,2012-11-04 16:00:00,63.9,3.5,-4.5,56,13,24.1,101.12,Cloudy
7409,2012-11-04 17:00:00,63.36000000000001,3.2,-4.1,59,13,24.1,101.17,Cloudy
7410,2012-11-04 18:00:00,63.0,3.0,-4.5,58,11,25.0,101.21,Cloudy
7411,2012-11-04 19:00:00,62.1,2.5,-4.3,61,9,25.0,101.25,Cloudy
7412,2012-11-04 20:00:00,61.56000000000001,2.2,-5.2,58,13,25.0,101.28,Cloudy
7413,2012-11-04 21:00:00,61.2,2.0,-5.1,59,13,25.0,101.3,Cloudy
7414,2012-11-04 22:00:00,60.839999999999996,1.8,-5.1,60,9,25.0,101.3,Cloudy
7415,2012-11-04 23:00:00,60.660000000000004,1.7,-5.0,61,11,25.0,101.27,Cloudy
7416,2012-11-05 00:00:00,60.300000000000004,1.5,-4.9,62,9,25.0,101.28,Cloudy
7417,2012-11-05 01:00:00,59.760000000000005,1.2,-4.8,64,11,25.0,101.27,Cloudy
7418,2012-11-05 02:00:00,59.94,1.3,-6.0,58,17,25.0,101.29,Cloudy
7419,2012-11-05 03:00:00,59.04,0.8,-7.7,53,17,25.0,101.29,Cloudy
7420,2012-11-05 04:00:00,58.32,0.4,-7.0,58,13,25.0,101.32,Cloudy
7421,2012-11-05 05:00:00,55.62,-1.1,-6.7,66,11,25.0,101.34,Mostly Cloudy
7422,2012-11-05 06:00:00,56.519999999999996,-0.6,-5.1,72,11,25.0,101.38,Mostly Cloudy
7423,2012-11-05 07:00:00,57.06,-0.3,-5.9,66,15,24.1,101.4,Mostly Cloudy
7424,2012-11-05 08:00:00,56.7,-0.5,-5.8,67,15,24.1,101.45,Mainly Clear
7425,2012-11-05 09:00:00,59.04,0.8,-6.0,60,17,24.1,101.46,Mainly Clear
7426,2012-11-05 10:00:00,60.839999999999996,1.8,-7.0,52,17,48.3,101.49,Mainly Clear
7427,2012-11-05 11:00:00,60.660000000000004,1.7,-7.4,51,17,48.3,101.47,Mostly Cloudy
7428,2012-11-05 12:00:00,60.839999999999996,1.8,-7.7,49,15,48.3,101.44,Mostly Cloudy
7429,2012-11-05 13:00:00,61.019999999999996,1.9,-8.2,47,17,48.3,101.44,Mostly Cloudy
7430,2012-11-05 14:00:00,60.839999999999996,1.8,-8.3,47,15,48.3,101.42,Cloudy
7431,2012-11-05 15:00:00,60.839999999999996,1.8,-7.6,50,20,24.1,101.41,Mostly Cloudy
7432,2012-11-05 16:00:00,59.580000000000005,1.1,-6.0,59,19,24.1,101.44,Snow Showers
7433,2012-11-05 17:00:00,59.22,0.9,-7.8,52,17,25.0,101.49,Mostly Cloudy
7434,2012-11-05 18:00:00,58.5,0.5,-8.6,50,20,25.0,101.57,Mostly Cloudy
7435,2012-11-05 19:00:00,56.519999999999996,-0.6,-10.4,47,13,25.0,101.62,Mostly Cloudy
7436,2012-11-05 20:00:00,55.800000000000004,-1.0,-9.5,52,7,25.0,101.64,Mostly Cloudy
7437,2012-11-05 21:00:00,54.0,-2.0,-9.1,58,7,25.0,101.66,Mainly Clear
7438,2012-11-05 22:00:00,53.64,-2.2,-9.6,57,11,25.0,101.65,Mainly Clear
7439,2012-11-05 23:00:00,51.84,-3.2,-9.6,61,9,25.0,101.65,Mainly Clear
7440,2012-11-06 00:00:00,52.38,-2.9,-9.9,58,15,25.0,101.68,Mainly Clear
7441,2012-11-06 01:00:00,51.12,-3.6,-10.3,60,13,25.0,101.69,Clear
7442,2012-11-06 02:00:00,49.14,-4.7,-9.7,68,9,25.0,101.72,Clear
7443,2012-11-06 03:00:00,47.7,-5.5,-8.9,77,4,25.0,101.76,Clear
7444,2012-11-06 04:00:00,51.66,-3.3,-9.9,60,0,25.0,101.76,Mostly Cloudy
7445,2012-11-06 05:00:00,52.2,-3.0,-8.9,64,0,25.0,101.79,Mostly Cloudy
7446,2012-11-06 06:00:00,50.940000000000005,-3.7,-7.5,75,6,25.0,101.83,Mostly Cloudy
7447,2012-11-06 07:00:00,51.480000000000004,-3.4,-7.0,76,6,48.3,101.86,Mostly Cloudy
7448,2012-11-06 08:00:00,54.72,-1.6,-5.6,74,6,48.3,101.89,Mainly Clear
7449,2012-11-06 09:00:00,57.24,-0.2,-5.8,66,7,48.3,101.9,Mainly Clear
7450,2012-11-06 10:00:00,58.32,0.4,-6.1,62,7,48.3,101.93,Mostly Cloudy
7451,2012-11-06 11:00:00,61.019999999999996,1.9,-4.5,62,9,48.3,101.94,Mostly Cloudy
7452,2012-11-06 12:00:00,60.300000000000004,1.5,-6.4,56,17,48.3,101.89,Cloudy
7453,2012-11-06 13:00:00,61.739999999999995,2.3,-7.7,48,15,48.3,101.88,Mostly Cloudy
7454,2012-11-06 14:00:00,61.38,2.1,-7.4,49,9,48.3,101.87,Mostly Cloudy
7455,2012-11-06 15:00:00,62.28,2.6,-7.7,47,15,48.3,101.87,Mostly Cloudy
7456,2012-11-06 16:00:00,61.019999999999996,1.9,-8.1,47,13,48.3,101.87,Mostly Cloudy
7457,2012-11-06 17:00:00,57.6,0.0,-7.5,57,6,48.3,101.89,Mainly Clear
7458,2012-11-06 18:00:00,55.980000000000004,-0.9,-7.8,59,4,25.0,101.89,Clear
7459,2012-11-06 19:00:00,57.06,-0.3,-7.7,57,0,25.0,101.93,Clear
7460,2012-11-06 20:00:00,54.9,-1.5,-7.3,65,0,25.0,101.94,Clear
7461,2012-11-06 21:00:00,56.34,-0.7,-6.9,63,4,25.0,101.97,Clear
7462,2012-11-06 22:00:00,55.980000000000004,-0.9,-6.6,65,4,25.0,101.98,Clear
7463,2012-11-06 23:00:00,54.9,-1.5,-6.4,69,6,25.0,101.96,Clear
7464,2012-11-07 00:00:00,56.519999999999996,-0.6,-5.9,67,7,25.0,101.93,Clear
7465,2012-11-07 01:00:00,55.980000000000004,-0.9,-6.5,66,9,25.0,101.9,Clear
7466,2012-11-07 02:00:00,52.92,-2.6,-6.9,72,7,25.0,101.94,Clear
7467,2012-11-07 03:00:00,51.12,-3.6,-6.1,83,9,25.0,101.95,Clear
7468,2012-11-07 04:00:00,50.4,-4.0,-6.2,85,11,25.0,102.02,Clear
7469,2012-11-07 05:00:00,49.86,-4.3,-6.5,85,13,25.0,101.98,Clear
7470,2012-11-07 06:00:00,50.04,-4.2,-6.4,85,13,25.0,101.92,Mainly Clear
7471,2012-11-07 07:00:00,50.940000000000005,-3.7,-6.3,82,15,24.1,101.96,Mainly Clear
7472,2012-11-07 08:00:00,52.019999999999996,-3.1,-6.0,80,17,24.1,102.0,Mainly Clear
7473,2012-11-07 09:00:00,55.26,-1.3,-6.6,67,22,24.1,102.02,Mostly Cloudy
7474,2012-11-07 10:00:00,57.6,0.0,-6.8,60,20,24.1,102.01,Mostly Cloudy
7475,2012-11-07 11:00:00,59.580000000000005,1.1,-7.4,53,26,24.1,101.97,Mostly Cloudy
7476,2012-11-07 12:00:00,61.38,2.1,-7.4,49,26,24.1,101.88,Mostly Cloudy
7477,2012-11-07 13:00:00,61.92,2.4,-7.5,48,32,24.1,101.78,Mostly Cloudy
7478,2012-11-07 14:00:00,61.56000000000001,2.2,-7.4,49,24,24.1,101.75,Mostly Cloudy
7479,2012-11-07 15:00:00,60.839999999999996,1.8,-7.8,49,24,24.1,101.73,Mostly Cloudy
7480,2012-11-07 16:00:00,60.300000000000004,1.5,-7.1,53,26,24.1,101.7,Mostly Cloudy
7481,2012-11-07 17:00:00,59.760000000000005,1.2,-6.2,58,20,25.0,101.67,Mainly Clear
7482,2012-11-07 18:00:00,59.4,1.0,-5.6,61,19,25.0,101.68,Mostly Cloudy
7483,2012-11-07 19:00:00,60.12,1.4,-6.7,55,20,25.0,101.69,Mainly Clear
7484,2012-11-07 20:00:00,59.94,1.3,-7.8,51,26,25.0,101.65,Mostly Cloudy
7485,2012-11-07 21:00:00,59.04,0.8,-6.4,59,22,25.0,101.64,Mainly Clear
7486,2012-11-07 22:00:00,57.6,0.0,-5.6,66,22,25.0,101.58,Clear
7487,2012-11-07 23:00:00,56.34,-0.7,-4.7,74,22,25.0,101.55,Mostly Cloudy
7488,2012-11-08 00:00:00,57.24,-0.2,-4.5,73,26,25.0,101.54,Mostly Cloudy
7489,2012-11-08 01:00:00,55.980000000000004,-0.9,-4.9,74,30,25.0,101.49,Mostly Cloudy
7490,2012-11-08 02:00:00,55.800000000000004,-1.0,-6.0,69,33,25.0,101.48,Mostly Cloudy
7491,2012-11-08 03:00:00,56.16,-0.8,-5.8,69,20,25.0,101.46,Mostly Cloudy
7492,2012-11-08 04:00:00,55.26,-1.3,-5.9,71,26,25.0,101.44,Mostly Cloudy
7493,2012-11-08 05:00:00,55.26,-1.3,-6.2,69,22,25.0,101.43,Mainly Clear
7494,2012-11-08 06:00:00,55.080000000000005,-1.4,-5.7,72,19,25.0,101.42,Mainly Clear
7495,2012-11-08 07:00:00,55.800000000000004,-1.0,-5.1,74,26,24.1,101.44,Mostly Cloudy
7496,2012-11-08 08:00:00,57.24,-0.2,-4.6,72,20,24.1,101.46,Mostly Cloudy
7497,2012-11-08 09:00:00,59.04,0.8,-4.4,68,19,24.1,101.45,Cloudy
7498,2012-11-08 10:00:00,61.92,2.4,-3.9,63,30,24.1,101.41,Mostly Cloudy
7499,2012-11-08 11:00:00,62.28,2.6,-4.0,62,30,24.1,101.38,Mostly Cloudy
7500,2012-11-08 12:00:00,64.62,3.9,-3.6,58,24,24.1,101.29,Mostly Cloudy
7501,2012-11-08 13:00:00,66.06,4.7,-3.3,56,26,24.1,101.24,Mostly Cloudy
7502,2012-11-08 14:00:00,66.78,5.1,-3.4,54,26,24.1,101.21,Mostly Cloudy
7503,2012-11-08 15:00:00,66.96000000000001,5.2,-3.3,54,20,24.1,101.18,Mostly Cloudy
7504,2012-11-08 16:00:00,65.52,4.4,-3.8,55,19,24.1,101.17,Mostly Cloudy
7505,2012-11-08 17:00:00,63.36000000000001,3.2,-4.2,58,13,24.1,101.2,Mostly Cloudy
7506,2012-11-08 18:00:00,61.92,2.4,-3.0,67,7,25.0,101.25,Mostly Cloudy
7507,2012-11-08 19:00:00,60.839999999999996,1.8,-3.3,69,9,25.0,101.27,Mostly Cloudy
7508,2012-11-08 20:00:00,60.660000000000004,1.7,-4.8,62,19,25.0,101.28,Mostly Cloudy
7509,2012-11-08 21:00:00,58.5,0.5,-4.6,69,13,25.0,101.24,Mainly Clear
7510,2012-11-08 22:00:00,57.06,-0.3,-4.8,72,11,25.0,101.21,Mainly Clear
7511,2012-11-08 23:00:00,55.26,-1.3,-5.0,76,7,25.0,101.19,Mainly Clear
7512,2012-11-09 00:00:00,51.480000000000004,-3.4,-5.7,84,7,25.0,101.21,Mainly Clear
7513,2012-11-09 01:00:00,50.940000000000005,-3.7,-5.9,85,7,25.0,101.18,Mainly Clear
7514,2012-11-09 02:00:00,49.86,-4.3,-6.3,86,7,25.0,101.19,Clear
7515,2012-11-09 03:00:00,51.12,-3.6,-5.6,86,7,25.0,101.19,Clear
7516,2012-11-09 04:00:00,51.480000000000004,-3.4,-5.2,87,7,25.0,101.2,Clear
7517,2012-11-09 05:00:00,47.88,-5.4,-6.7,91,7,25.0,101.22,Mainly Clear
7518,2012-11-09 06:00:00,51.84,-3.2,-4.8,89,7,25.0,101.25,Mainly Clear
7519,2012-11-09 07:00:00,53.1,-2.5,-4.2,88,7,24.1,101.3,Mostly Cloudy
7520,2012-11-09 08:00:00,54.72,-1.6,-3.6,86,7,48.3,101.36,Mostly Cloudy
7521,2012-11-09 09:00:00,59.94,1.3,-2.4,76,17,48.3,101.34,Mostly Cloudy
7522,2012-11-09 10:00:00,61.739999999999995,2.3,-3.3,66,19,48.3,101.36,Cloudy
7523,2012-11-09 11:00:00,63.54,3.3,-4.1,58,20,48.3,101.36,Mostly Cloudy
7524,2012-11-09 12:00:00,63.72,3.4,-3.6,60,22,48.3,101.31,Mostly Cloudy
7525,2012-11-09 13:00:00,64.8,4.0,-3.2,59,20,24.1,101.26,Cloudy
7526,2012-11-09 14:00:00,66.24,4.8,-2.7,58,20,24.1,101.27,Mostly Cloudy
7527,2012-11-09 15:00:00,65.88000000000001,4.6,-2.0,62,24,24.1,101.29,Cloudy
7528,2012-11-09 16:00:00,65.7,4.5,-1.9,63,26,24.1,101.32,Cloudy
7529,2012-11-09 17:00:00,65.88000000000001,4.6,-1.2,66,22,25.0,101.36,Cloudy
7530,2012-11-09 18:00:00,65.88000000000001,4.6,-0.5,69,15,25.0,101.42,Cloudy
7531,2012-11-09 19:00:00,65.88000000000001,4.6,-0.3,70,15,25.0,101.45,Cloudy
7532,2012-11-09 20:00:00,65.16000000000001,4.2,-0.3,72,11,25.0,101.47,Cloudy
7533,2012-11-09 21:00:00,65.88000000000001,4.6,0.5,75,9,25.0,101.54,Cloudy
7534,2012-11-09 22:00:00,65.7,4.5,0.6,76,11,25.0,101.48,Mostly Cloudy
7535,2012-11-09 23:00:00,64.8,4.0,0.8,80,15,25.0,101.5,Mostly Cloudy
7536,2012-11-10 00:00:00,62.63999999999999,2.8,0.4,84,13,25.0,101.55,Mostly Cloudy
7537,2012-11-10 01:00:00,64.08,3.6,0.6,81,9,25.0,101.62,Mostly Cloudy
7538,2012-11-10 02:00:00,62.46000000000001,2.7,-0.5,79,9,25.0,101.66,Mainly Clear
7539,2012-11-10 03:00:00,62.28,2.6,-2.7,68,11,25.0,101.75,Mainly Clear
7540,2012-11-10 04:00:00,59.580000000000005,1.1,-3.5,71,11,25.0,101.84,Mainly Clear
7541,2012-11-10 05:00:00,58.86000000000001,0.7,-4.0,71,6,25.0,101.98,Mainly Clear
7542,2012-11-10 06:00:00,56.519999999999996,-0.6,-5.2,71,9,25.0,102.07,Mainly Clear
7543,2012-11-10 07:00:00,55.080000000000005,-1.4,-6.0,71,13,24.1,102.22,Clear
7544,2012-11-10 08:00:00,58.32,0.4,-4.9,68,13,24.1,102.32,Clear
7545,2012-11-10 09:00:00,61.2,2.0,-5.2,59,15,48.3,102.39,Clear
7546,2012-11-10 10:00:00,61.92,2.4,-5.9,54,7,48.3,102.43,Mainly Clear
7547,2012-11-10 11:00:00,63.54,3.3,-7.3,46,6,48.3,102.45,Mainly Clear
7548,2012-11-10 12:00:00,65.16000000000001,4.2,-7.7,42,6,48.3,102.43,Mainly Clear
7549,2012-11-10 13:00:00,66.06,4.7,-8.0,39,6,48.3,102.39,Mostly Cloudy
7550,2012-11-10 14:00:00,67.68,5.6,-7.6,38,4,48.3,102.37,Mostly Cloudy
7551,2012-11-10 15:00:00,66.96000000000001,5.2,-6.9,41,11,48.3,102.4,Mostly Cloudy
7552,2012-11-10 16:00:00,64.08,3.6,-8.2,42,9,48.3,102.39,Mostly Cloudy
7553,2012-11-10 17:00:00,63.9,3.5,-7.8,43,7,25.0,102.47,Mostly Cloudy
7554,2012-11-10 18:00:00,63.72,3.4,-7.0,46,7,25.0,102.53,Mostly Cloudy
7555,2012-11-10 19:00:00,62.28,2.6,-6.4,51,7,25.0,102.58,Mainly Clear
7556,2012-11-10 20:00:00,62.28,2.6,-5.3,56,15,25.0,102.56,Mainly Clear
7557,2012-11-10 21:00:00,60.839999999999996,1.8,-6.1,56,9,25.0,102.53,Clear
7558,2012-11-10 22:00:00,59.22,0.9,-4.6,67,11,25.0,102.55,Mainly Clear
7559,2012-11-10 23:00:00,59.580000000000005,1.1,-6.7,56,11,25.0,102.5,Mainly Clear
7560,2012-11-11 00:00:00,61.92,2.4,-7.2,49,7,25.0,102.45,Mostly Cloudy
7561,2012-11-11 01:00:00,62.46000000000001,2.7,-7.3,48,13,25.0,102.34,Mostly Cloudy
7562,2012-11-11 02:00:00,63.0,3.0,-7.8,45,11,25.0,102.33,Cloudy
7563,2012-11-11 03:00:00,63.18000000000001,3.1,-7.6,45,17,25.0,102.24,Cloudy
7564,2012-11-11 04:00:00,59.22,0.9,-4.3,68,20,25.0,102.34,Cloudy
7565,2012-11-11 05:00:00,58.13999999999999,0.3,-4.0,73,20,25.0,102.23,Rain
7566,2012-11-11 06:00:00,58.5,0.5,-2.3,81,17,25.0,102.26,Rain
7567,2012-11-11 07:00:00,58.68000000000001,0.6,-2.1,82,22,24.1,102.3,Cloudy
7568,2012-11-11 08:00:00,58.68000000000001,0.6,-2.0,83,20,24.1,102.34,Cloudy
7569,2012-11-11 09:00:00,59.580000000000005,1.1,-2.0,80,20,24.1,102.29,Cloudy
7570,2012-11-11 10:00:00,60.660000000000004,1.7,-0.6,85,17,24.1,102.31,Rain Showers
7571,2012-11-11 11:00:00,62.82,2.9,-0.2,80,22,24.1,102.21,Rain Showers
7572,2012-11-11 12:00:00,64.26,3.7,0.3,78,24,24.1,102.15,Mostly Cloudy
7573,2012-11-11 13:00:00,67.5,5.5,1.4,75,17,48.3,102.11,Mainly Clear
7574,2012-11-11 14:00:00,68.94,6.3,1.6,72,20,48.3,102.08,Clear
7575,2012-11-11 15:00:00,70.2,7.0,1.9,70,19,48.3,102.07,Mainly Clear
7576,2012-11-11 16:00:00,69.48,6.6,1.8,71,20,24.1,102.07,Mostly Cloudy
7577,2012-11-11 17:00:00,66.24,4.8,1.5,79,17,25.0,102.12,Mostly Cloudy
7578,2012-11-11 18:00:00,63.54,3.3,1.1,85,13,25.0,102.13,Mainly Clear
7579,2012-11-11 19:00:00,61.019999999999996,1.9,0.2,88,17,25.0,102.14,Clear
7580,2012-11-11 20:00:00,60.300000000000004,1.5,-0.1,89,15,25.0,102.15,Clear
7581,2012-11-11 21:00:00,59.94,1.3,-0.3,89,15,25.0,102.13,Mainly Clear
7582,2012-11-11 22:00:00,59.4,1.0,-0.5,90,13,25.0,102.07,Clear
7583,2012-11-11 23:00:00,59.580000000000005,1.1,-0.3,90,15,25.0,102.04,Clear
7584,2012-11-12 00:00:00,59.22,0.9,-0.3,92,19,19.3,101.99,Mainly Clear
7585,2012-11-12 01:00:00,58.68000000000001,0.6,-0.8,90,17,25.0,101.97,Mainly Clear
7586,2012-11-12 02:00:00,58.32,0.4,-0.7,92,15,19.3,101.98,Mainly Clear
7587,2012-11-12 03:00:00,57.96000000000001,0.2,-0.9,92,15,19.3,101.94,Clear
7588,2012-11-12 04:00:00,57.06,-0.3,-1.1,94,11,19.3,101.95,Clear
7589,2012-11-12 05:00:00,57.24,-0.2,-1.2,93,11,19.3,101.91,Clear
7590,2012-11-12 06:00:00,57.06,-0.3,-1.2,94,13,19.3,101.87,Mainly Clear
7591,2012-11-12 07:00:00,57.24,-0.2,-1.0,94,11,16.1,101.9,Mainly Clear
7592,2012-11-12 08:00:00,59.4,1.0,0.0,93,9,19.3,101.88,Mainly Clear
7593,2012-11-12 09:00:00,65.16000000000001,4.2,1.8,84,7,19.3,101.83,Mainly Clear
7594,2012-11-12 10:00:00,70.56,7.2,3.3,76,6,19.3,101.78,Mostly Cloudy
7595,2012-11-12 11:00:00,78.84,11.8,5.3,64,6,19.3,101.71,Mostly Cloudy
7596,2012-11-12 12:00:00,89.10000000000001,17.5,8.5,55,13,19.3,101.61,Mostly Cloudy
7597,2012-11-12 13:00:00,88.02,16.9,8.4,57,22,24.1,101.52,Mostly Cloudy
7598,2012-11-12 14:00:00,86.94,16.3,8.2,59,22,24.1,101.43,Cloudy
7599,2012-11-12 15:00:00,88.2,17.0,8.4,57,20,24.1,101.33,Cloudy
7600,2012-11-12 16:00:00,87.66000000000001,16.7,8.0,56,22,24.1,101.21,Cloudy
7601,2012-11-12 17:00:00,88.38000000000001,17.1,7.5,53,33,25.0,101.13,Mostly Cloudy
7602,2012-11-12 18:00:00,88.38000000000001,17.1,7.3,52,35,25.0,101.09,Mainly Clear
7603,2012-11-12 19:00:00,88.38000000000001,17.1,7.8,54,32,25.0,100.98,Mainly Clear
7604,2012-11-12 20:00:00,87.12,16.4,7.5,56,33,25.0,100.91,Mostly Cloudy
7605,2012-11-12 21:00:00,86.22,15.9,7.7,58,30,25.0,100.9,Cloudy
7606,2012-11-12 22:00:00,86.4,16.0,8.2,60,26,25.0,100.87,Cloudy
7607,2012-11-12 23:00:00,85.68,15.6,8.9,64,24,25.0,100.84,Cloudy
7608,2012-11-13 00:00:00,84.24,14.8,10.0,73,48,25.0,100.94,Rain
7609,2012-11-13 01:00:00,73.98,9.1,7.4,89,37,12.9,101.25,Rain
7610,2012-11-13 02:00:00,72.0,8.0,6.2,88,35,25.0,101.36,Rain
7611,2012-11-13 03:00:00,71.82,7.9,5.6,85,41,25.0,101.45,Rain
7612,2012-11-13 04:00:00,68.76,6.2,4.1,86,28,25.0,101.53,Rain
7613,2012-11-13 05:00:00,67.68,5.6,3.4,86,30,25.0,101.6,Rain
7614,2012-11-13 06:00:00,67.86000000000001,5.7,3.3,85,30,25.0,101.76,Cloudy
7615,2012-11-13 07:00:00,67.32,5.4,2.3,80,30,24.1,101.78,Cloudy
7616,2012-11-13 08:00:00,66.96000000000001,5.2,0.9,74,33,24.1,101.89,Mostly Cloudy
7617,2012-11-13 09:00:00,65.88000000000001,4.6,-1.2,66,32,24.1,101.95,Mostly Cloudy
7618,2012-11-13 10:00:00,66.06,4.7,-1.3,65,37,24.1,102.07,Mostly Cloudy
7619,2012-11-13 11:00:00,66.24,4.8,-2.0,61,30,48.3,102.09,Mostly Cloudy
7620,2012-11-13 12:00:00,68.58,6.1,-1.8,57,28,48.3,102.08,Mostly Cloudy
7621,2012-11-13 13:00:00,67.14,5.3,-3.2,54,33,48.3,102.13,Mostly Cloudy
7622,2012-11-13 14:00:00,67.68,5.6,-6.5,41,30,24.1,102.18,Mainly Clear
7623,2012-11-13 15:00:00,67.32,5.4,-2.9,55,28,24.1,102.25,Mainly Clear
7624,2012-11-13 16:00:00,66.42,4.9,-5.1,48,24,24.1,102.33,Mainly Clear
7625,2012-11-13 17:00:00,64.26,3.7,-6.1,49,13,25.0,102.41,Clear
7626,2012-11-13 18:00:00,62.1,2.5,-5.5,56,11,25.0,102.54,Clear
7627,2012-11-13 19:00:00,59.04,0.8,-5.6,62,11,25.0,102.6,Clear
7628,2012-11-13 20:00:00,56.34,-0.7,-6.0,67,9,25.0,102.68,Clear
7629,2012-11-13 21:00:00,55.800000000000004,-1.0,-6.0,69,7,25.0,102.75,Clear
7630,2012-11-13 22:00:00,55.980000000000004,-0.9,-5.7,70,7,25.0,102.81,Clear
7631,2012-11-13 23:00:00,54.9,-1.5,-5.9,72,7,25.0,102.84,Clear
7632,2012-11-14 00:00:00,57.42,-0.1,-6.0,64,4,25.0,102.91,Clear
7633,2012-11-14 01:00:00,56.34,-0.7,-5.7,69,6,25.0,102.91,Clear
7634,2012-11-14 02:00:00,53.46,-2.3,-6.1,75,6,25.0,102.97,Clear
7635,2012-11-14 03:00:00,53.28,-2.4,-6.7,72,6,25.0,102.99,Clear
7636,2012-11-14 04:00:00,50.4,-4.0,-7.0,80,4,25.0,103.01,Clear
7637,2012-11-14 05:00:00,49.14,-4.7,-6.6,87,4,25.0,103.09,Clear
7638,2012-11-14 06:00:00,51.12,-3.6,-6.1,83,4,25.0,103.15,Clear
7639,2012-11-14 07:00:00,48.24,-5.2,-7.0,87,4,48.3,103.25,Clear
7640,2012-11-14 08:00:00,52.2,-3.0,-4.9,87,4,48.3,103.29,Clear
7641,2012-11-14 09:00:00,58.68000000000001,0.6,-3.1,76,6,24.1,103.31,Clear
7642,2012-11-14 10:00:00,61.92,2.4,-4.3,61,2,24.1,103.34,Clear
7643,2012-11-14 11:00:00,65.88000000000001,4.6,-5.0,50,4,24.1,103.31,Clear
7644,2012-11-14 12:00:00,66.24,4.8,-6.4,44,7,24.1,103.25,Mainly Clear
7645,2012-11-14 13:00:00,66.24,4.8,-6.6,43,4,48.3,103.2,Mainly Clear
7646,2012-11-14 14:00:00,66.96000000000001,5.2,-6.2,44,6,48.3,103.15,Clear
7647,2012-11-14 15:00:00,65.88000000000001,4.6,-7.4,41,6,48.3,103.15,Clear
7648,2012-11-14 16:00:00,65.16000000000001,4.2,-7.4,43,6,48.3,103.16,Mainly Clear
7649,2012-11-14 17:00:00,64.08,3.6,-7.2,45,7,24.1,103.15,Mainly Clear
7650,2012-11-14 18:00:00,62.63999999999999,2.8,-6.3,51,7,25.0,103.16,Clear
7651,2012-11-14 19:00:00,62.1,2.5,-5.9,54,9,25.0,103.17,Clear
7652,2012-11-14 20:00:00,61.38,2.1,-5.8,56,11,25.0,103.18,Clear
7653,2012-11-14 21:00:00,60.839999999999996,1.8,-6.1,56,7,25.0,103.16,Clear
7654,2012-11-14 22:00:00,60.12,1.4,-5.7,59,13,25.0,103.15,Clear
7655,2012-11-14 23:00:00,58.32,0.4,-6.2,61,11,25.0,103.12,Clear
7656,2012-11-15 00:00:00,55.080000000000005,-1.4,-6.1,70,13,25.0,103.1,Clear
7657,2012-11-15 01:00:00,54.0,-2.0,-5.1,79,9,25.0,103.06,Mainly Clear
7658,2012-11-15 02:00:00,53.46,-2.3,-5.1,81,13,25.0,103.0,Mainly Clear
7659,2012-11-15 03:00:00,52.38,-2.9,-5.4,83,9,25.0,103.01,Mainly Clear
7660,2012-11-15 04:00:00,51.12,-3.6,-6.3,82,9,25.0,103.0,Clear
7661,2012-11-15 05:00:00,52.38,-2.9,-6.0,79,13,25.0,102.94,Mainly Clear
7662,2012-11-15 06:00:00,52.019999999999996,-3.1,-6.1,80,15,25.0,102.91,Mainly Clear
7663,2012-11-15 07:00:00,52.38,-2.9,-5.9,80,13,24.1,102.94,Mostly Cloudy
7664,2012-11-15 08:00:00,53.82,-2.1,-5.1,80,11,24.1,102.99,Cloudy
7665,2012-11-15 09:00:00,55.800000000000004,-1.0,-4.8,75,19,24.1,102.93,Cloudy
7666,2012-11-15 10:00:00,58.13999999999999,0.3,-4.6,70,15,24.1,102.84,Cloudy
7667,2012-11-15 11:00:00,59.94,1.3,-4.8,64,11,24.1,102.79,Cloudy
7668,2012-11-15 12:00:00,60.839999999999996,1.8,-4.7,62,15,24.1,102.73,Cloudy
7669,2012-11-15 13:00:00,62.28,2.6,-5.6,55,13,24.1,102.65,Mostly Cloudy
7670,2012-11-15 14:00:00,62.28,2.6,-5.5,55,11,24.1,102.59,Mostly Cloudy
7671,2012-11-15 15:00:00,61.92,2.4,-5.8,55,13,24.1,102.55,Mainly Clear
7672,2012-11-15 16:00:00,60.839999999999996,1.8,-5.5,58,11,24.1,102.53,Mainly Clear
7673,2012-11-15 17:00:00,59.760000000000005,1.2,-5.9,59,9,25.0,102.53,Mainly Clear
7674,2012-11-15 18:00:00,59.4,1.0,-5.9,60,7,25.0,102.54,Clear
7675,2012-11-15 19:00:00,58.5,0.5,-5.8,63,7,25.0,102.51,Clear
7676,2012-11-15 20:00:00,56.34,-0.7,-5.7,69,4,25.0,102.46,Clear
7677,2012-11-15 21:00:00,52.38,-2.9,-6.3,77,6,25.0,102.46,Clear
7678,2012-11-15 22:00:00,54.54,-1.7,-5.2,77,4,25.0,102.42,Clear
7679,2012-11-15 23:00:00,49.86,-4.3,-6.3,86,6,25.0,102.44,Clear
7680,2012-11-16 00:00:00,52.019999999999996,-3.1,-5.5,83,4,25.0,102.42,Clear
7681,2012-11-16 01:00:00,48.06,-5.3,-6.9,88,4,19.3,102.4,Clear
7682,2012-11-16 02:00:00,49.5,-4.5,-6.3,87,0,19.3,102.42,Clear
7683,2012-11-16 03:00:00,51.12,-3.6,-5.1,89,0,19.3,102.4,Clear
7684,2012-11-16 04:00:00,45.54,-6.7,-8.1,90,0,19.3,102.42,Clear
7685,2012-11-16 05:00:00,45.9,-6.5,-7.7,91,4,19.3,102.48,Clear
7686,2012-11-16 06:00:00,47.88,-5.4,-6.4,93,4,16.1,102.48,Mostly Cloudy
7687,2012-11-16 07:00:00,48.24,-5.2,-6.5,91,4,16.1,102.49,Mostly Cloudy
7688,2012-11-16 08:00:00,51.84,-3.2,-4.8,89,0,19.3,102.54,Mostly Cloudy
7689,2012-11-16 09:00:00,58.32,0.4,-1.7,86,9,19.3,102.55,Mostly Cloudy
7690,2012-11-16 10:00:00,61.2,2.0,-2.0,75,13,24.1,102.57,Mainly Clear
7691,2012-11-16 11:00:00,63.18000000000001,3.1,-2.5,67,15,24.1,102.53,Mostly Cloudy
7692,2012-11-16 12:00:00,64.62,3.9,-2.8,62,17,24.1,102.48,Mainly Clear
7693,2012-11-16 13:00:00,66.42,4.9,-2.6,58,15,24.1,102.49,Mainly Clear
7694,2012-11-16 14:00:00,67.14,5.3,-2.1,59,13,24.1,102.5,Mainly Clear
7695,2012-11-16 15:00:00,67.5,5.5,-1.9,59,9,24.1,102.5,Mostly Cloudy
7696,2012-11-16 16:00:00,66.24,4.8,-2.0,61,13,24.1,102.55,Mostly Cloudy
7697,2012-11-16 17:00:00,65.52,4.4,-1.3,66,13,25.0,102.61,Cloudy
7698,2012-11-16 18:00:00,65.16000000000001,4.2,-1.5,66,15,25.0,102.66,Cloudy
7699,2012-11-16 19:00:00,64.26,3.7,-1.7,68,13,25.0,102.69,Mostly Cloudy
7700,2012-11-16 20:00:00,63.54,3.3,-1.7,70,9,25.0,102.75,Mostly Cloudy
7701,2012-11-16 21:00:00,59.04,0.8,-2.5,79,9,25.0,102.79,Mainly Clear
7702,2012-11-16 22:00:00,55.980000000000004,-0.9,-3.1,85,11,25.0,102.81,Mainly Clear
7703,2012-11-16 23:00:00,54.9,-1.5,-3.5,86,13,25.0,102.84,Mainly Clear
7704,2012-11-17 00:00:00,55.62,-1.1,-3.5,84,9,25.0,102.9,Clear
7705,2012-11-17 01:00:00,55.26,-1.3,-3.5,85,9,25.0,102.94,Clear
7706,2012-11-17 02:00:00,53.28,-2.4,-4.2,87,11,25.0,103.05,Mainly Clear
7707,2012-11-17 03:00:00,54.0,-2.0,-5.0,80,11,25.0,103.13,Clear
7708,2012-11-17 04:00:00,52.019999999999996,-3.1,-6.5,77,17,25.0,103.17,Clear
7709,2012-11-17 05:00:00,53.64,-2.2,-7.3,68,13,25.0,103.24,Clear
7710,2012-11-17 06:00:00,52.92,-2.6,-8.2,65,13,25.0,103.28,Clear
7711,2012-11-17 07:00:00,51.84,-3.2,-8.2,68,13,24.1,103.39,Mainly Clear
7712,2012-11-17 08:00:00,52.74,-2.7,-8.2,66,15,24.1,103.47,Mainly Clear
7713,2012-11-17 09:00:00,53.82,-2.1,-8.9,60,15,24.1,103.51,Mainly Clear
7714,2012-11-17 10:00:00,55.800000000000004,-1.0,-8.9,55,7,48.3,103.52,Mostly Cloudy
7715,2012-11-17 11:00:00,57.42,-0.1,-9.1,51,4,48.3,103.5,Mostly Cloudy
7716,2012-11-17 12:00:00,59.760000000000005,1.2,-9.0,46,4,48.3,103.47,Mainly Clear
7717,2012-11-17 13:00:00,61.739999999999995,2.3,-8.3,45,4,48.3,103.43,Mainly Clear
7718,2012-11-17 14:00:00,62.63999999999999,2.8,-7.4,47,6,48.3,103.43,Mainly Clear
7719,2012-11-17 15:00:00,61.92,2.4,-7.4,48,6,48.3,103.43,Mainly Clear
7720,2012-11-17 16:00:00,61.2,2.0,-7.3,50,4,48.3,103.46,Mainly Clear
7721,2012-11-17 17:00:00,59.22,0.9,-7.7,53,4,25.0,103.46,Clear
7722,2012-11-17 18:00:00,54.54,-1.7,-7.9,63,4,25.0,103.5,Mainly Clear
7723,2012-11-17 19:00:00,53.82,-2.1,-7.2,68,4,25.0,103.51,Clear
7724,2012-11-17 20:00:00,57.42,-0.1,-7.0,60,7,25.0,103.49,Clear
7725,2012-11-17 21:00:00,55.080000000000005,-1.4,-6.5,68,7,25.0,103.51,Clear
7726,2012-11-17 22:00:00,55.800000000000004,-1.0,-6.3,67,7,25.0,103.54,Clear
7727,2012-11-17 23:00:00,55.26,-1.3,-6.7,67,9,25.0,103.56,Clear
7728,2012-11-18 00:00:00,54.72,-1.6,-6.2,71,0,25.0,103.58,Clear
7729,2012-11-18 01:00:00,51.84,-3.2,-6.9,76,0,25.0,103.59,Clear
7730,2012-11-18 02:00:00,49.32,-4.6,-6.9,84,0,25.0,103.63,Clear
7731,2012-11-18 03:00:00,50.580000000000005,-3.9,-6.1,85,7,25.0,103.61,Clear
7732,2012-11-18 04:00:00,48.96,-4.8,-6.9,85,7,25.0,103.59,Clear
7733,2012-11-18 05:00:00,48.6,-5.0,-7.4,83,7,25.0,103.61,Clear
7734,2012-11-18 06:00:00,47.88,-5.4,-7.4,86,9,25.0,103.59,Mainly Clear
7735,2012-11-18 07:00:00,46.080000000000005,-6.4,-8.4,86,9,24.1,103.63,Mostly Cloudy
7736,2012-11-18 08:00:00,49.5,-4.5,-6.4,87,7,24.1,103.65,Cloudy
7737,2012-11-18 09:00:00,53.28,-2.4,-5.4,80,9,24.1,103.65,Cloudy
7738,2012-11-18 10:00:00,56.7,-0.5,-6.8,62,7,24.1,103.65,Mostly Cloudy
7739,2012-11-18 11:00:00,61.019999999999996,1.9,-6.5,54,7,48.3,103.59,Mostly Cloudy
7740,2012-11-18 12:00:00,64.98,4.1,-10.1,35,4,48.3,103.51,Mostly Cloudy
7741,2012-11-18 13:00:00,64.8,4.0,-11.6,31,6,48.3,103.46,Mostly Cloudy
7742,2012-11-18 14:00:00,65.7,4.5,-10.6,32,7,48.3,103.39,Mostly Cloudy
7743,2012-11-18 15:00:00,65.7,4.5,-11.9,29,9,48.3,103.38,Mostly Cloudy
7744,2012-11-18 16:00:00,62.46000000000001,2.7,-9.3,41,9,24.1,103.36,Mostly Cloudy
7745,2012-11-18 17:00:00,60.300000000000004,1.5,-8.5,47,9,25.0,103.36,Mostly Cloudy
7746,2012-11-18 18:00:00,62.28,2.6,-7.5,47,9,25.0,103.36,Mostly Cloudy
7747,2012-11-18 19:00:00,59.580000000000005,1.1,-7.0,55,4,25.0,103.36,Mostly Cloudy
7748,2012-11-18 20:00:00,54.36,-1.8,-6.8,69,6,25.0,103.3,Mostly Cloudy
7749,2012-11-18 21:00:00,56.519999999999996,-0.6,-7.1,61,11,25.0,103.27,Mainly Clear
7750,2012-11-18 22:00:00,55.26,-1.3,-6.9,66,11,25.0,103.25,Cloudy
7751,2012-11-18 23:00:00,53.82,-2.1,-6.0,75,11,25.0,103.22,Cloudy
7752,2012-11-19 00:00:00,54.36,-1.8,-5.7,75,7,25.0,103.2,Mostly Cloudy
7753,2012-11-19 01:00:00,53.28,-2.4,-5.9,77,6,25.0,103.15,Cloudy
7754,2012-11-19 02:00:00,52.019999999999996,-3.1,-6.4,78,13,25.0,103.11,Mostly Cloudy
7755,2012-11-19 03:00:00,51.12,-3.6,-6.9,78,9,25.0,103.11,Mostly Cloudy
7756,2012-11-19 04:00:00,50.940000000000005,-3.7,-6.9,78,6,25.0,103.05,Mostly Cloudy
7757,2012-11-19 05:00:00,50.4,-4.0,-7.1,79,9,25.0,103.03,Mainly Clear
7758,2012-11-19 06:00:00,49.86,-4.3,-7.0,81,7,25.0,103.01,Clear
7759,2012-11-19 07:00:00,49.32,-4.6,-7.1,83,9,16.1,102.99,Clear
7760,2012-11-19 08:00:00,52.56,-2.8,-5.9,79,11,24.1,102.99,Mainly Clear
7761,2012-11-19 09:00:00,56.7,-0.5,-4.5,74,7,24.1,102.92,Clear
7762,2012-11-19 10:00:00,59.94,1.3,-3.4,71,7,19.3,102.9,Mainly Clear
7763,2012-11-19 11:00:00,61.92,2.4,-3.4,65,6,24.1,102.83,Mainly Clear
7764,2012-11-19 12:00:00,66.42,4.9,-2.7,58,4,24.1,102.72,Clear
7765,2012-11-19 13:00:00,66.42,4.9,-0.4,69,6,19.3,102.64,Mainly Clear
7766,2012-11-19 14:00:00,68.22,5.9,-0.9,62,6,19.3,102.54,Mainly Clear
7767,2012-11-19 15:00:00,68.76,6.2,-1.2,59,4,24.1,102.5,Mainly Clear
7768,2012-11-19 16:00:00,64.26,3.7,-2.0,66,6,24.1,102.45,Mainly Clear
7769,2012-11-19 17:00:00,63.0,3.0,-1.5,72,4,25.0,102.42,Clear
7770,2012-11-19 18:00:00,59.580000000000005,1.1,-1.9,80,4,19.3,102.39,Mainly Clear
7771,2012-11-19 19:00:00,57.78,0.1,-2.9,80,4,25.0,102.33,Mainly Clear
7772,2012-11-19 20:00:00,55.080000000000005,-1.4,-3.6,85,6,25.0,102.29,Clear
7773,2012-11-19 21:00:00,53.1,-2.5,-3.8,91,4,19.3,102.23,Mainly Clear
7774,2012-11-19 22:00:00,51.66,-3.3,-4.3,93,6,12.9,102.21,Clear
7775,2012-11-19 23:00:00,56.34,-0.7,-2.2,90,6,9.7,102.16,Fog
7776,2012-11-20 00:00:00,51.66,-3.3,-4.5,91,7,9.7,102.12,Fog
7777,2012-11-20 01:00:00,51.12,-3.6,-4.3,95,7,9.7,102.08,Fog
7778,2012-11-20 02:00:00,54.36,-1.8,-3.5,88,6,8.0,102.08,Fog
7779,2012-11-20 03:00:00,51.12,-3.6,-4.5,93,6,9.7,102.08,Fog
7780,2012-11-20 04:00:00,52.38,-2.9,-4.5,89,6,6.4,102.02,Fog
7781,2012-11-20 05:00:00,52.38,-2.9,-4.5,89,6,6.4,102.0,Fog
7782,2012-11-20 06:00:00,52.38,-2.9,-4.8,87,6,6.4,102.01,Fog
7783,2012-11-20 07:00:00,51.480000000000004,-3.4,-5.2,87,7,4.8,102.02,Fog
7784,2012-11-20 08:00:00,54.0,-2.0,-4.4,84,9,9.7,102.03,Haze
7785,2012-11-20 09:00:00,56.34,-0.7,-3.6,81,6,9.7,102.01,Haze
7786,2012-11-20 10:00:00,61.019999999999996,1.9,-1.9,76,9,12.9,102.0,Mostly Cloudy
7787,2012-11-20 11:00:00,63.0,3.0,-2.2,69,6,11.3,101.96,Cloudy
7788,2012-11-20 12:00:00,65.88000000000001,4.6,-1.9,63,2,11.3,101.88,Cloudy
7789,2012-11-20 13:00:00,67.5,5.5,-1.0,63,4,11.3,101.83,Mostly Cloudy
7790,2012-11-20 14:00:00,68.03999999999999,5.8,-1.6,59,6,12.9,101.77,Mostly Cloudy
7791,2012-11-20 15:00:00,68.22,5.9,-1.5,59,11,16.1,101.77,Cloudy
7792,2012-11-20 16:00:00,67.68,5.6,-1.6,60,6,16.1,101.78,Cloudy
7793,2012-11-20 17:00:00,65.16000000000001,4.2,-0.4,72,7,16.1,101.79,Cloudy
7794,2012-11-20 18:00:00,61.92,2.4,-0.9,79,6,19.3,101.82,Mostly Cloudy
7795,2012-11-20 19:00:00,61.019999999999996,1.9,-1.1,80,7,16.1,101.85,Mostly Cloudy
7796,2012-11-20 20:00:00,63.72,3.4,-2.0,68,9,19.3,101.86,Mostly Cloudy
7797,2012-11-20 21:00:00,61.019999999999996,1.9,-2.5,73,9,25.0,101.84,Mostly Cloudy
7798,2012-11-20 22:00:00,61.019999999999996,1.9,-2.3,74,7,25.0,101.81,Mostly Cloudy
7799,2012-11-20 23:00:00,61.2,2.0,-2.3,73,9,25.0,101.83,Mostly Cloudy
7800,2012-11-21 00:00:00,63.18000000000001,3.1,-2.1,69,6,25.0,101.8,Mostly Cloudy
7801,2012-11-21 01:00:00,58.68000000000001,0.6,-2.3,81,6,25.0,101.82,Mostly Cloudy
7802,2012-11-21 02:00:00,58.32,0.4,-2.5,81,7,25.0,101.82,Mainly Clear
7803,2012-11-21 03:00:00,56.34,-0.7,-3.3,83,9,25.0,101.83,Mainly Clear
7804,2012-11-21 04:00:00,54.18000000000001,-1.9,-3.7,87,9,25.0,101.85,Mainly Clear
7805,2012-11-21 05:00:00,55.080000000000005,-1.4,-3.4,86,11,25.0,101.86,Mostly Cloudy
7806,2012-11-21 06:00:00,54.72,-1.6,-3.6,86,4,12.9,101.92,Mostly Cloudy
7807,2012-11-21 07:00:00,57.42,-0.1,-2.8,82,11,9.7,102.0,Haze
7808,2012-11-21 08:00:00,58.32,0.4,-2.2,83,7,12.9,102.01,Mostly Cloudy
7809,2012-11-21 09:00:00,62.82,2.9,-1.6,72,7,16.1,102.01,Mostly Cloudy
7810,2012-11-21 10:00:00,66.96000000000001,5.2,-1.5,62,4,19.3,101.98,Mainly Clear
7811,2012-11-21 11:00:00,68.94,6.3,-0.3,63,4,19.3,101.93,Mainly Clear
7812,2012-11-21 12:00:00,70.56,7.2,-0.4,58,6,19.3,101.89,Mainly Clear
7813,2012-11-21 13:00:00,70.92,7.4,-0.6,57,7,19.3,101.89,Mainly Clear
7814,2012-11-21 14:00:00,72.53999999999999,8.3,-1.6,50,4,19.3,101.86,Mainly Clear
7815,2012-11-21 15:00:00,72.36000000000001,8.2,-2.1,48,4,19.3,101.87,Mainly Clear
7816,2012-11-21 16:00:00,67.5,5.5,-1.5,61,7,24.1,101.86,Mainly Clear
7817,2012-11-21 17:00:00,62.63999999999999,2.8,-2.0,71,7,25.0,101.85,Mainly Clear
7818,2012-11-21 18:00:00,61.38,2.1,-1.0,80,6,25.0,101.89,Mainly Clear
7819,2012-11-21 19:00:00,62.1,2.5,-0.8,79,4,25.0,101.89,Mainly Clear
7820,2012-11-21 20:00:00,60.12,1.4,-0.9,85,6,25.0,101.9,Mostly Cloudy
7821,2012-11-21 21:00:00,61.56000000000001,2.2,-0.5,82,6,25.0,101.88,Mainly Clear
7822,2012-11-21 22:00:00,59.22,0.9,-1.4,85,4,19.3,101.88,Mostly Cloudy
7823,2012-11-21 23:00:00,59.4,1.0,-0.7,88,4,19.3,101.86,Mainly Clear
7824,2012-11-22 00:00:00,59.94,1.3,0.4,94,4,16.1,101.87,Mainly Clear
7825,2012-11-22 01:00:00,60.300000000000004,1.5,0.6,94,6,16.1,101.83,Clear
7826,2012-11-22 02:00:00,59.94,1.3,-0.1,90,4,16.1,101.85,Clear
7827,2012-11-22 03:00:00,59.580000000000005,1.1,-0.9,86,4,16.1,101.86,Clear
7828,2012-11-22 04:00:00,55.980000000000004,-0.9,-2.3,90,4,12.9,101.84,Clear
7829,2012-11-22 05:00:00,55.080000000000005,-1.4,-3.3,87,6,16.1,101.85,Clear
7830,2012-11-22 06:00:00,57.06,-0.3,-2.6,84,9,19.3,101.84,Clear
7831,2012-11-22 07:00:00,59.04,0.8,-2.6,78,4,24.1,101.85,Mainly Clear
7832,2012-11-22 08:00:00,60.660000000000004,1.7,-1.9,77,4,24.1,101.87,Mainly Clear
7833,2012-11-22 09:00:00,63.54,3.3,-0.8,74,6,24.1,101.81,Clear
7834,2012-11-22 10:00:00,69.12,6.4,-1.2,58,0,24.1,101.8,Clear
7835,2012-11-22 11:00:00,72.72,8.4,-0.8,52,6,24.1,101.72,Mainly Clear
7836,2012-11-22 12:00:00,77.03999999999999,10.8,-1.5,42,13,24.1,101.6,Mainly Clear
7837,2012-11-22 13:00:00,78.48,11.6,-3.2,35,13,24.1,101.52,Mainly Clear
7838,2012-11-22 14:00:00,79.38000000000001,12.1,-2.6,36,9,24.1,101.45,Mainly Clear
7839,2012-11-22 15:00:00,76.86000000000001,10.7,-1.2,44,15,24.1,101.39,Mainly Clear
7840,2012-11-22 16:00:00,74.16000000000001,9.2,0.4,54,15,24.1,101.37,Mainly Clear
7841,2012-11-22 17:00:00,70.38000000000001,7.1,0.1,61,15,25.0,101.35,Mainly Clear
7842,2012-11-22 18:00:00,70.02,6.9,0.5,64,15,25.0,101.34,Mainly Clear
7843,2012-11-22 19:00:00,68.94,6.3,0.6,67,6,25.0,101.3,Mainly Clear
7844,2012-11-22 20:00:00,68.22,5.9,0.4,68,7,25.0,101.28,Mainly Clear
7845,2012-11-22 21:00:00,67.68,5.6,0.8,71,17,25.0,101.24,Mainly Clear
7846,2012-11-22 22:00:00,63.72,3.4,-0.9,73,13,25.0,101.16,Mainly Clear
7847,2012-11-22 23:00:00,65.52,4.4,-1.3,66,11,25.0,101.11,Mainly Clear
7848,2012-11-23 00:00:00,65.7,4.5,-1.5,65,15,25.0,101.06,Clear
7849,2012-11-23 01:00:00,62.46000000000001,2.7,-1.0,77,17,25.0,100.96,Mainly Clear
7850,2012-11-23 02:00:00,62.28,2.6,-1.3,75,11,25.0,100.96,Mainly Clear
7851,2012-11-23 03:00:00,62.63999999999999,2.8,-2.2,70,6,25.0,100.9,Mainly Clear
7852,2012-11-23 04:00:00,59.760000000000005,1.2,-2.5,76,11,25.0,100.79,Mainly Clear
7853,2012-11-23 05:00:00,62.1,2.5,-2.4,70,11,25.0,100.69,Mostly Cloudy
7854,2012-11-23 06:00:00,64.26,3.7,-2.1,66,13,25.0,100.61,Mostly Cloudy
7855,2012-11-23 07:00:00,64.98,4.1,-1.5,67,13,48.3,100.54,Mostly Cloudy
7856,2012-11-23 08:00:00,65.34,4.3,-1.1,68,17,48.3,100.47,Cloudy
7857,2012-11-23 09:00:00,68.76,6.2,-1.2,59,20,48.3,100.34,Mostly Cloudy
7858,2012-11-23 10:00:00,72.36000000000001,8.2,0.3,57,17,24.1,100.25,Mostly Cloudy
7859,2012-11-23 11:00:00,76.32,10.4,0.4,50,24,24.1,100.11,Mostly Cloudy
7860,2012-11-23 12:00:00,79.38000000000001,12.1,1.5,48,22,24.1,99.93,Mostly Cloudy
7861,2012-11-23 13:00:00,77.22,10.9,1.3,51,24,48.3,99.8,Cloudy
7862,2012-11-23 14:00:00,76.32,10.4,1.5,54,24,48.3,99.71,Cloudy
7863,2012-11-23 15:00:00,76.32,10.4,2.5,58,17,16.1,99.79,Rain
7864,2012-11-23 16:00:00,74.16000000000001,9.2,6.4,83,30,12.9,99.83,Rain
7865,2012-11-23 17:00:00,73.44,8.8,6.8,87,22,16.1,99.78,Rain
7866,2012-11-23 18:00:00,73.08,8.6,7.0,90,19,25.0,99.73,Cloudy
7867,2012-11-23 19:00:00,73.26,8.7,6.6,87,20,25.0,99.7,Mostly Cloudy
7868,2012-11-23 20:00:00,75.60000000000001,10.0,5.4,73,39,25.0,99.71,Cloudy
7869,2012-11-23 21:00:00,74.34,9.3,4.1,70,39,25.0,99.72,Cloudy
7870,2012-11-23 22:00:00,73.08,8.6,3.0,68,26,25.0,99.7,Rain Showers
7871,2012-11-23 23:00:00,71.82,7.9,1.6,64,26,25.0,99.65,Cloudy
7872,2012-11-24 00:00:00,71.10000000000001,7.5,0.4,61,19,25.0,99.59,Cloudy
7873,2012-11-24 01:00:00,67.14,5.3,2.3,81,32,25.0,99.6,Rain Showers
7874,2012-11-24 02:00:00,66.78,5.1,2.1,81,30,25.0,99.61,Rain Showers
7875,2012-11-24 03:00:00,65.88000000000001,4.6,-0.6,69,28,25.0,99.59,Cloudy
7876,2012-11-24 04:00:00,64.98,4.1,-2.2,63,37,25.0,99.56,Mostly Cloudy
7877,2012-11-24 05:00:00,63.0,3.0,-1.9,70,35,25.0,99.57,Mainly Clear
7878,2012-11-24 06:00:00,62.63999999999999,2.8,-1.8,72,28,25.0,99.58,Mostly Cloudy
7879,2012-11-24 07:00:00,62.28,2.6,-1.7,73,32,25.0,99.54,Mostly Cloudy
7880,2012-11-24 08:00:00,61.56000000000001,2.2,-2.0,74,30,25.0,99.57,Mostly Cloudy
7881,2012-11-24 09:00:00,60.480000000000004,1.6,-0.9,83,33,24.1,99.58,Rain Showers
7882,2012-11-24 10:00:00,60.839999999999996,1.8,-2.5,73,30,24.1,99.62,Snow Showers
7883,2012-11-24 11:00:00,60.480000000000004,1.6,-3.7,68,33,24.1,99.6,Snow Showers
7884,2012-11-24 12:00:00,60.839999999999996,1.8,-5.0,61,30,24.1,99.6,Snow Showers
7885,2012-11-24 13:00:00,60.300000000000004,1.5,-7.4,52,37,24.1,99.64,Cloudy
7886,2012-11-24 14:00:00,59.94,1.3,-6.3,57,39,24.1,99.65,Mostly Cloudy
7887,2012-11-24 15:00:00,58.86000000000001,0.7,-6.4,59,35,2.4,99.7,Snow Pellets
7888,2012-11-24 16:00:00,56.7,-0.5,-5.1,71,28,24.1,99.74,Mostly Cloudy
7889,2012-11-24 17:00:00,56.519999999999996,-0.6,-5.3,70,37,12.9,99.81,Snow Showers
7890,2012-11-24 18:00:00,56.88,-0.4,-5.5,68,28,25.0,99.85,Snow Showers
7891,2012-11-24 19:00:00,55.980000000000004,-0.9,-5.0,74,22,19.3,99.9,Snow Showers
7892,2012-11-24 20:00:00,55.980000000000004,-0.9,-5.8,69,32,25.0,99.92,Cloudy
7893,2012-11-24 21:00:00,54.9,-1.5,-7.8,62,28,25.0,99.96,Mostly Cloudy
7894,2012-11-24 22:00:00,54.36,-1.8,-8.3,61,24,25.0,100.0,Mostly Cloudy
7895,2012-11-24 23:00:00,53.82,-2.1,-8.8,60,32,25.0,100.0,Mostly Cloudy
7896,2012-11-25 00:00:00,52.92,-2.6,-9.0,61,30,25.0,100.04,Mostly Cloudy
7897,2012-11-25 01:00:00,52.38,-2.9,-9.3,61,26,25.0,100.08,Mainly Clear
7898,2012-11-25 02:00:00,51.66,-3.3,-9.4,63,33,25.0,100.15,Clear
7899,2012-11-25 03:00:00,51.12,-3.6,-9.8,62,26,25.0,100.19,Mainly Clear
7900,2012-11-25 04:00:00,50.22,-4.1,-9.3,67,30,25.0,100.2,Mainly Clear
7901,2012-11-25 05:00:00,49.86,-4.3,-10.0,64,32,25.0,100.25,Mainly Clear
7902,2012-11-25 06:00:00,49.86,-4.3,-9.7,66,28,25.0,100.26,Mainly Clear
7903,2012-11-25 07:00:00,48.96,-4.8,-9.5,70,26,25.0,100.27,Mainly Clear
7904,2012-11-25 08:00:00,49.86,-4.3,-9.4,68,24,24.1,100.3,Mainly Clear
7905,2012-11-25 09:00:00,50.76,-3.8,-9.4,65,33,24.1,100.33,Mainly Clear
7906,2012-11-25 10:00:00,52.2,-3.0,-9.5,61,32,48.3,100.33,Mostly Cloudy
7907,2012-11-25 11:00:00,52.38,-2.9,-9.6,60,35,48.3,100.28,Snow Showers
7908,2012-11-25 12:00:00,53.1,-2.5,-9.9,57,33,48.3,100.21,Cloudy
7909,2012-11-25 13:00:00,53.82,-2.1,-9.9,55,32,48.3,100.19,Cloudy
7910,2012-11-25 14:00:00,54.36,-1.8,-10.3,52,30,48.3,100.22,Mostly Cloudy
7911,2012-11-25 15:00:00,54.36,-1.8,-10.9,50,28,48.3,100.22,Mostly Cloudy
7912,2012-11-25 16:00:00,53.82,-2.1,-10.9,51,24,48.3,100.24,Mostly Cloudy
7913,2012-11-25 17:00:00,52.019999999999996,-3.1,-11.8,51,24,25.0,100.27,Clear
7914,2012-11-25 18:00:00,51.480000000000004,-3.4,-11.5,53,20,25.0,100.35,Clear
7915,2012-11-25 19:00:00,50.940000000000005,-3.7,-11.0,57,22,25.0,100.39,Clear
7916,2012-11-25 20:00:00,50.940000000000005,-3.7,-10.7,58,17,25.0,100.42,Mostly Cloudy
7917,2012-11-25 21:00:00,51.480000000000004,-3.4,-10.3,59,15,25.0,100.46,Mostly Cloudy
7918,2012-11-25 22:00:00,51.12,-3.6,-10.3,60,13,25.0,100.47,Mostly Cloudy
7919,2012-11-25 23:00:00,50.04,-4.2,-10.5,61,15,25.0,100.5,Mostly Cloudy
7920,2012-11-26 00:00:00,48.78,-4.9,-10.1,67,9,25.0,100.52,Mostly Cloudy
7921,2012-11-26 01:00:00,45.9,-6.5,-10.6,73,7,25.0,100.53,Mainly Clear
7922,2012-11-26 02:00:00,48.6,-5.0,-10.0,68,7,25.0,100.57,Mainly Clear
7923,2012-11-26 03:00:00,49.5,-4.5,-9.3,69,7,25.0,100.62,Cloudy
7924,2012-11-26 04:00:00,49.86,-4.3,-9.3,68,9,25.0,100.66,Cloudy
7925,2012-11-26 05:00:00,49.86,-4.3,-10.4,62,13,25.0,100.72,Cloudy
7926,2012-11-26 06:00:00,49.5,-4.5,-10.9,61,11,25.0,100.77,Cloudy
7927,2012-11-26 07:00:00,49.14,-4.7,-10.5,64,11,25.0,100.9,Cloudy
7928,2012-11-26 08:00:00,47.7,-5.5,-10.6,67,19,24.1,101.03,Mainly Clear
7929,2012-11-26 09:00:00,50.04,-4.2,-11.0,59,17,48.3,101.14,Mainly Clear
7930,2012-11-26 10:00:00,51.480000000000004,-3.4,-11.3,54,19,48.3,101.25,Clear
7931,2012-11-26 11:00:00,53.1,-2.5,-10.9,52,22,48.3,101.3,Clear
7932,2012-11-26 12:00:00,55.26,-1.3,-10.6,49,24,48.3,101.33,Mainly Clear
7933,2012-11-26 13:00:00,55.800000000000004,-1.0,-10.6,48,24,48.3,101.34,Clear
7934,2012-11-26 14:00:00,56.16,-0.8,-11.3,45,24,48.3,101.38,Clear
7935,2012-11-26 15:00:00,55.980000000000004,-0.9,-9.9,50,26,48.3,101.48,Clear
7936,2012-11-26 16:00:00,54.36,-1.8,-9.0,58,24,48.3,101.56,Clear
7937,2012-11-26 17:00:00,52.2,-3.0,-9.5,61,20,25.0,101.67,Clear
7938,2012-11-26 18:00:00,51.480000000000004,-3.4,-9.5,63,20,25.0,101.75,Clear
7939,2012-11-26 19:00:00,50.76,-3.8,-10.0,62,15,25.0,101.81,Clear
7940,2012-11-26 20:00:00,49.32,-4.6,-10.0,66,13,25.0,101.85,Clear
7941,2012-11-26 21:00:00,44.46,-7.3,-10.3,79,7,25.0,101.87,Clear
7942,2012-11-26 22:00:00,47.88,-5.4,-9.6,72,0,25.0,101.9,Clear
7943,2012-11-26 23:00:00,47.16,-5.8,-9.7,74,4,25.0,101.94,Clear
7944,2012-11-27 00:00:00,44.28,-7.4,-9.9,82,4,25.0,101.97,Clear
7945,2012-11-27 01:00:00,41.4,-9.0,-11.0,85,4,25.0,101.98,Clear
7946,2012-11-27 02:00:00,45.0,-7.0,-9.3,84,4,25.0,102.04,Mainly Clear
7947,2012-11-27 03:00:00,46.62,-6.1,-8.5,83,7,25.0,102.03,Cloudy
7948,2012-11-27 04:00:00,48.96,-4.8,-8.1,78,7,25.0,102.01,Cloudy
7949,2012-11-27 05:00:00,49.68000000000001,-4.4,-9.0,70,7,25.0,102.02,Cloudy
7950,2012-11-27 06:00:00,49.68000000000001,-4.4,-8.7,72,6,25.0,102.04,Cloudy
7951,2012-11-27 07:00:00,49.68000000000001,-4.4,-8.8,71,9,24.1,102.05,Mostly Cloudy
7952,2012-11-27 08:00:00,48.24,-5.2,-8.4,78,9,24.1,102.15,Mostly Cloudy
7953,2012-11-27 09:00:00,49.86,-4.3,-8.6,72,9,24.1,102.13,Mostly Cloudy
7954,2012-11-27 10:00:00,52.019999999999996,-3.1,-7.8,70,9,24.1,102.2,Mostly Cloudy
7955,2012-11-27 11:00:00,53.28,-2.4,-7.8,66,6,24.1,102.2,Mostly Cloudy
7956,2012-11-27 12:00:00,56.34,-0.7,-7.4,60,4,24.1,102.16,Mainly Clear
7957,2012-11-27 13:00:00,58.13999999999999,0.3,-7.2,57,7,24.1,102.12,Mainly Clear
7958,2012-11-27 14:00:00,58.5,0.5,-6.9,58,6,24.1,102.08,Mainly Clear
7959,2012-11-27 15:00:00,58.32,0.4,-6.8,58,7,24.1,102.07,Mainly Clear
7960,2012-11-27 16:00:00,56.7,-0.5,-6.9,62,7,24.1,102.08,Clear
7961,2012-11-27 17:00:00,53.64,-2.2,-7.0,70,6,25.0,102.09,Clear
7962,2012-11-27 18:00:00,52.56,-2.8,-7.0,73,4,25.0,102.15,Clear
7963,2012-11-27 19:00:00,52.56,-2.8,-6.7,74,6,25.0,102.16,Clear
7964,2012-11-27 20:00:00,49.5,-4.5,-7.5,80,6,25.0,102.14,Clear
7965,2012-11-27 21:00:00,52.2,-3.0,-6.5,77,7,25.0,102.13,Mainly Clear
7966,2012-11-27 22:00:00,51.480000000000004,-3.4,-6.0,82,7,25.0,102.1,Mostly Cloudy
7967,2012-11-27 23:00:00,50.76,-3.8,-6.5,81,7,25.0,102.07,Mostly Cloudy
7968,2012-11-28 00:00:00,50.76,-3.8,-6.2,83,7,25.0,102.03,Mainly Clear
7969,2012-11-28 01:00:00,50.4,-4.0,-6.0,86,6,25.0,101.99,Mainly Clear
7970,2012-11-28 02:00:00,51.12,-3.6,-6.1,83,4,25.0,101.99,Mostly Cloudy
7971,2012-11-28 03:00:00,51.480000000000004,-3.4,-5.9,83,11,25.0,101.96,Mostly Cloudy
7972,2012-11-28 04:00:00,51.480000000000004,-3.4,-5.5,85,4,25.0,101.93,Mostly Cloudy
7973,2012-11-28 05:00:00,51.84,-3.2,-5.0,87,7,25.0,101.92,Cloudy
7974,2012-11-28 06:00:00,51.480000000000004,-3.4,-5.2,87,11,25.0,101.89,Cloudy
7975,2012-11-28 07:00:00,52.019999999999996,-3.1,-5.3,85,9,24.1,101.86,Cloudy
7976,2012-11-28 08:00:00,52.019999999999996,-3.1,-5.0,87,4,24.1,101.85,Cloudy
7977,2012-11-28 09:00:00,55.62,-1.1,-3.4,84,6,24.1,101.79,Mostly Cloudy
7978,2012-11-28 10:00:00,57.6,0.0,-4.1,74,4,24.1,101.76,Mostly Cloudy
7979,2012-11-28 11:00:00,58.5,0.5,-4.2,71,6,24.1,101.66,Cloudy
7980,2012-11-28 12:00:00,59.4,1.0,-6.4,58,9,24.1,101.55,Cloudy
7981,2012-11-28 13:00:00,60.839999999999996,1.8,-4.3,64,20,19.3,101.47,Cloudy
7982,2012-11-28 14:00:00,58.86000000000001,0.7,-1.3,86,19,3.2,101.42,Snow Showers
7983,2012-11-28 15:00:00,57.6,0.0,-0.8,94,15,2.4,101.37,Snow Showers
7984,2012-11-28 16:00:00,58.68000000000001,0.6,-0.9,90,20,6.4,101.37,Snow Showers
7985,2012-11-28 17:00:00,58.32,0.4,-0.7,92,22,4.8,101.36,Snow
7986,2012-11-28 18:00:00,59.04,0.8,-0.6,90,24,8.0,101.35,Snow
7987,2012-11-28 19:00:00,59.4,1.0,-0.7,88,22,12.9,101.35,Snow Showers
7988,2012-11-28 20:00:00,59.22,0.9,-0.9,88,20,16.1,101.36,Snow Showers
7989,2012-11-28 21:00:00,58.32,0.4,-1.9,85,24,16.1,101.38,Snow Showers
7990,2012-11-28 22:00:00,56.34,-0.7,-6.1,67,30,25.0,101.45,Mostly Cloudy
7991,2012-11-28 23:00:00,52.92,-2.6,-7.5,69,20,25.0,101.56,Mainly Clear
7992,2012-11-29 00:00:00,50.580000000000005,-3.9,-8.6,70,28,25.0,101.62,Clear
7993,2012-11-29 01:00:00,48.42,-5.1,-10.6,65,22,25.0,101.71,Clear
7994,2012-11-29 02:00:00,46.26,-6.3,-11.9,64,17,25.0,101.8,Clear
7995,2012-11-29 03:00:00,44.28,-7.4,-12.2,68,17,25.0,101.87,Clear
7996,2012-11-29 04:00:00,42.480000000000004,-8.4,-12.4,73,9,25.0,101.86,Clear
7997,2012-11-29 05:00:00,42.480000000000004,-8.4,-11.7,77,6,25.0,101.85,Mainly Clear
7998,2012-11-29 06:00:00,46.800000000000004,-6.0,-10.2,72,13,25.0,101.84,Mostly Cloudy
7999,2012-11-29 07:00:00,48.6,-5.0,-10.6,65,11,24.1,101.81,Cloudy
8000,2012-11-29 08:00:00,48.96,-4.8,-8.3,76,13,19.3,101.77,Snow
8001,2012-11-29 09:00:00,49.32,-4.6,-7.0,83,19,9.7,101.67,Snow
8002,2012-11-29 10:00:00,49.14,-4.7,-6.8,85,20,4.8,101.56,Snow
8003,2012-11-29 11:00:00,51.300000000000004,-3.5,-5.2,88,15,19.3,101.46,Snow
8004,2012-11-29 12:00:00,54.36,-1.8,-4.2,84,15,6.4,101.35,Snow
8005,2012-11-29 13:00:00,55.080000000000005,-1.4,-3.4,86,17,24.1,101.33,Snow
8006,2012-11-29 14:00:00,56.16,-0.8,-3.3,83,22,24.1,101.33,Snow
8007,2012-11-29 15:00:00,55.440000000000005,-1.2,-4.6,78,22,24.1,101.4,Snow
8008,2012-11-29 16:00:00,55.080000000000005,-1.4,-5.4,74,15,24.1,101.5,Cloudy
8009,2012-11-29 17:00:00,53.64,-2.2,-8.3,63,24,25.0,101.63,Cloudy
8010,2012-11-29 18:00:00,50.04,-4.2,-11.8,55,28,25.0,101.78,Snow Showers
8011,2012-11-29 19:00:00,48.78,-4.9,-11.9,58,22,25.0,101.9,Cloudy
8012,2012-11-29 20:00:00,47.34,-5.7,-12.1,61,20,25.0,102.08,Cloudy
8013,2012-11-29 21:00:00,46.080000000000005,-6.4,-12.3,63,19,25.0,102.18,Cloudy
8014,2012-11-29 22:00:00,44.46,-7.3,-14.0,59,17,25.0,102.29,Mostly Cloudy
8015,2012-11-29 23:00:00,40.68000000000001,-9.4,-15.3,62,20,25.0,102.42,Mainly Clear
8016,2012-11-30 00:00:00,38.519999999999996,-10.6,-16.1,64,19,25.0,102.52,Clear
8017,2012-11-30 01:00:00,36.0,-12.0,-16.5,69,9,25.0,102.6,Clear
8018,2012-11-30 02:00:00,33.300000000000004,-13.5,-16.9,76,6,25.0,102.72,Clear
8019,2012-11-30 03:00:00,34.92,-12.6,-16.7,71,4,25.0,102.78,Clear
8020,2012-11-30 04:00:00,35.28,-12.4,-17.0,68,4,25.0,102.82,Clear
8021,2012-11-30 05:00:00,33.12,-13.6,-17.0,75,6,25.0,102.9,Clear
8022,2012-11-30 06:00:00,34.2,-13.0,-16.6,74,9,25.0,102.96,Mainly Clear
8023,2012-11-30 07:00:00,33.480000000000004,-13.4,-17.3,72,9,24.1,103.03,Mainly Clear
8024,2012-11-30 08:00:00,34.56,-12.8,-16.7,73,13,48.3,103.12,Mainly Clear
8025,2012-11-30 09:00:00,36.18000000000001,-11.9,-16.0,72,7,48.3,103.16,Mainly Clear
8026,2012-11-30 10:00:00,38.88,-10.4,-16.3,62,11,48.3,103.2,Mostly Cloudy
8027,2012-11-30 11:00:00,39.78,-9.9,-15.9,61,9,48.3,103.18,Mostly Cloudy
8028,2012-11-30 12:00:00,40.86,-9.3,-15.2,62,0,48.3,103.16,Mostly Cloudy
8029,2012-11-30 13:00:00,41.4,-9.0,-15.2,61,6,48.3,103.15,Mostly Cloudy
8030,2012-11-30 14:00:00,41.4,-9.0,-15.6,59,6,48.3,103.15,Mostly Cloudy
8031,2012-11-30 15:00:00,41.76,-8.8,-15.8,57,11,48.3,103.14,Cloudy
8032,2012-11-30 16:00:00,41.22,-9.1,-15.8,58,11,24.1,103.16,Cloudy
8033,2012-11-30 17:00:00,40.86,-9.3,-15.6,60,15,25.0,103.2,Cloudy
8034,2012-11-30 18:00:00,40.5,-9.5,-15.5,62,13,25.0,103.24,Cloudy
8035,2012-11-30 19:00:00,40.14,-9.7,-15.8,61,15,25.0,103.24,Mostly Cloudy
8036,2012-11-30 20:00:00,39.6,-10.0,-16.3,60,15,25.0,103.26,Cloudy
8037,2012-11-30 21:00:00,38.88,-10.4,-16.9,59,19,25.0,103.3,Mainly Clear
8038,2012-11-30 22:00:00,38.34,-10.7,-16.8,61,19,25.0,103.29,Mainly Clear
8039,2012-11-30 23:00:00,38.16,-10.8,-16.1,65,17,25.0,103.25,Mainly Clear
8040,2012-12-01 00:00:00,38.16,-10.8,-16.2,64,9,25.0,103.26,Clear
8041,2012-12-01 01:00:00,37.800000000000004,-11.0,-16.5,64,13,25.0,103.25,Mainly Clear
8042,2012-12-01 02:00:00,37.62,-11.1,-16.5,64,20,25.0,103.21,Mainly Clear
8043,2012-12-01 03:00:00,35.1,-12.5,-15.7,77,15,25.0,103.27,Mainly Clear
8044,2012-12-01 04:00:00,36.36,-11.8,-15.1,76,17,25.0,103.22,Mostly Cloudy
8045,2012-12-01 05:00:00,36.18000000000001,-11.9,-14.6,80,20,25.0,103.19,Mostly Cloudy
8046,2012-12-01 06:00:00,36.36,-11.8,-15.0,77,26,25.0,103.18,Mostly Cloudy
8047,2012-12-01 07:00:00,37.26,-11.3,-14.2,79,24,24.1,103.19,Cloudy
8048,2012-12-01 08:00:00,37.980000000000004,-10.9,-15.3,70,19,24.1,103.23,Mostly Cloudy
8049,2012-12-01 09:00:00,38.519999999999996,-10.6,-15.9,65,24,24.1,103.18,Cloudy
8050,2012-12-01 10:00:00,37.980000000000004,-10.9,-15.7,68,24,24.1,103.18,Cloudy
8051,2012-12-01 11:00:00,39.06,-10.3,-15.1,68,20,24.1,103.08,Cloudy
8052,2012-12-01 12:00:00,40.68000000000001,-9.4,-14.6,66,24,24.1,102.97,Cloudy
8053,2012-12-01 13:00:00,41.580000000000005,-8.9,-14.6,63,22,24.1,102.9,Cloudy
8054,2012-12-01 14:00:00,42.66,-8.3,-13.6,66,22,24.1,102.86,Cloudy
8055,2012-12-01 15:00:00,42.66,-8.3,-13.5,66,17,24.1,102.84,Cloudy
8056,2012-12-01 16:00:00,43.38,-7.9,-12.4,70,20,24.1,102.82,Cloudy
8057,2012-12-01 17:00:00,44.1,-7.5,-12.0,70,20,19.3,102.73,Snow
8058,2012-12-01 18:00:00,45.18000000000001,-6.9,-11.3,71,19,25.0,102.71,Snow
8059,2012-12-01 19:00:00,45.72,-6.6,-10.8,72,17,25.0,102.63,Cloudy
8060,2012-12-01 20:00:00,46.800000000000004,-6.0,-10.0,73,17,25.0,102.55,Cloudy
8061,2012-12-01 21:00:00,46.980000000000004,-5.9,-9.6,75,17,25.0,102.49,Cloudy
8062,2012-12-01 22:00:00,48.96,-4.8,-8.4,76,13,19.3,102.36,Snow
8063,2012-12-01 23:00:00,49.14,-4.7,-8.0,78,19,16.1,102.28,Cloudy
8064,2012-12-02 00:00:00,49.86,-4.3,-7.3,80,15,24.1,102.18,Cloudy
8065,2012-12-02 01:00:00,50.04,-4.2,-6.8,82,15,24.1,102.11,Cloudy
8066,2012-12-02 02:00:00,50.580000000000005,-3.9,-6.5,82,15,25.0,102.06,Cloudy
8067,2012-12-02 03:00:00,51.300000000000004,-3.5,-5.8,84,13,25.0,102.02,Snow
8068,2012-12-02 04:00:00,51.84,-3.2,-5.3,85,13,25.0,101.86,Cloudy
8069,2012-12-02 05:00:00,52.74,-2.7,-5.1,84,11,25.0,101.75,Cloudy
8070,2012-12-02 06:00:00,54.18000000000001,-1.9,-4.0,86,9,25.0,101.67,Cloudy
8071,2012-12-02 07:00:00,57.06,-0.3,-2.3,86,6,25.0,101.58,Cloudy
8072,2012-12-02 08:00:00,66.06,4.7,2.4,85,28,25.0,101.46,Cloudy
8073,2012-12-02 09:00:00,66.78,5.1,2.6,84,32,24.1,101.34,Cloudy
8074,2012-12-02 10:00:00,67.86000000000001,5.7,3.0,83,28,19.3,101.27,Cloudy
8075,2012-12-02 11:00:00,68.76,6.2,3.2,81,28,24.1,101.16,Cloudy
8076,2012-12-02 12:00:00,69.48,6.6,3.3,79,28,24.1,101.0,Rain Showers
8077,2012-12-02 13:00:00,68.76,6.2,4.3,88,19,12.9,100.89,Rain
8078,2012-12-02 14:00:00,68.4,6.0,4.5,90,19,9.7,100.82,"Rain,Fog"
8079,2012-12-02 15:00:00,67.68,5.6,4.9,95,22,4.8,100.75,"Rain,Fog"
8080,2012-12-02 16:00:00,67.5,5.5,4.9,96,20,6.4,100.68,"Rain,Fog"
8081,2012-12-02 17:00:00,67.5,5.5,5.0,97,17,6.4,100.65,"Rain,Fog"
8082,2012-12-02 18:00:00,68.03999999999999,5.8,5.6,99,15,4.8,100.65,"Rain,Fog"
8083,2012-12-02 19:00:00,68.22,5.9,5.9,100,15,3.6,100.67,"Drizzle,Fog"
8084,2012-12-02 20:00:00,69.48,6.6,6.5,99,13,3.2,100.68,"Drizzle,Fog"
8085,2012-12-02 21:00:00,69.66000000000001,6.7,6.6,99,11,8.0,100.7,Fog
8086,2012-12-02 22:00:00,70.38000000000001,7.1,6.9,99,15,8.0,100.71,"Drizzle,Fog"
8087,2012-12-02 23:00:00,72.36000000000001,8.2,7.7,97,19,8.0,100.72,"Drizzle,Fog"
8088,2012-12-03 00:00:00,72.18,8.1,7.5,96,15,9.7,100.78,"Drizzle,Fog"
8089,2012-12-03 01:00:00,71.64,7.8,6.8,93,22,12.9,100.85,Cloudy
8090,2012-12-03 02:00:00,69.84,6.8,5.3,90,28,25.0,100.99,Mostly Cloudy
8091,2012-12-03 03:00:00,67.5,5.5,2.9,83,26,25.0,101.22,Mostly Cloudy
8092,2012-12-03 04:00:00,64.98,4.1,1.6,84,13,25.0,101.35,Mostly Cloudy
8093,2012-12-03 05:00:00,63.36000000000001,3.2,0.6,83,13,25.0,101.48,Mostly Cloudy
8094,2012-12-03 06:00:00,60.839999999999996,1.8,-0.1,87,11,25.0,101.58,Clear
8095,2012-12-03 07:00:00,59.760000000000005,1.2,-0.6,88,9,25.0,101.7,Mainly Clear
8096,2012-12-03 08:00:00,61.56000000000001,2.2,0.0,85,11,24.1,101.78,Mainly Clear
8097,2012-12-03 09:00:00,64.08,3.6,1.0,83,11,48.3,101.87,Mostly Cloudy
8098,2012-12-03 10:00:00,64.62,3.9,1.2,83,13,24.1,101.99,Mostly Cloudy
8099,2012-12-03 11:00:00,64.26,3.7,1.1,83,11,24.1,101.96,Cloudy
8100,2012-12-03 12:00:00,64.62,3.9,1.3,83,9,24.1,101.96,Cloudy
8101,2012-12-03 13:00:00,64.8,4.0,1.2,82,9,24.1,101.95,Cloudy
8102,2012-12-03 14:00:00,65.16000000000001,4.2,0.8,79,13,24.1,101.95,Cloudy
8103,2012-12-03 15:00:00,64.8,4.0,1.0,81,9,24.1,101.98,Cloudy
8104,2012-12-03 16:00:00,64.26,3.7,-0.1,76,4,24.1,102.01,Cloudy
8105,2012-12-03 17:00:00,62.82,2.9,1.1,88,4,25.0,102.03,Cloudy
8106,2012-12-03 18:00:00,63.0,3.0,0.6,84,4,25.0,102.03,Cloudy
8107,2012-12-03 19:00:00,63.72,3.4,0.5,81,6,25.0,102.01,Cloudy
8108,2012-12-03 20:00:00,63.9,3.5,0.7,82,0,25.0,101.99,Cloudy
8109,2012-12-03 21:00:00,63.18000000000001,3.1,1.2,87,6,25.0,101.99,Cloudy
8110,2012-12-03 22:00:00,64.26,3.7,1.3,84,11,25.0,101.94,Cloudy
8111,2012-12-03 23:00:00,64.26,3.7,1.1,83,13,25.0,101.91,Cloudy
8112,2012-12-04 00:00:00,64.26,3.7,1.3,84,13,25.0,101.92,Cloudy
8113,2012-12-04 01:00:00,64.08,3.6,1.4,86,7,25.0,101.86,Cloudy
8114,2012-12-04 02:00:00,64.62,3.9,1.1,82,6,25.0,101.81,Mostly Cloudy
8115,2012-12-04 03:00:00,64.44,3.8,1.2,83,19,25.0,101.71,Cloudy
8116,2012-12-04 04:00:00,63.18000000000001,3.1,1.3,88,20,25.0,101.56,Mainly Clear
8117,2012-12-04 05:00:00,62.82,2.9,1.5,90,13,25.0,101.52,Mostly Cloudy
8118,2012-12-04 06:00:00,65.16000000000001,4.2,2.6,89,15,25.0,101.41,Cloudy
8119,2012-12-04 07:00:00,66.78,5.1,3.4,89,13,25.0,101.35,Cloudy
8120,2012-12-04 08:00:00,67.5,5.5,3.9,89,9,19.3,101.29,Rain Showers
8121,2012-12-04 09:00:00,68.22,5.9,4.8,93,11,19.3,101.23,Rain Showers
8122,2012-12-04 10:00:00,72.0,8.0,6.3,89,19,19.3,101.16,Mostly Cloudy
8123,2012-12-04 11:00:00,75.78,10.1,7.7,85,17,24.1,101.06,Cloudy
8124,2012-12-04 12:00:00,78.3,11.5,8.3,81,19,24.1,100.92,Mostly Cloudy
8125,2012-12-04 13:00:00,79.02,11.9,8.4,79,17,24.1,100.84,Cloudy
8126,2012-12-04 14:00:00,77.94,11.3,8.1,81,24,24.1,100.74,Cloudy
8127,2012-12-04 15:00:00,77.4,11.0,7.9,81,24,24.1,100.66,Cloudy
8128,2012-12-04 16:00:00,76.86000000000001,10.7,7.9,83,24,19.3,100.64,Cloudy
8129,2012-12-04 17:00:00,77.03999999999999,10.8,8.1,83,30,25.0,100.55,Cloudy
8130,2012-12-04 18:00:00,76.86000000000001,10.7,8.2,85,32,25.0,100.5,Cloudy
8131,2012-12-04 19:00:00,76.86000000000001,10.7,8.4,86,7,25.0,100.57,Rain Showers
8132,2012-12-04 20:00:00,75.42,9.9,9.1,95,15,12.9,100.53,Rain
8133,2012-12-04 21:00:00,76.32,10.4,9.7,95,9,6.4,100.56,Rain
8134,2012-12-04 22:00:00,75.24,9.8,9.3,97,6,12.9,100.57,Rain
8135,2012-12-04 23:00:00,75.06,9.7,9.1,96,19,9.7,100.63,Rain
8136,2012-12-05 00:00:00,74.7,9.5,8.0,90,19,12.9,100.56,Rain
8137,2012-12-05 01:00:00,73.8,9.0,7.3,89,30,16.1,100.45,Rain
8138,2012-12-05 02:00:00,73.26,8.7,7.1,90,24,16.1,100.5,Rain
8139,2012-12-05 03:00:00,71.64,7.8,6.7,93,24,9.7,100.53,Rain
8140,2012-12-05 04:00:00,70.56,7.2,4.8,85,15,25.0,100.55,Mainly Clear
8141,2012-12-05 05:00:00,69.48,6.6,4.1,84,17,25.0,100.62,Cloudy
8142,2012-12-05 06:00:00,67.86000000000001,5.7,2.7,81,24,25.0,100.68,Mostly Cloudy
8143,2012-12-05 07:00:00,66.96000000000001,5.2,0.4,71,30,25.0,100.74,Mostly Cloudy
8144,2012-12-05 08:00:00,65.16000000000001,4.2,-0.5,71,26,24.1,100.85,Cloudy
8145,2012-12-05 09:00:00,64.08,3.6,-1.5,69,26,24.1,100.95,Cloudy
8146,2012-12-05 10:00:00,61.38,2.1,-1.8,75,28,19.3,101.09,"Rain Showers,Snow Showers"
8147,2012-12-05 11:00:00,61.56000000000001,2.2,-2.5,71,30,24.1,101.17,Snow Showers
8148,2012-12-05 12:00:00,59.580000000000005,1.1,-4.8,65,26,24.1,101.23,Snow Showers
8149,2012-12-05 13:00:00,59.94,1.3,-7.0,54,30,24.1,101.29,Mostly Cloudy
8150,2012-12-05 14:00:00,59.04,0.8,-6.7,57,35,24.1,101.34,Mostly Cloudy
8151,2012-12-05 15:00:00,57.78,0.1,-7.6,56,26,24.1,101.47,Mostly Cloudy
8152,2012-12-05 16:00:00,56.88,-0.4,-9.4,51,30,24.1,101.58,Cloudy
8153,2012-12-05 17:00:00,56.34,-0.7,-8.3,56,30,25.0,101.66,Cloudy
8154,2012-12-05 18:00:00,56.16,-0.8,-8.0,58,22,25.0,101.76,Mostly Cloudy
8155,2012-12-05 19:00:00,55.800000000000004,-1.0,-8.5,57,28,25.0,101.84,Snow
8156,2012-12-05 20:00:00,55.080000000000005,-1.4,-8.6,58,19,25.0,101.88,Mostly Cloudy
8157,2012-12-05 21:00:00,54.18000000000001,-1.9,-8.7,60,24,25.0,101.93,Mostly Cloudy
8158,2012-12-05 22:00:00,54.72,-1.6,-9.5,55,26,25.0,102.01,Mostly Cloudy
8159,2012-12-05 23:00:00,54.36,-1.8,-9.7,55,20,25.0,102.07,Mostly Cloudy
8160,2012-12-06 00:00:00,53.82,-2.1,-9.7,56,20,25.0,102.1,Mostly Cloudy
8161,2012-12-06 01:00:00,53.46,-2.3,-9.3,59,17,25.0,102.12,Mostly Cloudy
8162,2012-12-06 02:00:00,52.38,-2.9,-9.4,61,17,25.0,102.21,Mostly Cloudy
8163,2012-12-06 03:00:00,51.480000000000004,-3.4,-9.1,65,15,25.0,102.26,Mostly Cloudy
8164,2012-12-06 04:00:00,50.580000000000005,-3.9,-9.0,68,11,25.0,102.33,Mostly Cloudy
8165,2012-12-06 05:00:00,48.24,-5.2,-9.7,71,9,25.0,102.38,Mainly Clear
8166,2012-12-06 06:00:00,47.34,-5.7,-9.7,73,13,25.0,102.45,Mainly Clear
8167,2012-12-06 07:00:00,46.980000000000004,-5.9,-10.0,73,11,24.1,102.47,Mainly Clear
8168,2012-12-06 08:00:00,49.32,-4.6,-8.8,72,7,24.1,102.52,Mainly Clear
8169,2012-12-06 09:00:00,51.480000000000004,-3.4,-8.9,66,9,48.3,102.53,Mostly Cloudy
8170,2012-12-06 10:00:00,52.92,-2.6,-8.4,64,13,48.3,102.56,Mostly Cloudy
8171,2012-12-06 11:00:00,54.36,-1.8,-8.9,58,13,48.3,102.46,Mainly Clear
8172,2012-12-06 12:00:00,54.36,-1.8,-9.4,56,6,48.3,102.37,Mainly Clear
8173,2012-12-06 13:00:00,55.800000000000004,-1.0,-8.3,58,7,48.3,102.27,Mainly Clear
8174,2012-12-06 14:00:00,55.980000000000004,-0.9,-8.7,55,13,48.3,102.21,Mainly Clear
8175,2012-12-06 15:00:00,55.440000000000005,-1.2,-7.9,60,11,48.3,102.18,Mainly Clear
8176,2012-12-06 16:00:00,52.56,-2.8,-7.9,68,7,48.3,102.11,Mainly Clear
8177,2012-12-06 17:00:00,52.56,-2.8,-7.6,69,7,25.0,102.1,Mainly Clear
8178,2012-12-06 18:00:00,52.74,-2.7,-6.8,73,13,25.0,102.06,Mostly Cloudy
8179,2012-12-06 19:00:00,52.56,-2.8,-7.4,71,9,25.0,102.05,Mostly Cloudy
8180,2012-12-06 20:00:00,54.18000000000001,-1.9,-7.4,66,7,25.0,101.95,Mostly Cloudy
8181,2012-12-06 21:00:00,54.54,-1.7,-7.0,67,11,25.0,101.88,Cloudy
8182,2012-12-06 22:00:00,55.080000000000005,-1.4,-7.2,65,17,25.0,101.8,Cloudy
8183,2012-12-06 23:00:00,55.62,-1.1,-6.0,69,7,25.0,101.73,Mostly Cloudy
8184,2012-12-07 00:00:00,55.26,-1.3,-5.9,71,13,25.0,101.67,Mostly Cloudy
8185,2012-12-07 01:00:00,54.9,-1.5,-5.7,73,7,25.0,101.58,Mostly Cloudy
8186,2012-12-07 02:00:00,55.26,-1.3,-5.3,74,9,25.0,101.51,Mainly Clear
8187,2012-12-07 03:00:00,54.36,-1.8,-5.3,77,9,25.0,101.46,Mainly Clear
8188,2012-12-07 04:00:00,52.74,-2.7,-5.7,80,11,25.0,101.38,Mostly Cloudy
8189,2012-12-07 05:00:00,53.64,-2.2,-5.5,78,11,25.0,101.3,Mostly Cloudy
8190,2012-12-07 06:00:00,52.38,-2.9,-5.5,82,7,25.0,101.27,Cloudy
8191,2012-12-07 07:00:00,52.56,-2.8,-5.3,83,11,24.1,101.3,Mostly Cloudy
8192,2012-12-07 08:00:00,51.66,-3.3,-5.4,85,7,24.1,101.29,Cloudy
8193,2012-12-07 09:00:00,53.82,-2.1,-4.7,82,7,24.1,101.32,Mostly Cloudy
8194,2012-12-07 10:00:00,59.760000000000005,1.2,-5.8,60,9,48.3,101.26,Mostly Cloudy
8195,2012-12-07 11:00:00,62.28,2.6,-5.0,57,4,48.3,101.24,Mostly Cloudy
8196,2012-12-07 12:00:00,63.0,3.0,-5.0,56,4,24.1,101.2,Cloudy
8197,2012-12-07 13:00:00,64.26,3.7,-4.3,56,6,48.3,101.15,Cloudy
8198,2012-12-07 14:00:00,64.62,3.9,-4.3,55,11,48.3,101.09,Cloudy
8199,2012-12-07 15:00:00,64.62,3.9,-3.3,59,11,48.3,101.11,Cloudy
8200,2012-12-07 16:00:00,63.9,3.5,-3.8,59,9,24.1,101.13,Cloudy
8201,2012-12-07 17:00:00,62.63999999999999,2.8,-3.3,64,11,25.0,101.14,Cloudy
8202,2012-12-07 18:00:00,61.56000000000001,2.2,-3.5,66,7,25.0,101.13,Mostly Cloudy
8203,2012-12-07 19:00:00,61.56000000000001,2.2,-3.3,67,6,25.0,101.17,Cloudy
8204,2012-12-07 20:00:00,61.38,2.1,-3.1,68,4,25.0,101.18,Cloudy
8205,2012-12-07 21:00:00,61.2,2.0,-3.1,69,6,25.0,101.18,Cloudy
8206,2012-12-07 22:00:00,61.739999999999995,2.3,-2.5,71,4,25.0,101.19,Cloudy
8207,2012-12-07 23:00:00,60.300000000000004,1.5,-2.2,76,4,19.3,101.22,Snow
8208,2012-12-08 00:00:00,60.839999999999996,1.8,-1.4,79,4,25.0,101.2,Snow
8209,2012-12-08 01:00:00,61.2,2.0,-1.3,79,6,25.0,101.17,Cloudy
8210,2012-12-08 02:00:00,61.2,2.0,-1.9,75,7,25.0,101.17,Cloudy
8211,2012-12-08 03:00:00,61.38,2.1,-1.5,77,6,25.0,101.18,Cloudy
8212,2012-12-08 04:00:00,62.1,2.5,-1.2,77,0,25.0,101.13,Cloudy
8213,2012-12-08 05:00:00,62.46000000000001,2.7,-1.0,77,9,25.0,101.07,Cloudy
8214,2012-12-08 06:00:00,61.92,2.4,0.3,86,9,25.0,101.05,Cloudy
8215,2012-12-08 07:00:00,61.739999999999995,2.3,1.0,91,6,8.0,101.09,Fog
8216,2012-12-08 08:00:00,62.46000000000001,2.7,1.6,92,7,6.4,101.06,"Rain,Fog"
8217,2012-12-08 09:00:00,62.46000000000001,2.7,1.8,94,11,4.8,100.98,"Rain,Fog"
8218,2012-12-08 10:00:00,63.36000000000001,3.2,2.1,92,11,8.0,100.95,"Rain,Fog"
8219,2012-12-08 11:00:00,61.56000000000001,2.2,1.5,95,17,8.0,100.83,"Rain,Fog"
8220,2012-12-08 12:00:00,61.38,2.1,1.6,96,15,4.8,100.74,"Rain,Fog"
8221,2012-12-08 13:00:00,61.019999999999996,1.9,1.3,96,17,3.6,100.59,"Rain,Fog"
8222,2012-12-08 14:00:00,61.38,2.1,1.2,94,15,6.4,100.52,"Rain,Fog"
8223,2012-12-08 15:00:00,61.2,2.0,1.0,93,17,4.8,100.48,"Rain,Fog"
8224,2012-12-08 16:00:00,60.839999999999996,1.8,0.8,93,17,4.8,100.49,"Rain,Fog"
8225,2012-12-08 17:00:00,60.480000000000004,1.6,0.6,93,9,8.0,100.46,"Rain,Fog"
8226,2012-12-08 18:00:00,59.580000000000005,1.1,0.5,96,9,6.4,100.54,"Rain,Fog"
8227,2012-12-08 19:00:00,59.22,0.9,0.2,95,9,6.4,100.61,"Rain,Fog"
8228,2012-12-08 20:00:00,59.04,0.8,0.3,96,9,6.4,100.67,"Rain,Fog"
8229,2012-12-08 21:00:00,59.04,0.8,0.3,96,9,6.4,100.73,"Rain,Snow,Fog"
8230,2012-12-08 22:00:00,59.760000000000005,1.2,0.6,96,13,6.4,100.84,Fog
8231,2012-12-08 23:00:00,59.94,1.3,0.6,95,17,8.0,100.96,"Drizzle,Fog"
8232,2012-12-09 00:00:00,60.300000000000004,1.5,0.7,94,20,9.7,101.07,Fog
8233,2012-12-09 01:00:00,61.019999999999996,1.9,0.7,92,17,16.1,101.22,Cloudy
8234,2012-12-09 02:00:00,60.839999999999996,1.8,0.1,88,17,19.3,101.37,Cloudy
8235,2012-12-09 03:00:00,60.300000000000004,1.5,-0.5,87,17,25.0,101.47,Mainly Clear
8236,2012-12-09 04:00:00,60.300000000000004,1.5,-0.3,88,13,25.0,101.59,Mostly Cloudy
8237,2012-12-09 05:00:00,59.580000000000005,1.1,-0.9,86,15,25.0,101.72,Cloudy
8238,2012-12-09 06:00:00,59.04,0.8,-1.5,85,11,25.0,101.84,Cloudy
8239,2012-12-09 07:00:00,57.96000000000001,0.2,-2.3,83,20,24.1,102.02,Cloudy
8240,2012-12-09 08:00:00,56.7,-0.5,-2.9,84,11,24.1,102.16,Cloudy
8241,2012-12-09 09:00:00,55.980000000000004,-0.9,-3.9,80,20,24.1,102.24,Cloudy
8242,2012-12-09 10:00:00,54.9,-1.5,-4.5,80,20,24.1,102.35,Cloudy
8243,2012-12-09 11:00:00,54.54,-1.7,-4.8,79,17,24.1,102.35,Cloudy
8244,2012-12-09 12:00:00,54.18000000000001,-1.9,-5.1,79,17,12.9,102.32,Snow Showers
8245,2012-12-09 13:00:00,53.46,-2.3,-5.4,79,9,24.1,102.28,Cloudy
8246,2012-12-09 14:00:00,54.18000000000001,-1.9,-5.1,79,7,24.1,102.28,Cloudy
8247,2012-12-09 15:00:00,54.18000000000001,-1.9,-4.9,80,6,24.1,102.33,Cloudy
8248,2012-12-09 16:00:00,54.72,-1.6,-5.2,76,4,24.1,102.31,Cloudy
8249,2012-12-09 17:00:00,55.440000000000005,-1.2,-5.7,71,15,25.0,102.31,Cloudy
8250,2012-12-09 18:00:00,55.080000000000005,-1.4,-5.9,71,19,25.0,102.25,Cloudy
8251,2012-12-09 19:00:00,54.54,-1.7,-6.2,71,22,24.1,102.22,Cloudy
8252,2012-12-09 20:00:00,53.64,-2.2,-7.2,69,28,25.0,102.11,Cloudy
8253,2012-12-09 21:00:00,53.28,-2.4,-6.5,73,20,25.0,101.91,Cloudy
8254,2012-12-09 22:00:00,52.2,-3.0,-8.2,67,28,25.0,101.78,Cloudy
8255,2012-12-09 23:00:00,51.12,-3.6,-8.6,68,32,25.0,101.64,Cloudy
8256,2012-12-10 00:00:00,50.580000000000005,-3.9,-8.1,73,20,25.0,101.54,Cloudy
8257,2012-12-10 01:00:00,48.6,-5.0,-6.2,91,32,1.6,101.31,Snow
8258,2012-12-10 02:00:00,49.14,-4.7,-6.2,89,33,4.0,101.1,Snow
8259,2012-12-10 03:00:00,49.86,-4.3,-5.9,89,33,2.8,100.96,"Snow,Ice Pellets"
8260,2012-12-10 04:00:00,51.66,-3.3,-4.4,92,28,3.6,100.73,"Freezing Drizzle,Fog"
8261,2012-12-10 05:00:00,54.18000000000001,-1.9,-2.8,94,33,4.0,100.55,"Freezing Drizzle,Fog"
8262,2012-12-10 06:00:00,57.78,0.1,-0.9,93,22,8.0,100.3,"Freezing Rain,Fog"
8263,2012-12-10 07:00:00,59.4,1.0,0.0,93,19,8.0,100.09,"Rain,Fog"
8264,2012-12-10 08:00:00,60.660000000000004,1.7,0.8,94,17,6.4,99.98,"Moderate Rain,Fog"
8265,2012-12-10 09:00:00,61.56000000000001,2.2,1.5,95,19,6.4,99.78,"Rain,Fog"
8266,2012-12-10 10:00:00,61.56000000000001,2.2,1.6,96,17,2.4,99.7,"Rain,Fog"
8267,2012-12-10 11:00:00,61.019999999999996,1.9,1.5,97,15,3.2,99.6,"Rain,Fog"
8268,2012-12-10 12:00:00,60.12,1.4,0.8,96,15,4.8,99.44,"Drizzle,Fog"
8269,2012-12-10 13:00:00,58.68000000000001,0.6,0.3,98,19,2.4,99.34,"Rain,Fog"
8270,2012-12-10 14:00:00,57.78,0.1,-0.2,98,15,2.4,99.32,"Rain,Fog"
8271,2012-12-10 15:00:00,57.6,0.0,-0.5,96,9,4.0,99.34,"Drizzle,Fog"
8272,2012-12-10 16:00:00,57.6,0.0,-0.5,96,6,4.0,99.41,"Rain,Fog"
8273,2012-12-10 17:00:00,57.78,0.1,-0.3,97,4,4.8,99.42,"Rain,Fog"
8274,2012-12-10 18:00:00,60.300000000000004,1.5,1.1,97,15,12.9,99.57,Cloudy
8275,2012-12-10 19:00:00,62.28,2.6,0.9,89,22,25.0,99.54,Cloudy
8276,2012-12-10 20:00:00,62.1,2.5,-0.5,81,24,25.0,99.58,Cloudy
8277,2012-12-10 21:00:00,61.56000000000001,2.2,-1.3,78,24,25.0,99.63,Cloudy
8278,2012-12-10 22:00:00,60.660000000000004,1.7,-1.3,80,20,25.0,99.73,Cloudy
8279,2012-12-10 23:00:00,59.760000000000005,1.2,-2.1,79,20,25.0,99.78,Mostly Cloudy
8280,2012-12-11 00:00:00,58.86000000000001,0.7,-2.7,78,17,25.0,99.89,Cloudy
8281,2012-12-11 01:00:00,57.6,0.0,-3.6,77,28,25.0,99.99,Cloudy
8282,2012-12-11 02:00:00,55.62,-1.1,-5.2,74,22,25.0,100.09,Mostly Cloudy
8283,2012-12-11 03:00:00,53.1,-2.5,-6.0,77,24,25.0,100.27,Mostly Cloudy
8284,2012-12-11 04:00:00,49.5,-4.5,-8.0,76,20,25.0,100.38,Mainly Clear
8285,2012-12-11 05:00:00,46.980000000000004,-5.9,-9.6,75,17,25.0,100.51,Mainly Clear
8286,2012-12-11 06:00:00,44.46,-7.3,-10.3,79,15,25.0,100.62,Mainly Clear
8287,2012-12-11 07:00:00,43.2,-8.0,-11.5,76,15,24.1,100.78,Mainly Clear
8288,2012-12-11 08:00:00,42.480000000000004,-8.4,-12.0,75,17,24.1,100.91,Mainly Clear
8289,2012-12-11 09:00:00,43.38,-7.9,-12.0,72,19,24.1,101.03,Mainly Clear
8290,2012-12-11 10:00:00,44.82,-7.1,-12.0,68,9,24.1,101.12,Mainly Clear
8291,2012-12-11 11:00:00,45.72,-6.6,-12.2,64,7,24.1,101.1,Mainly Clear
8292,2012-12-11 12:00:00,46.62,-6.1,-12.4,61,11,24.1,101.13,Mainly Clear
8293,2012-12-11 13:00:00,47.7,-5.5,-11.1,65,17,24.1,101.18,Mainly Clear
8294,2012-12-11 14:00:00,48.24,-5.2,-11.0,64,17,24.1,101.21,Mainly Clear
8295,2012-12-11 15:00:00,47.34,-5.7,-11.5,64,13,24.1,101.29,Clear
8296,2012-12-11 16:00:00,46.62,-6.1,-11.6,65,15,24.1,101.35,Clear
8297,2012-12-11 17:00:00,45.36,-6.8,-11.7,68,11,24.1,101.45,Clear
8298,2012-12-11 18:00:00,45.18000000000001,-6.9,-11.5,70,13,25.0,101.51,Clear
8299,2012-12-11 19:00:00,43.38,-7.9,-11.0,78,13,25.0,101.6,Clear
8300,2012-12-11 20:00:00,43.38,-7.9,-11.3,77,15,25.0,101.68,Clear
8301,2012-12-11 21:00:00,41.940000000000005,-8.7,-11.6,79,9,25.0,101.74,Clear
8302,2012-12-11 22:00:00,41.22,-9.1,-11.4,83,6,25.0,101.78,Clear
8303,2012-12-11 23:00:00,42.66,-8.3,-11.2,80,9,25.0,101.84,Clear
8304,2012-12-12 00:00:00,41.04,-9.2,-11.6,83,7,25.0,101.87,Clear
8305,2012-12-12 01:00:00,40.68000000000001,-9.4,-11.5,85,7,25.0,101.91,Clear
8306,2012-12-12 02:00:00,39.06,-10.3,-12.0,87,4,25.0,101.96,Clear
8307,2012-12-12 03:00:00,40.32,-9.6,-11.3,87,4,25.0,102.0,Clear
8308,2012-12-12 04:00:00,39.42,-10.1,-11.6,89,6,25.0,102.04,Clear
8309,2012-12-12 05:00:00,39.06,-10.3,-11.7,89,4,25.0,102.06,Clear
8310,2012-12-12 06:00:00,40.5,-9.5,-11.3,87,4,25.0,102.1,Clear
8311,2012-12-12 07:00:00,37.440000000000005,-11.2,-12.4,91,4,24.1,102.19,Mainly Clear
8312,2012-12-12 08:00:00,44.46,-7.3,-9.2,86,11,24.1,102.14,Mostly Cloudy
8313,2012-12-12 09:00:00,46.62,-6.1,-9.0,80,4,24.1,102.21,Snow Showers
8314,2012-12-12 10:00:00,49.14,-4.7,-7.6,80,9,24.1,102.2,Snow Showers
8315,2012-12-12 11:00:00,50.940000000000005,-3.7,-6.8,79,7,19.3,102.15,Cloudy
8316,2012-12-12 12:00:00,52.74,-2.7,-6.5,75,7,19.3,102.14,Mostly Cloudy
8317,2012-12-12 13:00:00,52.2,-3.0,-6.7,76,6,19.3,102.14,Mainly Clear
8318,2012-12-12 14:00:00,52.38,-2.9,-6.5,76,7,16.1,102.16,Cloudy
8319,2012-12-12 15:00:00,51.84,-3.2,-6.7,77,6,19.3,102.17,Mostly Cloudy
8320,2012-12-12 16:00:00,52.56,-2.8,-6.2,77,4,12.9,102.2,Mostly Cloudy
8321,2012-12-12 17:00:00,51.84,-3.2,-6.0,81,7,9.7,102.25,Snow Showers
8322,2012-12-12 18:00:00,51.12,-3.6,-5.7,85,7,12.9,102.28,Snow Showers
8323,2012-12-12 19:00:00,50.4,-4.0,-6.1,85,11,12.9,102.3,Cloudy
8324,2012-12-12 20:00:00,49.68000000000001,-4.4,-6.4,86,7,16.1,102.36,Snow Showers
8325,2012-12-12 21:00:00,50.580000000000005,-3.9,-5.9,86,6,16.1,102.37,Snow Showers
8326,2012-12-12 22:00:00,50.76,-3.8,-5.6,87,4,11.3,102.4,Snow Showers
8327,2012-12-12 23:00:00,49.86,-4.3,-5.8,89,4,16.1,102.45,Mainly Clear
8328,2012-12-13 00:00:00,46.62,-6.1,-7.4,90,6,12.9,102.44,Clear
8329,2012-12-13 01:00:00,49.86,-4.3,-5.3,93,11,12.9,102.49,Clear
8330,2012-12-13 02:00:00,46.980000000000004,-5.9,-6.6,95,6,11.3,102.57,Clear
8331,2012-12-13 03:00:00,46.62,-6.1,-7.0,93,11,11.3,102.61,Clear
8332,2012-12-13 04:00:00,47.88,-5.4,-6.2,94,6,8.0,102.61,Fog
8333,2012-12-13 05:00:00,46.800000000000004,-6.0,-6.8,94,4,9.7,102.63,Fog
8334,2012-12-13 06:00:00,46.080000000000005,-6.4,-7.5,92,4,9.7,102.66,Fog
8335,2012-12-13 07:00:00,46.62,-6.1,-7.4,90,4,9.7,102.69,Fog
8336,2012-12-13 08:00:00,46.800000000000004,-6.0,-7.1,92,4,8.0,102.67,Fog
8337,2012-12-13 09:00:00,49.14,-4.7,-6.0,91,4,8.0,102.68,Fog
8338,2012-12-13 10:00:00,53.46,-2.3,-4.2,87,4,6.4,102.64,Fog
8339,2012-12-13 11:00:00,56.34,-0.7,-3.1,84,9,9.7,102.55,Haze
8340,2012-12-13 12:00:00,56.88,-0.4,-2.9,83,9,9.7,102.46,Haze
8341,2012-12-13 13:00:00,57.78,0.1,-2.5,83,9,12.9,102.36,Cloudy
8342,2012-12-13 14:00:00,59.580000000000005,1.1,-2.1,79,11,19.3,102.28,Mostly Cloudy
8343,2012-12-13 15:00:00,61.38,2.1,-1.9,75,7,19.3,102.25,Mainly Clear
8344,2012-12-13 16:00:00,59.94,1.3,-2.1,78,9,19.3,102.21,Mainly Clear
8345,2012-12-13 17:00:00,60.12,1.4,-1.8,79,19,25.0,102.1,Mainly Clear
8346,2012-12-13 18:00:00,59.580000000000005,1.1,-2.0,80,19,25.0,102.01,Mostly Cloudy
8347,2012-12-13 19:00:00,60.660000000000004,1.7,-2.5,74,15,25.0,101.99,Mainly Clear
8348,2012-12-13 20:00:00,58.32,0.4,-2.5,81,11,25.0,101.98,Mainly Clear
8349,2012-12-13 21:00:00,58.68000000000001,0.6,-2.3,81,15,25.0,101.9,Mostly Cloudy
8350,2012-12-13 22:00:00,57.96000000000001,0.2,-2.5,82,15,25.0,101.84,Cloudy
8351,2012-12-13 23:00:00,58.86000000000001,0.7,-2.3,80,17,25.0,101.77,Cloudy
8352,2012-12-14 00:00:00,59.04,0.8,-2.6,78,15,25.0,101.71,Cloudy
8353,2012-12-14 01:00:00,57.6,0.0,-3.0,80,17,25.0,101.62,Mostly Cloudy
8354,2012-12-14 02:00:00,56.519999999999996,-0.6,-3.2,83,15,25.0,101.59,Cloudy
8355,2012-12-14 03:00:00,56.16,-0.8,-3.4,83,15,25.0,101.51,Cloudy
8356,2012-12-14 04:00:00,57.24,-0.2,-3.5,78,20,25.0,101.44,Mostly Cloudy
8357,2012-12-14 05:00:00,58.13999999999999,0.3,-3.3,77,11,25.0,101.4,Cloudy
8358,2012-12-14 06:00:00,58.5,0.5,-3.5,75,15,25.0,101.36,Cloudy
8359,2012-12-14 07:00:00,61.2,2.0,-3.6,66,20,48.3,101.3,Mainly Clear
8360,2012-12-14 08:00:00,60.300000000000004,1.5,-3.5,69,13,48.3,101.32,Mostly Cloudy
8361,2012-12-14 09:00:00,61.739999999999995,2.3,-3.1,67,26,48.3,101.32,Mostly Cloudy
8362,2012-12-14 10:00:00,62.63999999999999,2.8,-2.4,69,22,24.1,101.34,Cloudy
8363,2012-12-14 11:00:00,62.28,2.6,-2.0,72,22,24.1,101.35,Rain Showers
8364,2012-12-14 12:00:00,62.63999999999999,2.8,-1.5,73,17,24.1,101.33,Cloudy
8365,2012-12-14 13:00:00,63.54,3.3,-1.2,72,22,24.1,101.33,Mostly Cloudy
8366,2012-12-14 14:00:00,63.36000000000001,3.2,-1.1,73,19,24.1,101.38,Mostly Cloudy
8367,2012-12-14 15:00:00,63.0,3.0,-1.0,75,15,24.1,101.44,Cloudy
8368,2012-12-14 16:00:00,62.63999999999999,2.8,-1.0,76,17,24.1,101.53,Mostly Cloudy
8369,2012-12-14 17:00:00,62.1,2.5,-0.6,80,13,25.0,101.61,Mostly Cloudy
8370,2012-12-14 18:00:00,61.739999999999995,2.3,-1.3,77,17,25.0,101.7,Cloudy
8371,2012-12-14 19:00:00,60.839999999999996,1.8,-3.6,67,19,25.0,101.76,Mostly Cloudy
8372,2012-12-14 20:00:00,59.04,0.8,-4.7,67,15,25.0,101.85,Mostly Cloudy
8373,2012-12-14 21:00:00,54.9,-1.5,-6.4,69,22,25.0,101.96,Mainly Clear
8374,2012-12-14 22:00:00,52.38,-2.9,-7.4,71,20,25.0,102.06,Mainly Clear
8375,2012-12-14 23:00:00,49.86,-4.3,-8.6,72,22,25.0,102.13,Mainly Clear
8376,2012-12-15 00:00:00,48.06,-5.3,-10.5,67,20,25.0,102.18,Clear
8377,2012-12-15 01:00:00,45.9,-6.5,-11.4,68,17,25.0,102.27,Clear
8378,2012-12-15 02:00:00,44.82,-7.1,-11.8,69,19,25.0,102.36,Clear
8379,2012-12-15 03:00:00,43.2,-8.0,-13.2,66,17,25.0,102.41,Clear
8380,2012-12-15 04:00:00,42.300000000000004,-8.5,-13.8,66,15,25.0,102.42,Clear
8381,2012-12-15 05:00:00,40.86,-9.3,-14.2,67,20,25.0,102.47,Clear
8382,2012-12-15 06:00:00,39.78,-9.9,-14.5,69,17,25.0,102.58,Clear
8383,2012-12-15 07:00:00,39.24,-10.2,-15.1,67,19,48.3,102.63,Clear
8384,2012-12-15 08:00:00,38.34,-10.7,-15.6,67,13,48.3,102.69,Clear
8385,2012-12-15 09:00:00,38.88,-10.4,-15.9,64,19,48.3,102.74,Clear
8386,2012-12-15 10:00:00,39.78,-9.9,-15.2,65,13,48.3,102.78,Mainly Clear
8387,2012-12-15 11:00:00,40.86,-9.3,-14.9,64,19,48.3,102.74,Mainly Clear
8388,2012-12-15 12:00:00,41.22,-9.1,-15.1,62,19,48.3,102.71,Mainly Clear
8389,2012-12-15 13:00:00,42.480000000000004,-8.4,-14.7,60,19,48.3,102.64,Clear
8390,2012-12-15 14:00:00,43.2,-8.0,-14.2,61,13,48.3,102.59,Mainly Clear
8391,2012-12-15 15:00:00,43.56,-7.8,-13.7,63,15,48.3,102.55,Mainly Clear
8392,2012-12-15 16:00:00,42.300000000000004,-8.5,-14.8,60,20,48.3,102.54,Mainly Clear
8393,2012-12-15 17:00:00,41.940000000000005,-8.7,-15.3,59,15,25.0,102.53,Mainly Clear
8394,2012-12-15 18:00:00,41.22,-9.1,-15.1,62,17,25.0,102.54,Clear
8395,2012-12-15 19:00:00,41.22,-9.1,-14.7,64,20,25.0,102.58,Mainly Clear
8396,2012-12-15 20:00:00,41.940000000000005,-8.7,-15.1,60,20,25.0,102.5,Clear
8397,2012-12-15 21:00:00,41.4,-9.0,-15.5,59,24,25.0,102.46,Mainly Clear
8398,2012-12-15 22:00:00,40.5,-9.5,-15.0,64,19,25.0,102.47,Mostly Cloudy
8399,2012-12-15 23:00:00,39.78,-9.9,-15.0,66,26,25.0,102.38,Cloudy
8400,2012-12-16 00:00:00,39.6,-10.0,-14.9,67,24,25.0,102.31,Cloudy
8401,2012-12-16 01:00:00,39.42,-10.1,-14.8,68,24,25.0,102.27,Cloudy
8402,2012-12-16 02:00:00,39.42,-10.1,-14.6,70,28,25.0,102.17,Cloudy
8403,2012-12-16 03:00:00,39.42,-10.1,-14.5,70,28,25.0,102.15,Cloudy
8404,2012-12-16 04:00:00,39.42,-10.1,-14.5,70,24,25.0,102.08,Cloudy
8405,2012-12-16 05:00:00,39.6,-10.0,-14.4,70,22,25.0,102.0,Cloudy
8406,2012-12-16 06:00:00,39.78,-9.9,-14.6,68,35,25.0,101.93,Cloudy
8407,2012-12-16 07:00:00,39.96,-9.8,-14.9,66,32,25.0,101.89,Cloudy
8408,2012-12-16 08:00:00,40.5,-9.5,-14.8,65,32,48.3,101.85,Cloudy
8409,2012-12-16 09:00:00,40.68000000000001,-9.4,-14.7,65,33,19.3,101.82,Snow
8410,2012-12-16 10:00:00,43.74,-7.7,-13.8,62,32,24.1,101.8,Cloudy
8411,2012-12-16 11:00:00,42.84,-8.2,-13.9,63,35,24.1,101.71,Snow
8412,2012-12-16 12:00:00,42.300000000000004,-8.5,-12.2,75,32,4.8,101.62,Snow
8413,2012-12-16 13:00:00,43.2,-8.0,-11.2,78,26,12.9,101.54,Snow
8414,2012-12-16 14:00:00,43.74,-7.7,-10.2,82,32,4.8,101.45,Snow
8415,2012-12-16 15:00:00,43.92,-7.6,-9.4,87,32,3.2,101.38,"Snow,Fog"
8416,2012-12-16 16:00:00,45.0,-7.0,-8.7,88,35,4.0,101.33,"Snow,Fog"
8417,2012-12-16 17:00:00,46.080000000000005,-6.4,-8.0,88,30,4.8,101.28,"Snow,Fog"
8418,2012-12-16 18:00:00,46.980000000000004,-5.9,-7.4,89,30,4.0,101.25,"Snow,Fog"
8419,2012-12-16 19:00:00,48.42,-5.1,-6.6,89,22,16.1,101.2,Snow
8420,2012-12-16 20:00:00,49.14,-4.7,-6.0,91,28,12.9,101.18,Snow
8421,2012-12-16 21:00:00,50.4,-4.0,-5.4,90,24,16.1,101.17,Snow
8422,2012-12-16 22:00:00,51.12,-3.6,-4.7,92,22,9.7,101.12,Snow
8423,2012-12-16 23:00:00,52.019999999999996,-3.1,-4.2,92,24,12.9,101.09,Cloudy
8424,2012-12-17 00:00:00,53.46,-2.3,-3.3,93,24,12.9,101.02,Freezing Drizzle
8425,2012-12-17 01:00:00,53.46,-2.3,-3.3,93,26,9.7,101.01,"Freezing Rain,Fog"
8426,2012-12-17 02:00:00,53.64,-2.2,-3.3,92,24,11.3,101.0,Freezing Rain
8427,2012-12-17 03:00:00,52.92,-2.6,-3.7,92,28,8.0,100.95,"Freezing Rain,Ice Pellets,Fog"
8428,2012-12-17 04:00:00,52.2,-3.0,-4.1,92,24,6.4,100.91,"Snow,Ice Pellets"
8429,2012-12-17 05:00:00,52.2,-3.0,-4.2,91,24,8.0,100.89,"Snow,Ice Pellets"
8430,2012-12-17 06:00:00,53.82,-2.1,-3.2,92,19,8.0,100.88,"Snow,Ice Pellets"
8431,2012-12-17 07:00:00,57.06,-0.3,-1.3,93,13,12.9,100.88,Cloudy
8432,2012-12-17 08:00:00,58.13999999999999,0.3,-0.5,94,20,3.2,100.84,"Drizzle,Fog"
8433,2012-12-17 09:00:00,58.32,0.4,-0.7,92,20,4.0,100.79,"Drizzle,Ice Pellets,Fog"
8434,2012-12-17 10:00:00,58.5,0.5,-0.8,91,20,3.6,100.78,"Snow,Fog"
8435,2012-12-17 11:00:00,58.32,0.4,-0.4,94,19,1.6,100.76,"Snow,Fog"
8436,2012-12-17 12:00:00,58.32,0.4,-0.3,95,22,2.0,100.71,"Snow,Fog"
8437,2012-12-17 13:00:00,58.68000000000001,0.6,-0.1,95,17,4.8,100.66,"Snow,Fog"
8438,2012-12-17 14:00:00,59.04,0.8,0.1,95,19,4.0,100.65,"Snow,Fog"
8439,2012-12-17 15:00:00,59.22,0.9,0.2,95,19,11.3,100.63,"Drizzle,Snow"
8440,2012-12-17 16:00:00,59.94,1.3,0.4,94,15,12.9,100.62,Drizzle
8441,2012-12-17 17:00:00,61.019999999999996,1.9,0.7,92,17,16.1,100.57,Cloudy
8442,2012-12-17 18:00:00,61.2,2.0,0.6,90,19,16.1,100.61,Drizzle
8443,2012-12-17 19:00:00,61.38,2.1,0.4,88,15,16.1,100.63,Drizzle
8444,2012-12-17 20:00:00,61.739999999999995,2.3,0.5,88,19,16.1,100.64,Drizzle
8445,2012-12-17 21:00:00,60.660000000000004,1.7,0.3,90,20,16.1,100.58,Cloudy
8446,2012-12-17 22:00:00,61.019999999999996,1.9,0.1,88,13,19.3,100.56,Cloudy
8447,2012-12-17 23:00:00,59.760000000000005,1.2,-0.1,91,20,16.1,100.5,Cloudy
8448,2012-12-18 00:00:00,58.68000000000001,0.6,-0.5,92,19,16.1,100.44,Cloudy
8449,2012-12-18 01:00:00,57.78,0.1,-0.9,93,24,19.3,100.37,Cloudy
8450,2012-12-18 02:00:00,58.32,0.4,-0.9,91,24,19.3,100.32,Cloudy
8451,2012-12-18 03:00:00,58.32,0.4,-0.9,91,24,16.1,100.24,Rain
8452,2012-12-18 04:00:00,58.5,0.5,-0.8,91,24,11.3,100.15,Rain
8453,2012-12-18 05:00:00,58.68000000000001,0.6,-0.6,92,24,9.7,100.12,"Rain,Ice Pellets"
8454,2012-12-18 06:00:00,58.5,0.5,-0.4,94,24,3.6,100.07,Snow
8455,2012-12-18 07:00:00,58.5,0.5,-0.2,95,24,3.2,100.0,Snow
8456,2012-12-18 08:00:00,58.86000000000001,0.7,0.0,95,24,2.8,99.92,Snow
8457,2012-12-18 09:00:00,58.86000000000001,0.7,0.1,96,22,2.0,99.88,Snow
8458,2012-12-18 10:00:00,58.68000000000001,0.6,0.0,96,24,1.2,99.86,Snow
8459,2012-12-18 11:00:00,58.5,0.5,-0.2,95,22,1.2,99.76,Snow
8460,2012-12-18 12:00:00,59.04,0.8,0.0,94,32,4.8,99.64,Snow
8461,2012-12-18 13:00:00,59.4,1.0,0.0,93,26,4.0,99.56,Snow
8462,2012-12-18 14:00:00,59.4,1.0,0.2,94,24,4.0,99.53,Snow
8463,2012-12-18 15:00:00,59.580000000000005,1.1,0.2,94,22,4.8,99.51,Snow
8464,2012-12-18 16:00:00,59.580000000000005,1.1,0.1,93,26,8.0,99.48,"Rain,Snow"
8465,2012-12-18 17:00:00,59.760000000000005,1.2,0.3,94,22,8.0,99.48,"Rain,Snow"
8466,2012-12-18 18:00:00,60.12,1.4,0.5,94,22,8.0,99.49,"Rain,Snow"
8467,2012-12-18 19:00:00,60.12,1.4,0.7,95,15,8.0,99.53,Rain
8468,2012-12-18 20:00:00,59.94,1.3,0.7,96,15,6.4,99.54,Drizzle
8469,2012-12-18 21:00:00,59.4,1.0,0.6,97,13,3.2,99.58,"Drizzle,Snow,Fog"
8470,2012-12-18 22:00:00,59.04,0.8,0.4,97,15,3.2,99.6,"Drizzle,Snow,Fog"
8471,2012-12-18 23:00:00,59.04,0.8,0.5,98,11,3.2,99.64,"Drizzle,Snow,Fog"
8472,2012-12-19 00:00:00,58.68000000000001,0.6,0.2,97,9,4.0,99.65,"Drizzle,Snow,Fog"
8473,2012-12-19 01:00:00,58.5,0.5,0.1,97,7,6.4,99.71,"Drizzle,Snow,Fog"
8474,2012-12-19 02:00:00,58.32,0.4,0.1,98,7,8.0,99.78,"Drizzle,Snow,Fog"
8475,2012-12-19 03:00:00,58.32,0.4,0.0,97,9,4.8,99.82,"Drizzle,Snow,Fog"
8476,2012-12-19 04:00:00,58.32,0.4,0.0,97,11,4.0,99.87,"Drizzle,Snow,Fog"
8477,2012-12-19 05:00:00,58.13999999999999,0.3,-0.1,97,11,3.2,99.95,"Drizzle,Snow,Fog"
8478,2012-12-19 06:00:00,58.32,0.4,-0.1,96,9,2.4,100.05,"Drizzle,Snow,Fog"
8479,2012-12-19 07:00:00,58.32,0.4,0.0,97,11,3.2,100.15,"Drizzle,Snow,Fog"
8480,2012-12-19 08:00:00,58.5,0.5,0.1,97,11,2.4,100.24,"Drizzle,Fog"
8481,2012-12-19 09:00:00,58.68000000000001,0.6,0.2,97,13,2.4,100.33,"Drizzle,Fog"
8482,2012-12-19 10:00:00,58.68000000000001,0.6,0.2,97,15,2.4,100.42,"Drizzle,Fog"
8483,2012-12-19 11:00:00,59.04,0.8,0.2,96,11,9.7,100.44,Fog
8484,2012-12-19 12:00:00,59.04,0.8,0.0,94,17,19.3,100.53,Cloudy
8485,2012-12-19 13:00:00,59.4,1.0,-0.2,92,11,24.1,100.61,Cloudy
8486,2012-12-19 14:00:00,59.580000000000005,1.1,-0.1,92,13,24.1,100.72,Cloudy
8487,2012-12-19 15:00:00,59.94,1.3,-0.1,90,9,24.1,100.83,Drizzle
8488,2012-12-19 16:00:00,59.94,1.3,-0.4,88,7,24.1,100.96,Cloudy
8489,2012-12-19 17:00:00,59.580000000000005,1.1,-0.2,91,6,16.1,101.04,Drizzle
8490,2012-12-19 18:00:00,59.760000000000005,1.2,0.1,92,9,9.7,101.15,"Drizzle,Snow"
8491,2012-12-19 19:00:00,59.04,0.8,0.3,96,11,4.8,101.26,"Snow,Fog"
8492,2012-12-19 20:00:00,58.86000000000001,0.7,0.1,96,11,6.4,101.32,"Snow,Fog"
8493,2012-12-19 21:00:00,58.68000000000001,0.6,-0.1,95,13,11.3,101.38,Snow
8494,2012-12-19 22:00:00,58.68000000000001,0.6,-0.5,92,9,25.0,101.42,Cloudy
8495,2012-12-19 23:00:00,58.68000000000001,0.6,-0.9,90,13,25.0,101.5,Snow
8496,2012-12-20 00:00:00,58.32,0.4,-2.1,83,20,25.0,101.57,Snow
8497,2012-12-20 01:00:00,57.78,0.1,-2.2,84,17,25.0,101.6,Cloudy
8498,2012-12-20 02:00:00,57.24,-0.2,-2.4,85,19,25.0,101.68,Cloudy
8499,2012-12-20 03:00:00,56.7,-0.5,-2.9,84,17,25.0,101.69,Cloudy
8500,2012-12-20 04:00:00,56.34,-0.7,-3.4,82,15,25.0,101.72,Cloudy
8501,2012-12-20 05:00:00,55.62,-1.1,-3.9,81,13,25.0,101.78,Cloudy
8502,2012-12-20 06:00:00,54.72,-1.6,-4.2,82,15,25.0,101.82,Snow
8503,2012-12-20 07:00:00,54.36,-1.8,-4.9,79,20,25.0,101.88,Cloudy
8504,2012-12-20 08:00:00,54.18000000000001,-1.9,-4.6,82,15,24.1,101.91,Cloudy
8505,2012-12-20 09:00:00,54.54,-1.7,-4.5,81,13,24.1,101.98,Cloudy
8506,2012-12-20 10:00:00,55.080000000000005,-1.4,-4.2,81,7,24.1,101.97,Cloudy
8507,2012-12-20 11:00:00,55.62,-1.1,-4.0,81,4,24.1,101.92,Snow
8508,2012-12-20 12:00:00,55.800000000000004,-1.0,-3.9,81,6,24.1,101.83,Cloudy
8509,2012-12-20 13:00:00,55.980000000000004,-0.9,-4.0,79,15,24.1,101.65,Cloudy
8510,2012-12-20 14:00:00,55.800000000000004,-1.0,-4.3,78,15,24.1,101.62,Cloudy
8511,2012-12-20 15:00:00,56.7,-0.5,-3.8,78,13,24.1,101.55,Cloudy
8512,2012-12-20 16:00:00,57.06,-0.3,-3.3,80,13,24.1,101.56,Cloudy
8513,2012-12-20 17:00:00,57.06,-0.3,-3.2,81,19,25.0,101.38,Mostly Cloudy
8514,2012-12-20 18:00:00,57.96000000000001,0.2,-3.0,79,19,25.0,101.25,Mostly Cloudy
8515,2012-12-20 19:00:00,58.13999999999999,0.3,-2.7,80,17,25.0,101.23,Mostly Cloudy
8516,2012-12-20 20:00:00,57.78,0.1,-2.4,83,20,25.0,101.12,Mostly Cloudy
8517,2012-12-20 21:00:00,58.86000000000001,0.7,-2.3,80,22,25.0,101.0,Cloudy
8518,2012-12-20 22:00:00,59.580000000000005,1.1,-2.4,77,20,25.0,100.88,Cloudy
8519,2012-12-20 23:00:00,59.760000000000005,1.2,-2.1,79,28,25.0,100.69,Cloudy
8520,2012-12-21 00:00:00,61.019999999999996,1.9,-2.1,75,26,25.0,100.6,"Rain,Snow Grains"
8521,2012-12-21 01:00:00,59.580000000000005,1.1,-0.7,88,17,6.4,100.47,"Rain,Snow,Ice Pellets"
8522,2012-12-21 02:00:00,59.4,1.0,-0.3,91,20,6.4,100.35,"Rain,Snow"
8523,2012-12-21 03:00:00,59.22,0.9,0.0,94,28,4.8,100.12,"Rain,Snow,Ice Pellets"
8524,2012-12-21 04:00:00,59.580000000000005,1.1,-0.1,92,22,6.4,99.98,"Rain,Snow,Ice Pellets"
8525,2012-12-21 05:00:00,59.94,1.3,0.1,92,26,6.4,99.85,"Rain,Snow,Ice Pellets"
8526,2012-12-21 06:00:00,59.4,1.0,0.0,93,22,4.0,99.76,"Rain,Snow"
8527,2012-12-21 07:00:00,59.22,0.9,-0.1,93,32,6.4,99.64,"Rain,Snow"
8528,2012-12-21 08:00:00,59.04,0.8,-0.2,93,32,2.4,99.5,"Rain,Snow"
8529,2012-12-21 09:00:00,59.04,0.8,-0.2,93,33,2.4,99.38,"Rain,Snow"
8530,2012-12-21 10:00:00,59.4,1.0,0.0,93,32,12.9,99.24,Snow
8531,2012-12-21 11:00:00,59.22,0.9,0.0,94,30,2.0,99.01,Snow
8532,2012-12-21 12:00:00,59.94,1.3,0.3,93,41,9.7,98.67,Snow
8533,2012-12-21 13:00:00,60.839999999999996,1.8,0.3,90,41,19.3,98.36,Snow
8534,2012-12-21 14:00:00,61.38,2.1,0.4,88,41,19.3,98.16,Rain
8535,2012-12-21 15:00:00,60.839999999999996,1.8,0.2,89,33,12.9,98.1,Rain
8536,2012-12-21 16:00:00,60.12,1.4,0.2,92,43,9.7,97.93,Rain
8537,2012-12-21 17:00:00,59.94,1.3,0.2,92,46,12.9,97.76,Rain
8538,2012-12-21 18:00:00,60.12,1.4,0.3,92,46,25.0,97.56,Rain
8539,2012-12-21 19:00:00,61.739999999999995,2.3,1.1,92,37,11.3,97.52,Rain
8540,2012-12-21 20:00:00,61.92,2.4,1.7,95,15,9.7,97.58,Rain
8541,2012-12-21 21:00:00,59.94,1.3,0.4,94,22,9.7,97.64,Rain
8542,2012-12-21 22:00:00,58.86000000000001,0.7,0.0,95,28,3.6,97.75,Snow
8543,2012-12-21 23:00:00,59.580000000000005,1.1,0.0,92,30,9.7,97.79,"Drizzle,Snow,Fog"
8544,2012-12-22 00:00:00,59.580000000000005,1.1,-0.1,92,32,9.7,97.81,"Drizzle,Snow,Fog"
8545,2012-12-22 01:00:00,59.760000000000005,1.2,0.1,92,30,12.9,97.84,Drizzle
8546,2012-12-22 02:00:00,59.580000000000005,1.1,0.1,93,30,8.0,97.89,"Drizzle,Snow,Fog"
8547,2012-12-22 03:00:00,59.580000000000005,1.1,0.1,93,28,9.7,97.93,"Drizzle,Snow,Fog"
8548,2012-12-22 04:00:00,58.68000000000001,0.6,-0.6,92,35,11.3,97.98,Snow
8549,2012-12-22 05:00:00,55.980000000000004,-0.9,-1.9,93,35,4.8,98.07,Snow
8550,2012-12-22 06:00:00,54.72,-1.6,-3.0,90,41,4.0,98.19,Snow
8551,2012-12-22 07:00:00,53.64,-2.2,-3.7,89,35,4.8,98.32,Snow
8552,2012-12-22 08:00:00,53.1,-2.5,-4.5,86,41,4.0,98.44,Snow
8553,2012-12-22 09:00:00,52.2,-3.0,-5.0,86,35,3.2,98.58,Snow
8554,2012-12-22 10:00:00,51.12,-3.6,-5.0,90,37,1.6,98.7,Snow
8555,2012-12-22 11:00:00,49.86,-4.3,-5.4,92,35,1.2,98.78,Snow
8556,2012-12-22 12:00:00,49.5,-4.5,-5.9,90,33,1.6,98.86,Snow
8557,2012-12-22 13:00:00,49.14,-4.7,-6.9,85,37,4.0,98.96,Snow
8558,2012-12-22 14:00:00,48.6,-5.0,-7.6,82,32,4.0,99.08,"Snow,Blowing Snow"
8559,2012-12-22 15:00:00,47.88,-5.4,-7.1,88,35,1.6,99.24,"Snow,Blowing Snow"
8560,2012-12-22 16:00:00,46.980000000000004,-5.9,-7.8,86,41,1.6,99.37,"Snow,Blowing Snow"
8561,2012-12-22 17:00:00,47.34,-5.7,-8.5,81,32,6.4,99.5,Snow
8562,2012-12-22 18:00:00,46.800000000000004,-6.0,-8.7,81,33,4.8,99.62,Snow
8563,2012-12-22 19:00:00,45.54,-6.7,-9.1,83,32,6.4,99.75,Snow
8564,2012-12-22 20:00:00,45.18000000000001,-6.9,-10.6,75,32,16.1,99.83,Snow
8565,2012-12-22 21:00:00,44.64,-7.2,-11.6,71,28,16.1,99.96,Snow
8566,2012-12-22 22:00:00,44.28,-7.4,-11.9,70,35,16.1,100.0,Snow
8567,2012-12-22 23:00:00,43.56,-7.8,-12.6,68,39,19.3,100.12,Cloudy
8568,2012-12-23 00:00:00,43.56,-7.8,-11.6,74,32,19.3,100.19,Snow Showers
8569,2012-12-23 01:00:00,43.38,-7.9,-11.8,74,32,25.0,100.27,Snow Showers
8570,2012-12-23 02:00:00,42.84,-8.2,-12.5,71,30,25.0,100.36,Mostly Cloudy
8571,2012-12-23 03:00:00,42.84,-8.2,-12.4,72,30,25.0,100.4,Cloudy
8572,2012-12-23 04:00:00,42.66,-8.3,-12.7,71,28,25.0,100.43,Cloudy
8573,2012-12-23 05:00:00,42.300000000000004,-8.5,-13.2,69,30,25.0,100.49,Cloudy
8574,2012-12-23 06:00:00,42.480000000000004,-8.4,-12.3,73,26,25.0,100.51,Cloudy
8575,2012-12-23 07:00:00,42.300000000000004,-8.5,-12.1,75,20,19.3,100.52,Snow Showers
8576,2012-12-23 08:00:00,41.940000000000005,-8.7,-12.0,77,20,19.3,100.54,Snow Showers
8577,2012-12-23 09:00:00,41.940000000000005,-8.7,-12.2,76,22,24.1,100.52,Cloudy
8578,2012-12-23 10:00:00,42.12,-8.6,-12.5,73,24,24.1,100.54,Cloudy
8579,2012-12-23 11:00:00,42.66,-8.3,-12.6,71,26,24.1,100.5,Cloudy
8580,2012-12-23 12:00:00,43.38,-7.9,-12.6,69,24,24.1,100.44,Cloudy
8581,2012-12-23 13:00:00,44.28,-7.4,-12.4,67,20,24.1,100.37,Mostly Cloudy
8582,2012-12-23 14:00:00,45.18000000000001,-6.9,-11.9,67,11,24.1,100.33,Cloudy
8583,2012-12-23 15:00:00,45.36,-6.8,-11.1,71,13,24.1,100.34,Snow Showers
8584,2012-12-23 16:00:00,45.0,-7.0,-9.6,82,13,9.7,100.35,Snow Showers
8585,2012-12-23 17:00:00,44.82,-7.1,-9.4,84,9,12.9,100.36,Snow
8586,2012-12-23 18:00:00,44.64,-7.2,-10.0,80,11,12.9,100.4,Snow
8587,2012-12-23 19:00:00,44.64,-7.2,-10.1,80,9,25.0,100.46,Snow
8588,2012-12-23 20:00:00,44.64,-7.2,-10.4,78,9,25.0,100.55,Cloudy
8589,2012-12-23 21:00:00,43.2,-8.0,-11.2,78,9,25.0,100.62,Mainly Clear
8590,2012-12-23 22:00:00,41.4,-9.0,-11.7,81,9,25.0,100.68,Mainly Clear
8591,2012-12-23 23:00:00,42.66,-8.3,-10.9,81,9,25.0,100.76,Cloudy
8592,2012-12-24 00:00:00,42.300000000000004,-8.5,-10.7,84,15,25.0,100.8,Mostly Cloudy
8593,2012-12-24 01:00:00,42.480000000000004,-8.4,-10.7,83,17,25.0,100.85,Cloudy
8594,2012-12-24 02:00:00,41.76,-8.8,-11.4,81,17,25.0,100.91,Cloudy
8595,2012-12-24 03:00:00,41.580000000000005,-8.9,-12.3,76,20,25.0,100.99,Cloudy
8596,2012-12-24 04:00:00,39.6,-10.0,-12.7,81,24,25.0,101.02,Mostly Cloudy
8597,2012-12-24 05:00:00,38.88,-10.4,-13.3,79,19,25.0,101.07,Mostly Cloudy
8598,2012-12-24 06:00:00,37.980000000000004,-10.9,-14.0,78,15,25.0,101.13,Mainly Clear
8599,2012-12-24 07:00:00,37.62,-11.1,-13.9,80,15,25.0,101.23,Clear
8600,2012-12-24 08:00:00,37.800000000000004,-11.0,-13.9,79,13,25.0,101.32,Clear
8601,2012-12-24 09:00:00,38.7,-10.5,-13.7,77,13,24.1,101.41,Clear
8602,2012-12-24 10:00:00,39.78,-9.9,-13.4,76,11,48.3,101.45,Mainly Clear
8603,2012-12-24 11:00:00,41.4,-9.0,-13.7,69,11,48.3,101.44,Mainly Clear
8604,2012-12-24 12:00:00,43.38,-7.9,-13.3,65,9,48.3,101.43,Mainly Clear
8605,2012-12-24 13:00:00,43.92,-7.6,-13.1,65,15,48.3,101.45,Mainly Clear
8606,2012-12-24 14:00:00,43.56,-7.8,-13.7,63,15,48.3,101.46,Mainly Clear
8607,2012-12-24 15:00:00,44.1,-7.5,-13.3,63,13,48.3,101.49,Mainly Clear
8608,2012-12-24 16:00:00,42.84,-8.2,-13.3,67,11,24.1,101.45,Mainly Clear
8609,2012-12-24 17:00:00,40.14,-9.7,-13.7,73,6,25.0,101.49,Mainly Clear
8610,2012-12-24 18:00:00,38.88,-10.4,-13.8,76,9,25.0,101.45,Clear
8611,2012-12-24 19:00:00,40.14,-9.7,-13.1,76,7,25.0,101.43,Mainly Clear
8612,2012-12-24 20:00:00,40.32,-9.6,-12.8,77,6,25.0,101.43,Mainly Clear
8613,2012-12-24 21:00:00,40.68000000000001,-9.4,-13.2,74,7,25.0,101.44,Mainly Clear
8614,2012-12-24 22:00:00,39.96,-9.8,-13.2,76,4,25.0,101.44,Mostly Cloudy
8615,2012-12-24 23:00:00,38.7,-10.5,-12.8,83,4,25.0,101.48,Mostly Cloudy
8616,2012-12-25 00:00:00,41.4,-9.0,-12.5,76,11,25.0,101.44,Mostly Cloudy
8617,2012-12-25 01:00:00,38.7,-10.5,-13.0,82,6,25.0,101.51,Mostly Cloudy
8618,2012-12-25 02:00:00,38.519999999999996,-10.6,-13.1,82,13,25.0,101.51,Mostly Cloudy
8619,2012-12-25 03:00:00,38.7,-10.5,-12.6,85,19,25.0,101.47,Cloudy
8620,2012-12-25 04:00:00,39.42,-10.1,-13.2,78,15,24.1,101.49,Mostly Cloudy
8621,2012-12-25 05:00:00,38.16,-10.8,-13.1,83,17,25.0,101.49,Cloudy
8622,2012-12-25 06:00:00,38.519999999999996,-10.6,-13.6,79,13,25.0,101.59,Cloudy
8623,2012-12-25 07:00:00,37.26,-11.3,-14.1,80,11,25.0,101.72,Cloudy
8624,2012-12-25 08:00:00,37.26,-11.3,-14.4,78,11,24.1,101.79,Cloudy
8625,2012-12-25 09:00:00,37.800000000000004,-11.0,-14.2,77,13,24.1,101.87,Cloudy
8626,2012-12-25 10:00:00,39.42,-10.1,-14.3,71,15,24.1,101.95,Cloudy
8627,2012-12-25 11:00:00,40.32,-9.6,-14.4,68,9,24.1,101.93,Cloudy
8628,2012-12-25 12:00:00,40.68000000000001,-9.4,-14.4,67,9,24.1,101.92,Cloudy
8629,2012-12-25 13:00:00,41.940000000000005,-8.7,-14.5,63,7,24.1,101.92,Mostly Cloudy
8630,2012-12-25 14:00:00,43.74,-7.7,-14.1,60,6,48.3,101.95,Mainly Clear
8631,2012-12-25 15:00:00,44.82,-7.1,-13.7,59,17,48.3,101.98,Clear
8632,2012-12-25 16:00:00,44.1,-7.5,-13.9,60,11,48.3,102.03,Clear
8633,2012-12-25 17:00:00,42.66,-8.3,-13.4,67,13,25.0,102.1,Clear
8634,2012-12-25 18:00:00,41.580000000000005,-8.9,-13.4,70,13,25.0,102.16,Mainly Clear
8635,2012-12-25 19:00:00,41.76,-8.8,-12.6,74,19,25.0,102.27,Mainly Clear
8636,2012-12-25 20:00:00,40.68000000000001,-9.4,-12.6,77,13,25.0,102.3,Mainly Clear
8637,2012-12-25 21:00:00,40.14,-9.7,-12.5,80,4,25.0,102.28,Clear
8638,2012-12-25 22:00:00,37.980000000000004,-10.9,-13.2,83,4,25.0,102.34,Clear
8639,2012-12-25 23:00:00,38.88,-10.4,-12.7,83,11,25.0,102.45,Clear
8640,2012-12-26 00:00:00,36.36,-11.8,-13.5,87,4,25.0,102.41,Clear
8641,2012-12-26 01:00:00,37.440000000000005,-11.2,-12.9,87,6,25.0,102.42,Clear
8642,2012-12-26 02:00:00,34.74,-12.7,-14.4,87,4,25.0,102.45,Clear
8643,2012-12-26 03:00:00,32.04,-14.2,-15.8,88,6,25.0,102.52,Clear
8644,2012-12-26 04:00:00,34.019999999999996,-13.1,-14.7,88,6,25.0,102.55,Clear
8645,2012-12-26 05:00:00,34.74,-12.7,-14.1,89,4,25.0,102.48,Clear
8646,2012-12-26 06:00:00,33.480000000000004,-13.4,-14.8,89,4,25.0,102.47,Clear
8647,2012-12-26 07:00:00,34.2,-13.0,-14.4,89,7,25.0,102.46,Mainly Clear
8648,2012-12-26 08:00:00,32.940000000000005,-13.7,-15.2,88,4,16.1,102.53,Mostly Cloudy
8649,2012-12-26 09:00:00,37.26,-11.3,-12.7,89,15,4.0,102.52,"Snow Showers,Fog"
8650,2012-12-26 10:00:00,37.800000000000004,-11.0,-13.2,84,15,24.1,102.54,Mainly Clear
8651,2012-12-26 11:00:00,37.26,-11.3,-14.5,77,20,48.3,102.5,Mainly Clear
8652,2012-12-26 12:00:00,38.519999999999996,-10.6,-14.3,74,20,48.3,102.36,Mainly Clear
8653,2012-12-26 13:00:00,39.06,-10.3,-14.0,74,15,24.1,102.35,Mostly Cloudy
8654,2012-12-26 14:00:00,39.6,-10.0,-14.0,72,19,24.1,102.27,Cloudy
8655,2012-12-26 15:00:00,39.6,-10.0,-14.2,71,19,24.1,102.28,Cloudy
8656,2012-12-26 16:00:00,39.06,-10.3,-14.1,74,19,25.0,102.17,Cloudy
8657,2012-12-26 17:00:00,39.24,-10.2,-13.9,74,22,25.0,102.16,Cloudy
8658,2012-12-26 18:00:00,39.6,-10.0,-13.8,74,24,25.0,102.14,Cloudy
8659,2012-12-26 19:00:00,40.32,-9.6,-13.1,76,39,25.0,102.03,Cloudy
8660,2012-12-26 20:00:00,39.06,-10.3,-12.9,81,28,25.0,101.88,Cloudy
8661,2012-12-26 21:00:00,39.96,-9.8,-12.5,81,22,25.0,101.87,Cloudy
8662,2012-12-26 22:00:00,40.14,-9.7,-12.8,78,37,25.0,101.7,Cloudy
8663,2012-12-26 23:00:00,40.14,-9.7,-12.3,81,24,25.0,101.61,Cloudy
8664,2012-12-27 00:00:00,39.96,-9.8,-12.5,81,30,25.0,101.46,Cloudy
8665,2012-12-27 01:00:00,40.68000000000001,-9.4,-12.2,80,26,25.0,101.37,Cloudy
8666,2012-12-27 02:00:00,42.300000000000004,-8.5,-11.3,80,30,25.0,101.31,Cloudy
8667,2012-12-27 03:00:00,43.019999999999996,-8.1,-10.2,85,37,2.4,101.21,Snow
8668,2012-12-27 04:00:00,43.38,-7.9,-9.5,88,33,2.0,101.03,Snow
8669,2012-12-27 05:00:00,44.1,-7.5,-9.1,88,43,1.2,100.95,Snow
8670,2012-12-27 06:00:00,45.36,-6.8,-8.1,90,39,1.2,100.83,Snow
8671,2012-12-27 07:00:00,45.9,-6.5,-7.6,92,44,1.2,100.73,Snow
8672,2012-12-27 08:00:00,46.26,-6.3,-7.4,92,39,0.8,100.65,Moderate Snow
8673,2012-12-27 09:00:00,47.34,-5.7,-6.7,93,37,0.8,100.67,Moderate Snow
8674,2012-12-27 10:00:00,47.88,-5.4,-6.4,93,41,0.6,100.64,"Moderate Snow,Blowing Snow"
8675,2012-12-27 11:00:00,48.24,-5.2,-6.4,91,39,0.6,100.62,"Snow,Blowing Snow"
8676,2012-12-27 12:00:00,47.7,-5.5,-6.6,92,39,0.6,100.5,"Moderate Snow,Blowing Snow"
8677,2012-12-27 13:00:00,47.88,-5.4,-6.7,91,48,0.6,100.36,"Snow,Blowing Snow"
8678,2012-12-27 14:00:00,48.24,-5.2,-6.7,89,46,0.6,100.35,"Snow,Blowing Snow"
8679,2012-12-27 15:00:00,48.6,-5.0,-6.2,91,37,0.6,100.37,"Snow,Blowing Snow"
8680,2012-12-27 16:00:00,49.5,-4.5,-6.2,88,37,2.0,100.44,"Snow,Blowing Snow"
8681,2012-12-27 17:00:00,50.04,-4.2,-5.9,88,32,3.2,100.47,"Snow,Blowing Snow"
8682,2012-12-27 18:00:00,50.4,-4.0,-5.7,88,28,8.0,100.49,"Snow,Blowing Snow"
8683,2012-12-27 19:00:00,50.580000000000005,-3.9,-5.6,88,26,9.7,100.52,"Snow,Blowing Snow"
8684,2012-12-27 20:00:00,50.940000000000005,-3.7,-5.3,89,37,16.1,100.58,Snow
8685,2012-12-27 21:00:00,50.940000000000005,-3.7,-4.8,92,24,4.8,100.62,"Freezing Drizzle,Snow"
8686,2012-12-27 22:00:00,50.76,-3.8,-4.6,94,20,4.8,100.65,"Freezing Drizzle,Snow"
8687,2012-12-27 23:00:00,50.4,-4.0,-5.6,89,24,9.7,100.7,Snow
8688,2012-12-28 00:00:00,50.04,-4.2,-5.7,89,19,8.0,100.78,"Freezing Drizzle,Snow"
8689,2012-12-28 01:00:00,49.68000000000001,-4.4,-6.6,85,15,6.4,100.83,"Freezing Drizzle,Snow"
8690,2012-12-28 02:00:00,49.86,-4.3,-6.3,86,11,12.9,100.93,"Freezing Drizzle,Snow"
8691,2012-12-28 03:00:00,49.32,-4.6,-5.9,91,13,4.0,101.01,Snow
8692,2012-12-28 04:00:00,48.78,-4.9,-5.9,93,9,9.7,101.0,Snow
8693,2012-12-28 05:00:00,48.6,-5.0,-6.1,92,7,25.0,101.01,Cloudy
8694,2012-12-28 06:00:00,48.96,-4.8,-6.6,87,9,25.0,101.04,Cloudy
8695,2012-12-28 07:00:00,48.6,-5.0,-6.5,89,9,25.0,101.07,Cloudy
8696,2012-12-28 08:00:00,48.24,-5.2,-7.0,87,17,24.1,101.15,Mostly Cloudy
8697,2012-12-28 09:00:00,47.7,-5.5,-8.0,83,17,24.1,101.23,Mostly Cloudy
8698,2012-12-28 10:00:00,46.62,-6.1,-8.6,82,19,24.1,101.27,Clear
8699,2012-12-28 11:00:00,46.440000000000005,-6.2,-8.8,82,24,48.3,101.24,Mainly Clear
8700,2012-12-28 12:00:00,44.64,-7.2,-9.9,81,24,48.3,101.22,Mainly Clear
8701,2012-12-28 13:00:00,45.36,-6.8,-9.8,79,20,48.3,101.17,Mainly Clear
8702,2012-12-28 14:00:00,45.9,-6.5,-9.9,77,22,48.3,101.17,Mainly Clear
8703,2012-12-28 15:00:00,45.36,-6.8,-10.3,76,24,48.3,101.22,Mainly Clear
8704,2012-12-28 16:00:00,43.74,-7.7,-11.0,77,30,48.3,101.25,Mainly Clear
8705,2012-12-28 17:00:00,42.12,-8.6,-12.0,76,26,25.0,101.34,Mainly Clear
8706,2012-12-28 18:00:00,41.4,-9.0,-12.2,78,24,25.0,101.37,Mainly Clear
8707,2012-12-28 19:00:00,40.68000000000001,-9.4,-12.3,79,22,25.0,101.37,Mainly Clear
8708,2012-12-28 20:00:00,39.96,-9.8,-12.6,80,20,25.0,101.35,Mainly Clear
8709,2012-12-28 21:00:00,39.96,-9.8,-12.5,81,19,25.0,101.36,Mainly Clear
8710,2012-12-28 22:00:00,39.78,-9.9,-12.5,81,17,25.0,101.38,Mainly Clear
8711,2012-12-28 23:00:00,37.980000000000004,-10.9,-13.2,83,13,25.0,101.38,Mainly Clear
8712,2012-12-29 00:00:00,36.72,-11.6,-13.5,86,13,25.0,101.35,Mainly Clear
8713,2012-12-29 01:00:00,36.18000000000001,-11.9,-13.6,87,11,25.0,101.31,Clear
8714,2012-12-29 02:00:00,36.36,-11.8,-13.1,90,13,25.0,101.33,Clear
8715,2012-12-29 03:00:00,33.480000000000004,-13.4,-15.2,86,4,4.8,101.33,Fog
8716,2012-12-29 04:00:00,28.8,-16.0,-17.2,90,6,9.7,101.25,Fog
8717,2012-12-29 05:00:00,30.96,-14.8,-15.9,91,4,6.4,101.25,Fog
8718,2012-12-29 06:00:00,32.76,-13.8,-15.3,88,4,9.7,101.25,Fog
8719,2012-12-29 07:00:00,30.96,-14.8,-16.4,88,7,8.0,101.22,Fog
8720,2012-12-29 08:00:00,33.12,-13.6,-15.1,88,11,12.9,101.19,Cloudy
8721,2012-12-29 09:00:00,33.84,-13.2,-14.8,88,11,12.9,101.13,Cloudy
8722,2012-12-29 10:00:00,36.0,-12.0,-13.3,90,7,6.4,101.15,Fog
8723,2012-12-29 11:00:00,37.980000000000004,-10.9,-12.2,90,7,6.4,101.09,"Snow Showers,Fog"
8724,2012-12-29 12:00:00,38.7,-10.5,-11.6,92,11,8.0,100.93,"Snow Showers,Fog"
8725,2012-12-29 13:00:00,39.6,-10.0,-11.1,92,22,9.7,100.63,"Snow Showers,Fog"
8726,2012-12-29 14:00:00,40.86,-9.3,-10.5,91,22,4.8,100.6,"Snow,Fog"
8727,2012-12-29 15:00:00,41.76,-8.8,-10.0,91,20,1.2,100.55,"Snow,Fog"
8728,2012-12-29 16:00:00,42.300000000000004,-8.5,-9.9,90,24,1.2,100.49,"Snow,Fog"
8729,2012-12-29 17:00:00,41.4,-9.0,-10.4,90,19,2.4,100.46,"Snow,Fog"
8730,2012-12-29 18:00:00,40.86,-9.3,-10.9,88,26,6.4,100.38,"Snow,Fog"
8731,2012-12-29 19:00:00,40.5,-9.5,-11.2,87,26,3.2,100.33,"Snow,Fog"
8732,2012-12-29 20:00:00,40.14,-9.7,-11.6,86,24,9.7,100.25,"Snow,Fog"
8733,2012-12-29 21:00:00,39.96,-9.8,-11.8,85,24,8.0,100.24,"Snow,Fog"
8734,2012-12-29 22:00:00,39.42,-10.1,-11.6,89,15,2.4,100.2,"Snow,Fog"
8735,2012-12-29 23:00:00,39.6,-10.0,-12.0,85,20,6.4,100.19,"Snow,Fog"
8736,2012-12-30 00:00:00,40.32,-9.6,-11.3,87,13,3.2,100.23,"Snow,Fog"
8737,2012-12-30 01:00:00,40.68000000000001,-9.4,-10.5,92,9,2.4,100.22,"Snow,Fog"
8738,2012-12-30 02:00:00,40.86,-9.3,-10.4,92,9,4.0,100.28,"Snow,Fog"
8739,2012-12-30 03:00:00,41.22,-9.1,-10.4,90,11,3.6,100.3,"Snow,Fog"
8740,2012-12-30 04:00:00,40.86,-9.3,-10.6,90,13,9.7,100.28,"Snow,Fog"
8741,2012-12-30 05:00:00,41.22,-9.1,-10.4,90,11,4.0,100.32,"Snow,Fog"
8742,2012-12-30 06:00:00,40.86,-9.3,-10.8,89,17,8.0,100.39,"Snow,Fog"
8743,2012-12-30 07:00:00,39.78,-9.9,-13.2,77,19,25.0,100.48,Mostly Cloudy
8744,2012-12-30 08:00:00,37.26,-11.3,-14.5,77,20,24.1,100.57,Cloudy
8745,2012-12-30 09:00:00,36.54,-11.7,-15.0,76,19,24.1,100.69,Cloudy
8746,2012-12-30 10:00:00,35.28,-12.4,-16.0,74,24,24.1,100.82,Cloudy
8747,2012-12-30 11:00:00,36.18000000000001,-11.9,-15.4,75,32,24.1,100.89,Cloudy
8748,2012-12-30 12:00:00,35.64,-12.2,-15.7,75,26,48.3,100.91,Mostly Cloudy
8749,2012-12-30 13:00:00,35.28,-12.4,-16.2,73,37,48.3,100.92,Mostly Cloudy
8750,2012-12-30 14:00:00,36.36,-11.8,-16.1,70,37,48.3,100.96,Mainly Clear
8751,2012-12-30 15:00:00,37.26,-11.3,-15.6,70,32,48.3,101.05,Mainly Clear
8752,2012-12-30 16:00:00,37.080000000000005,-11.4,-15.5,72,26,48.3,101.15,Mainly Clear
8753,2012-12-30 17:00:00,35.82,-12.1,-15.8,74,28,25.0,101.26,Mainly Clear
8754,2012-12-30 18:00:00,34.92,-12.6,-16.0,76,24,25.0,101.36,Mainly Clear
8755,2012-12-30 19:00:00,33.480000000000004,-13.4,-16.5,77,26,25.0,101.47,Mainly Clear
8756,2012-12-30 20:00:00,32.76,-13.8,-16.5,80,24,25.0,101.52,Clear
8757,2012-12-30 21:00:00,32.76,-13.8,-16.5,80,20,25.0,101.5,Mainly Clear
8758,2012-12-30 22:00:00,32.940000000000005,-13.7,-16.3,81,19,25.0,101.54,Mainly Clear
8759,2012-12-30 23:00:00,35.82,-12.1,-15.1,78,28,25.0,101.52,Mostly Cloudy
8760,2012-12-31 00:00:00,37.62,-11.1,-14.4,77,26,25.0,101.51,Cloudy
8761,2012-12-31 01:00:00,38.34,-10.7,-14.0,77,15,25.0,101.5,Cloudy
8762,2012-12-31 02:00:00,39.42,-10.1,-13.4,77,9,25.0,101.45,Cloudy
8763,2012-12-31 03:00:00,36.36,-11.8,-14.4,81,6,25.0,101.42,Mostly Cloudy
8764,2012-12-31 04:00:00,38.7,-10.5,-12.8,83,11,25.0,101.34,Cloudy
8765,2012-12-31 05:00:00,39.24,-10.2,-12.4,84,6,25.0,101.28,Cloudy
8766,2012-12-31 06:00:00,40.14,-9.7,-11.7,85,4,25.0,101.23,Cloudy
8767,2012-12-31 07:00:00,40.86,-9.3,-11.3,85,0,19.3,101.19,Snow Showers
8768,2012-12-31 08:00:00,42.12,-8.6,-10.3,87,4,3.2,101.14,Snow Showers
8769,2012-12-31 09:00:00,43.019999999999996,-8.1,-9.6,89,4,2.4,101.09,Snow
8770,2012-12-31 10:00:00,44.28,-7.4,-8.9,89,4,6.4,101.05,"Snow,Fog"
8771,2012-12-31 11:00:00,45.54,-6.7,-7.9,91,9,9.7,100.93,Snow
8772,2012-12-31 12:00:00,47.16,-5.8,-7.5,88,4,12.9,100.78,Snow
8773,2012-12-31 13:00:00,49.32,-4.6,-6.6,86,4,12.9,100.63,Snow
8774,2012-12-31 14:00:00,51.480000000000004,-3.4,-5.7,84,6,11.3,100.57,Snow
8775,2012-12-31 15:00:00,53.46,-2.3,-4.6,84,9,9.7,100.47,Snow
8776,2012-12-31 16:00:00,55.080000000000005,-1.4,-4.0,82,13,12.9,100.4,Snow
8777,2012-12-31 17:00:00,55.62,-1.1,-3.3,85,19,9.7,100.3,Snow
8778,2012-12-31 18:00:00,55.26,-1.3,-3.1,88,17,9.7,100.19,Snow
8779,2012-12-31 19:00:00,57.78,0.1,-2.7,81,30,9.7,100.13,Snow
8780,2012-12-31 20:00:00,57.96000000000001,0.2,-2.4,83,24,9.7,100.03,Snow
8781,2012-12-31 21:00:00,56.7,-0.5,-1.5,93,28,4.8,99.95,Snow
8782,2012-12-31 22:00:00,57.24,-0.2,-1.8,89,28,9.7,99.91,Snow
8783,2012-12-31 23:00:00,57.6,0.0,-2.1,86,30,11.3,99.89,Snow
